{"type": "FeatureCollection", "features": [{"type": "Feature", "geometry": {"coordinates": [-4.01585, 5.43515], "type": "Point"}, "properties": {"ADM0_FR": "DISTRICT AUTONOME D'ABIDJAN", "ADM0_PCODE": "CI04", "ADM1_FR": "DISTRICT AUTONOME D'ABIDJAN", "ADM1_PCODE": "CI101", "ADM2_FR": "ABIDJAN", "ADM2_PCODE": "CI0101", "ADM3_FR": "ABIDJAN", "ADM3_PCODE": "CI010101", "ADM4_FR": "ABOBO", "ADM4_PCODE": "C0029", "centerLat": 5.43515, "centerLng": -4.01585, "pop": 1030658}, "id": 1}, {"type": "Feature", "geometry": {"coordinates": [-4.01988, 5.37187], "type": "Point"}, "properties": {"ADM0_FR": "DISTRICT AUTONOME D'ABIDJAN", "ADM0_PCODE": "CI04", "ADM1_FR": "DISTRICT AUTONOME D'ABIDJAN", "ADM1_PCODE": "CI101", "ADM2_FR": "ABIDJAN", "ADM2_PCODE": "CI0101", "ADM3_FR": "ABIDJAN", "ADM3_PCODE": "CI010101", "ADM4_FR": "ADJAME", "ADM4_PCODE": "C0133", "centerLat": 5.37187, "centerLng": -4.01988, "pop": 372978}, "id": 2}, {"type": "Feature", "geometry": {"coordinates": [-4.05488, 5.49466], "type": "Point"}, "properties": {"ADM0_FR": "DISTRICT AUTONOME D'ABIDJAN", "ADM0_PCODE": "CI04", "ADM1_FR": "DISTRICT AUTONOME D'ABIDJAN", "ADM1_PCODE": "CI101", "ADM2_FR": "ABIDJAN", "ADM2_PCODE": "CI0101", "ADM3_FR": "ANYAMA", "ADM3_PCODE": "CI010102", "ADM4_FR": "ANYAMA", "ADM4_PCODE": "C0570", "centerLat": 5.49466, "centerLng": -4.05488, "pop": 103297}, "id": 3}, {"type": "Feature", "geometry": {"coordinates": [-4.05198, 5.38219], "type": "Point"}, "properties": {"ADM0_FR": "DISTRICT AUTONOME D'ABIDJAN", "ADM0_PCODE": "CI04", "ADM1_FR": "DISTRICT AUTONOME D'ABIDJAN", "ADM1_PCODE": "CI101", "ADM2_FR": "ABIDJAN", "ADM2_PCODE": "CI0101", "ADM3_FR": "ABIDJAN", "ADM3_PCODE": "CI010101", "ADM4_FR": "ATTECOUBE", "ADM4_PCODE": "C0734", "centerLat": 5.38219, "centerLng": -4.05198, "pop": 260911}, "id": 4}, {"type": "Feature", "geometry": {"coordinates": [-3.89704, 5.359], "type": "Point"}, "properties": {"ADM0_FR": "DISTRICT AUTONOME D'ABIDJAN", "ADM0_PCODE": "CI04", "ADM1_FR": "DISTRICT AUTONOME D'ABIDJAN", "ADM1_PCODE": "CI101", "ADM2_FR": "ABIDJAN", "ADM2_PCODE": "CI0101", "ADM3_FR": "BINGERVILLE", "ADM3_PCODE": "CI010103", "ADM4_FR": "BINGERVILLE", "ADM4_PCODE": "C1214", "centerLat": 5.359, "centerLng": -3.89704, "pop": 64015}, "id": 5}, {"type": "Feature", "geometry": {"coordinates": [-3.96089, 5.373], "type": "Point"}, "properties": {"ADM0_FR": "DISTRICT AUTONOME D'ABIDJAN", "ADM0_PCODE": "CI04", "ADM1_FR": "DISTRICT AUTONOME D'ABIDJAN", "ADM1_PCODE": "CI101", "ADM2_FR": "ABIDJAN", "ADM2_PCODE": "CI0101", "ADM3_FR": "ABIDJAN", "ADM3_PCODE": "CI010101", "ADM4_FR": "COCODY", "ADM4_PCODE": "C1672", "centerLat": 5.373, "centerLng": -3.96089, "pop": 447055}, "id": 6}, {"type": "Feature", "geometry": {"coordinates": [-3.72689, 5.19266], "type": "Point"}, "properties": {"ADM0_FR": "COMOE", "ADM0_PCODE": "CI02", "ADM1_FR": "SUD-COMOE", "ADM1_PCODE": "CI130", "ADM2_FR": "GRAND-BASSAM", "ADM2_PCODE": "CI3003", "ADM3_FR": "GRAND-BASSAM", "ADM3_PCODE": "CI300303", "ADM4_FR": "GRAND-BASSAM", "ADM4_PCODE": "C3367", "centerLat": 5.19266, "centerLng": -3.72689, "pop": 74671}, "id": 7}, {"type": "Feature", "geometry": {"coordinates": [-3.94836, 5.30249], "type": "Point"}, "properties": {"ADM0_FR": "DISTRICT AUTONOME D'ABIDJAN", "ADM0_PCODE": "CI04", "ADM1_FR": "DISTRICT AUTONOME D'ABIDJAN", "ADM1_PCODE": "CI101", "ADM2_FR": "ABIDJAN", "ADM2_PCODE": "CI0101", "ADM3_FR": "ABIDJAN", "ADM3_PCODE": "CI010101", "ADM4_FR": "KOUMASSI", "ADM4_PCODE": "C4694", "centerLat": 5.30249, "centerLng": -3.94836, "pop": 433139}, "id": 8}, {"type": "Feature", "geometry": {"coordinates": [-3.98251, 5.29932], "type": "Point"}, "properties": {"ADM0_FR": "DISTRICT AUTONOME D'ABIDJAN", "ADM0_PCODE": "CI04", "ADM1_FR": "DISTRICT AUTONOME D'ABIDJAN", "ADM1_PCODE": "CI101", "ADM2_FR": "ABIDJAN", "ADM2_PCODE": "CI0101", "ADM3_FR": "ABIDJAN", "ADM3_PCODE": "CI010101", "ADM4_FR": "MARCORY", "ADM4_PCODE": "C5375", "centerLat": 5.29932, "centerLng": -3.98251, "pop": 249858}, "id": 9}, {"type": "Feature", "geometry": {"coordinates": [-4.02164, 5.32517], "type": "Point"}, "properties": {"ADM0_FR": "DISTRICT AUTONOME D'ABIDJAN", "ADM0_PCODE": "CI04", "ADM1_FR": "DISTRICT AUTONOME D'ABIDJAN", "ADM1_PCODE": "CI101", "ADM2_FR": "ABIDJAN", "ADM2_PCODE": "CI0101", "ADM3_FR": "ABIDJAN", "ADM3_PCODE": "CI010101", "ADM4_FR": "PLATEAU", "ADM4_PCODE": "C6556", "centerLat": 5.32517, "centerLng": -4.02164, "pop": 7488}, "id": 10}, {"type": "Feature", "geometry": {"coordinates": [-3.958626, 5.256881], "type": "Point"}, "properties": {"ADM0_FR": "DISTRICT AUTONOME D'ABIDJAN", "ADM0_PCODE": "CI04", "ADM1_FR": "DISTRICT AUTONOME D'ABIDJAN", "ADM1_PCODE": "CI101", "ADM2_FR": "ABIDJAN", "ADM2_PCODE": "CI0101", "ADM3_FR": "ABIDJAN", "ADM3_PCODE": "CI010101", "ADM4_FR": "PORT-BOUET", "ADM4_PCODE": "C6619", "centerLat": 5.256881, "centerLng": -3.958626, "pop": 419033}, "id": 11}, {"type": "Feature", "geometry": {"coordinates": [-4.01044, 5.29098], "type": "Point"}, "properties": {"ADM0_FR": "DISTRICT AUTONOME D'ABIDJAN", "ADM0_PCODE": "CI04", "ADM1_FR": "DISTRICT AUTONOME D'ABIDJAN", "ADM1_PCODE": "CI101", "ADM2_FR": "ABIDJAN", "ADM2_PCODE": "CI0101", "ADM3_FR": "ABIDJAN", "ADM3_PCODE": "CI010101", "ADM4_FR": "TREICHVILLE", "ADM4_PCODE": "C7913", "centerLat": 5.29098, "centerLng": -4.01044, "pop": 102580}, "id": 12}, {"type": "Feature", "geometry": {"coordinates": [-4.09015, 5.30848], "type": "Point"}, "properties": {"ADM0_FR": "DISTRICT AUTONOME D'ABIDJAN", "ADM0_PCODE": "CI04", "ADM1_FR": "DISTRICT AUTONOME D'ABIDJAN", "ADM1_PCODE": "CI101", "ADM2_FR": "ABIDJAN", "ADM2_PCODE": "CI0101", "ADM3_FR": "ABIDJAN", "ADM3_PCODE": "CI010101", "ADM4_FR": "YOPOUGON", "ADM4_PCODE": "C8230", "centerLat": 5.30848, "centerLng": -4.09015, "pop": 1071543}, "id": 13}, {"type": "Feature", "geometry": {"coordinates": [-3.49676, 6.72836], "type": "Point"}, "properties": {"ADM0_FR": "COMOE", "ADM0_PCODE": "CI02", "ADM1_FR": "INDENIE-DJUABLIN", "ADM1_PCODE": "CI120", "ADM2_FR": "ABENGOUROU", "ADM2_PCODE": "CI2001", "ADM3_FR": "ABENGOUROU", "ADM3_PCODE": "CI200101", "ADM4_FR": "ABENGOUROU", "ADM4_PCODE": "C0014", "centerLat": 6.72836, "centerLng": -3.49676, "pop": 100910}, "id": 14}, {"type": "Feature", "geometry": {"coordinates": [-3.20677, 5.47457], "type": "Point"}, "properties": {"ADM0_FR": "COMOE", "ADM0_PCODE": "CI02", "ADM1_FR": "SUD-COMOE", "ADM1_PCODE": "CI130", "ADM2_FR": "ABOISSO", "ADM2_PCODE": "CI3001", "ADM3_FR": "ABOISSO", "ADM3_PCODE": "CI300101", "ADM4_FR": "ABOISSO", "ADM4_PCODE": "C0033", "centerLat": 5.47457, "centerLng": -3.20677, "pop": 45688}, "id": 15}, {"type": "Feature", "geometry": {"coordinates": [-3.26414, 5.428], "type": "Point"}, "properties": {"ADM0_FR": "COMOE", "ADM0_PCODE": "CI02", "ADM1_FR": "SUD-COMOE", "ADM1_PCODE": "CI130", "ADM2_FR": "ABOISSO", "ADM2_PCODE": "CI3001", "ADM3_FR": "ADAOU", "ADM3_PCODE": "CI300102", "ADM4_FR": "ADAOU", "ADM4_PCODE": "C0098", "centerLat": 5.428, "centerLng": -3.26414, "pop": 6093}, "id": 16}, {"type": "Feature", "geometry": {"coordinates": [-3.30166, 5.28673], "type": "Point"}, "properties": {"ADM0_FR": "COMOE", "ADM0_PCODE": "CI02", "ADM1_FR": "SUD-COMOE", "ADM1_PCODE": "CI130", "ADM2_FR": "ADIAKE", "ADM2_PCODE": "CI3002", "ADM3_FR": "ADIAKE", "ADM3_PCODE": "CI300201", "ADM4_FR": "ADIAK\u00c9", "ADM4_PCODE": "C0106", "centerLat": 5.28673, "centerLng": -3.30166, "pop": 19055}, "id": 17}, {"type": "Feature", "geometry": {"coordinates": [-4.21523, 5.92964], "type": "Point"}, "properties": {"ADM0_FR": "LAGUNES", "ADM0_PCODE": "CI08", "ADM1_FR": "AGNEBY-TIASSA", "ADM1_PCODE": "CI103", "ADM2_FR": "AGBOVILLE", "ADM2_PCODE": "CI0301", "ADM3_FR": "AGBOVILLE", "ADM3_PCODE": "CI030102", "ADM4_FR": "AGBOVILLE", "ADM4_PCODE": "C0215", "centerLat": 5.92964, "centerLng": -4.21523, "pop": 50873}, "id": 18}, {"type": "Feature", "geometry": {"coordinates": [-3.20278, 7.12987], "type": "Point"}, "properties": {"ADM0_FR": "COMOE", "ADM0_PCODE": "CI02", "ADM1_FR": "INDENIE-DJUABLIN", "ADM1_PCODE": "CI120", "ADM2_FR": "AGNIBILEKROU", "ADM2_PCODE": "CI2002", "ADM3_FR": "AGNIBILEKROU", "ADM3_PCODE": "CI200201", "ADM4_FR": "AGNIBILEKROU", "ADM4_PCODE": "C0224", "centerLat": 7.12987, "centerLng": -3.20278, "pop": 48611}, "id": 19}, {"type": "Feature", "geometry": {"coordinates": [-3.94343, 5.98254], "type": "Point"}, "properties": {"ADM0_FR": "LAGUNES", "ADM0_PCODE": "CI08", "ADM1_FR": "LA ME", "ADM1_PCODE": "CI124", "ADM2_FR": "ADZOPE", "ADM2_PCODE": "CI2401", "ADM3_FR": "AGOU", "ADM3_PCODE": "CI240102", "ADM4_FR": "AGOU", "ADM4_PCODE": "C0230", "centerLat": 5.98254, "centerLng": -3.94343, "pop": 6035}, "id": 20}, {"type": "Feature", "geometry": {"coordinates": [-3.96954, 6.67259], "type": "Point"}, "properties": {"ADM0_FR": "LACS", "ADM0_PCODE": "CI07", "ADM1_FR": "MORONOU", "ADM1_PCODE": "CI125", "ADM2_FR": "ARRAH", "ADM2_PCODE": "CI2501", "ADM3_FR": "ARRAH", "ADM3_PCODE": "CI250101", "ADM4_FR": "ARRAH", "ADM4_PCODE": "C0600", "centerLat": 6.67259, "centerLng": -3.96954, "pop": 24122}, "id": 21}, {"type": "Feature", "geometry": {"coordinates": [-3.16381, 5.60087], "type": "Point"}, "properties": {"ADM0_FR": "COMOE", "ADM0_PCODE": "CI02", "ADM1_FR": "SUD-COMOE", "ADM1_PCODE": "CI130", "ADM2_FR": "ABOISSO", "ADM2_PCODE": "CI3001", "ADM3_FR": "AYAME", "ADM3_PCODE": "CI300104", "ADM4_FR": "AYAM\u00c9", "ADM4_PCODE": "C0772", "centerLat": 5.60087, "centerLng": -3.16381, "pop": 8601}, "id": 22}, {"type": "Feature", "geometry": {"coordinates": [-4.08075, 5.64569], "type": "Point"}, "properties": {"ADM0_FR": "LAGUNES", "ADM0_PCODE": "CI08", "ADM1_FR": "AGNEBY-TIASSA", "ADM1_PCODE": "CI103", "ADM2_FR": "AGBOVILLE", "ADM2_PCODE": "CI0301", "ADM3_FR": "AZAGUIE", "ADM3_PCODE": "CI030105", "ADM4_FR": "AZAGUI\u00c9", "ADM4_PCODE": "C0780", "centerLat": 5.64569, "centerLng": -4.08075, "pop": 13876}, "id": 23}, {"type": "Feature", "geometry": {"coordinates": [-5.57393, 7.67086], "type": "Point"}, "properties": {"ADM0_FR": "VALLEE DU BANDAMA", "ADM0_PCODE": "CI12", "ADM1_FR": "GBEKE", "ADM1_PCODE": "CI111", "ADM2_FR": "BEOUMI", "ADM2_PCODE": "CI1101", "ADM3_FR": "BEOUMI", "ADM3_PCODE": "CI110102", "ADM4_FR": "B\u00c9OUMI", "ADM4_PCODE": "C1124", "centerLat": 7.67086, "centerLng": -5.57393, "pop": 25526}, "id": 24}, {"type": "Feature", "geometry": {"coordinates": [-7.61483, 7.74078], "type": "Point"}, "properties": {"ADM0_FR": "MONTAGNES", "ADM0_PCODE": "CI09", "ADM1_FR": "TONKPI", "ADM1_PCODE": "CI132", "ADM2_FR": "BIANKOUMA", "ADM2_PCODE": "CI3201", "ADM3_FR": "BIANKOUMA", "ADM3_PCODE": "CI320101", "ADM4_FR": "BIANKOUMA", "ADM4_PCODE": "C1160", "centerLat": 7.74078, "centerLng": -7.61483, "pop": 17922}, "id": 25}, {"type": "Feature", "geometry": {"coordinates": [-2.8, 8.04], "type": "Point"}, "properties": {"ADM0_FR": "COMOE", "ADM0_PCODE": "CI02", "ADM1_FR": "SUD-COMOE", "ADM1_PCODE": "CI130", "ADM2_FR": "ADIAKE", "ADM2_PCODE": "CI3002", "ADM3_FR": "ADIAKE", "ADM3_PCODE": "CI300201", "ADM4_FR": "BONDOUKOU", "ADM4_PCODE": "C1424", "centerLat": 8.04, "centerLng": -2.8, "pop": 1837}, "id": 26}, {"type": "Feature", "geometry": {"coordinates": [-6.04477, 6.92719], "type": "Point"}, "properties": {"ADM0_FR": "SASSANDRA-MARAHOUE", "ADM0_PCODE": "CI10", "ADM1_FR": "MARAHOUE", "ADM1_PCODE": "CI123", "ADM2_FR": "BOUAFLE", "ADM2_PCODE": "CI2301", "ADM3_FR": "BONON", "ADM3_PCODE": "CI230102", "ADM4_FR": "BONON", "ADM4_PCODE": "C1450", "centerLat": 6.92719, "centerLng": -6.04477, "pop": 92523}, "id": 27}, {"type": "Feature", "geometry": {"coordinates": [-5.31106, 7.85095], "type": "Point"}, "properties": {"ADM0_FR": "VALLEE DU BANDAMA", "ADM0_PCODE": "CI12", "ADM1_FR": "GBEKE", "ADM1_PCODE": "CI111", "ADM2_FR": "BOTRO", "ADM2_PCODE": "CI1102", "ADM3_FR": "BOTRO", "ADM3_PCODE": "CI110201", "ADM4_FR": "BOTRO", "ADM4_PCODE": "C1497", "centerLat": 7.85095, "centerLng": -5.31106, "pop": 10006}, "id": 28}, {"type": "Feature", "geometry": {"coordinates": [-5.75132, 6.98414], "type": "Point"}, "properties": {"ADM0_FR": "SASSANDRA-MARAHOUE", "ADM0_PCODE": "CI10", "ADM1_FR": "MARAHOUE", "ADM1_PCODE": "CI123", "ADM2_FR": "BOUAFLE", "ADM2_PCODE": "CI2301", "ADM3_FR": "BOUAFLE", "ADM3_PCODE": "CI230103", "ADM4_FR": "BOUAFL\u00c9", "ADM4_PCODE": "C1503", "centerLat": 6.98414, "centerLng": -5.75132, "pop": 80389}, "id": 29}, {"type": "Feature", "geometry": {"coordinates": [-5.02961, 7.68791], "type": "Point"}, "properties": {"ADM0_FR": "VALLEE DU BANDAMA", "ADM0_PCODE": "CI12", "ADM1_FR": "GBEKE", "ADM1_PCODE": "CI111", "ADM2_FR": "BOUAKE", "ADM2_PCODE": "CI1103", "ADM3_FR": "BOUAKE", "ADM3_PCODE": "CI110301", "ADM4_FR": "BOUAK\u00c9", "ADM4_PCODE": "C1507", "centerLat": 7.68791, "centerLng": -5.02961, "pop": 536719}, "id": 30}, {"type": "Feature", "geometry": {"coordinates": [-6.48411, 9.52143], "type": "Point"}, "properties": {"ADM0_FR": "SAVANES", "ADM0_PCODE": "CI11", "ADM1_FR": "BAGOUE", "ADM1_PCODE": "CI105", "ADM2_FR": "BOUNDIALI", "ADM2_PCODE": "CI0501", "ADM3_FR": "BOUNDIALI", "ADM3_PCODE": "CI050102", "ADM4_FR": "BOUNDIALI", "ADM4_PCODE": "C1557", "centerLat": 9.52143, "centerLng": -6.48411, "pop": 39962}, "id": 31}, {"type": "Feature", "geometry": {"coordinates": [-4.38208, 5.32271], "type": "Point"}, "properties": {"ADM0_FR": "LAGUNES", "ADM0_PCODE": "CI08", "ADM1_FR": "GRANDS-PONTS", "ADM1_PCODE": "CI115", "ADM2_FR": "DABOU", "ADM2_PCODE": "CI1501", "ADM3_FR": "DABOU", "ADM3_PCODE": "CI150101", "ADM4_FR": "DABOU", "ADM4_PCODE": "C1708", "centerLat": 5.32271, "centerLng": -4.38208, "pop": 61942}, "id": 32}, {"type": "Feature", "geometry": {"coordinates": [-6.4486, 6.88815], "type": "Point"}, "properties": {"ADM0_FR": "SASSANDRA-MARAHOUE", "ADM0_PCODE": "CI10", "ADM1_FR": "HAUT-SASSANDRA", "ADM1_PCODE": "CI118", "ADM2_FR": "DALOA", "ADM2_PCODE": "CI1801", "ADM3_FR": "DALOA", "ADM3_PCODE": "CI180102", "ADM4_FR": "DALOA", "ADM4_PCODE": "C1779", "centerLat": 6.88815, "centerLng": -6.4486, "pop": 245360}, "id": 33}, {"type": "Feature", "geometry": {"coordinates": [-3.96247, 7.05411], "type": "Point"}, "properties": {"ADM0_FR": "LACS", "ADM0_PCODE": "CI07", "ADM1_FR": "IFFOU", "ADM1_PCODE": "CI119", "ADM2_FR": "DAOUKRO", "ADM2_PCODE": "CI1901", "ADM3_FR": "DAOUKRO", "ADM3_PCODE": "CI190103", "ADM4_FR": "DAOUKRO", "ADM4_PCODE": "C1821", "centerLat": 7.05411, "centerLng": -3.96247, "pop": 44342}, "id": 34}, {"type": "Feature", "geometry": {"coordinates": [-4.70461, 6.6454], "type": "Point"}, "properties": {"ADM0_FR": "LACS", "ADM0_PCODE": "CI07", "ADM1_FR": "N'ZI", "ADM1_PCODE": "CI127", "ADM2_FR": "DIMBOKRO", "ADM2_PCODE": "CI2702", "ADM3_FR": "DIMBOKRO", "ADM3_PCODE": "CI270203", "ADM4_FR": "DIMBOKRO", "ADM4_PCODE": "C2073", "centerLat": 6.6454, "centerLng": -4.70461, "pop": 48860}, "id": 35}, {"type": "Feature", "geometry": {"coordinates": [-5.35702, 5.83833], "type": "Point"}, "properties": {"ADM0_FR": "GOH-DJIBOUA", "ADM0_PCODE": "CI06", "ADM1_FR": "LOH-DJIBOUA", "ADM1_PCODE": "CI122", "ADM2_FR": "DIVO", "ADM2_PCODE": "CI2201", "ADM3_FR": "DIVO", "ADM3_PCODE": "CI220103", "ADM4_FR": "DIVO", "ADM4_PCODE": "C2117", "centerLat": 5.83833, "centerLng": -5.35702, "pop": 105397}, "id": 36}, {"type": "Feature", "geometry": {"coordinates": [-3.34739, 6.37817], "type": "Point"}, "properties": {"ADM0_FR": "COMOE", "ADM0_PCODE": "CI02", "ADM1_FR": "INDENIE-DJUABLIN", "ADM1_PCODE": "CI120", "ADM2_FR": "ABENGOUROU", "ADM2_PCODE": "CI2001", "ADM3_FR": "EBILASSOKRO", "ADM3_PCODE": "CI200104", "ADM4_FR": "EBILASSOKRO", "ADM4_PCODE": "C2440", "centerLat": 6.37817, "centerLng": -3.34739, "pop": 14295}, "id": 37}, {"type": "Feature", "geometry": {"coordinates": [-7.37694, 7.38819], "type": "Point"}, "properties": {"ADM0_FR": "MONTAGNES", "ADM0_PCODE": "CI09", "ADM1_FR": "GUEMON", "ADM1_PCODE": "CI116", "ADM2_FR": "FACOBLY", "ADM2_PCODE": "CI1603", "ADM3_FR": "FACOBLY", "ADM3_PCODE": "CI160301", "ADM4_FR": "FACOBLY", "ADM4_PCODE": "C2527", "centerLat": 7.38819, "centerLng": -7.37694, "pop": 4536}, "id": 38}, {"type": "Feature", "geometry": {"coordinates": [-5.19762, 9.59226], "type": "Point"}, "properties": {"ADM0_FR": "SAVANES", "ADM0_PCODE": "CI11", "ADM1_FR": "TCHOLOGO", "ADM1_PCODE": "CI131", "ADM2_FR": "FERKESSEDOUGOU", "ADM2_PCODE": "CI3101", "ADM3_FR": "FERKESSEDOUGOU", "ADM3_PCODE": "CI310101", "ADM4_FR": "FERKESS\u00c9DOUGOU", "ADM4_PCODE": "C2603", "centerLat": 9.59226, "centerLng": -5.19762, "pop": 55910}, "id": 39}, {"type": "Feature", "geometry": {"coordinates": [-5.58651, 5.10559], "type": "Point"}, "properties": {"ADM0_FR": "BAS-SASSANDRA", "ADM0_PCODE": "CI01", "ADM1_FR": "GBOKLE", "ADM1_PCODE": "CI112", "ADM2_FR": "FRESCO", "ADM2_PCODE": "CI1201", "ADM3_FR": "FRESCO", "ADM3_PCODE": "CI120102", "ADM4_FR": "FRESCO", "ADM4_PCODE": "C2691", "centerLat": 5.10559, "centerLng": -5.58651, "pop": 8533}, "id": 40}, {"type": "Feature", "geometry": {"coordinates": [-6.55925, 5.02035], "type": "Point"}, "properties": {"ADM0_FR": "BAS-SASSANDRA", "ADM0_PCODE": "CI01", "ADM1_FR": "SAN-PEDRO", "ADM1_PCODE": "CI129", "ADM2_FR": "SAN-PEDRO", "ADM2_PCODE": "CI2901", "ADM3_FR": "GABIADJI", "ADM3_PCODE": "CI290104", "ADM4_FR": "GABIADJI", "ADM4_PCODE": "C2701", "centerLat": 5.02035, "centerLng": -6.55925, "pop": 17449}, "id": 41}, {"type": "Feature", "geometry": {"coordinates": [-5.94436, 6.12836], "type": "Point"}, "properties": {"ADM0_FR": "GOH-DJIBOUA", "ADM0_PCODE": "CI06", "ADM1_FR": "GOH", "ADM1_PCODE": "CI113", "ADM2_FR": "GAGNOA", "ADM2_PCODE": "CI1301", "ADM3_FR": "GAGNOA", "ADM3_PCODE": "CI130106", "ADM4_FR": "GAGNOA", "ADM4_PCODE": "C2707", "centerLat": 6.12836, "centerLng": -5.94436, "pop": 160465}, "id": 42}, {"type": "Feature", "geometry": {"coordinates": [-5.00208, 5.24919], "type": "Point"}, "properties": {"ADM0_FR": "LAGUNES", "ADM0_PCODE": "CI08", "ADM1_FR": "GRANDS-PONTS", "ADM1_PCODE": "CI115", "ADM2_FR": "GRAND-LAHOU", "ADM2_PCODE": "CI1502", "ADM3_FR": "GRAND-LAHOU", "ADM3_PCODE": "CI150204", "ADM4_FR": "GRAND-LAHOU", "ADM4_PCODE": "C3376", "centerLat": 5.24919, "centerLng": -5.00208, "pop": 28470}, "id": 43}, {"type": "Feature", "geometry": {"coordinates": [-6.53831, 6.11781], "type": "Point"}, "properties": {"ADM0_FR": "BAS-SASSANDRA", "ADM0_PCODE": "CI01", "ADM1_FR": "NAWA", "ADM1_PCODE": "CI126", "ADM2_FR": "SOUBRE", "ADM2_PCODE": "CI2604", "ADM3_FR": "GRAND-ZATTRY", "ADM3_PCODE": "CI260403", "ADM4_FR": "GRAND-ZATTRY", "ADM4_PCODE": "C3380", "centerLat": 6.11781, "centerLng": -6.53831, "pop": 24166}, "id": 44}, {"type": "Feature", "geometry": {"coordinates": [-6.63382, 5.81573], "type": "Point"}, "properties": {"ADM0_FR": "BAS-SASSANDRA", "ADM0_PCODE": "CI01", "ADM1_FR": "NAWA", "ADM1_PCODE": "CI126", "ADM2_FR": "SOUBRE", "ADM2_PCODE": "CI2604", "ADM3_FR": "SOUBRE", "ADM3_PCODE": "CI260401", "ADM4_FR": "GU\u00c9YO", "ADM4_PCODE": "C3469", "centerLat": 5.81573, "centerLng": -6.63382, "pop": 242}, "id": 45}, {"type": "Feature", "geometry": {"coordinates": [-6.58904, 6.48762], "type": "Point"}, "properties": {"ADM0_FR": "SASSANDRA-MARAHOUE", "ADM0_PCODE": "CI10", "ADM1_FR": "HAUT-SASSANDRA", "ADM1_PCODE": "CI118", "ADM2_FR": "ISSIA", "ADM2_PCODE": "CI1802", "ADM3_FR": "ISSIA", "ADM3_PCODE": "CI180201", "ADM4_FR": "ISSIA", "ADM4_PCODE": "C3598", "centerLat": 6.48762, "centerLng": -6.58904, "pop": 52660}, "id": 46}, {"type": "Feature", "geometry": {"coordinates": [-4.41967, 5.20547], "type": "Point"}, "properties": {"ADM0_FR": "LAGUNES", "ADM0_PCODE": "CI08", "ADM1_FR": "GRANDS-PONTS", "ADM1_PCODE": "CI115", "ADM2_FR": "JACQUEVILLE", "ADM2_PCODE": "CI1503", "ADM3_FR": "JACQUEVILLE", "ADM3_PCODE": "CI150301", "ADM4_FR": "JACQUEVILLE", "ADM4_PCODE": "C3604", "centerLat": 5.20547, "centerLng": -4.41967, "pop": 11096}, "id": 47}, {"type": "Feature", "geometry": {"coordinates": [-5.6375, 9.45799], "type": "Point"}, "properties": {"ADM0_FR": "SAVANES", "ADM0_PCODE": "CI11", "ADM1_FR": "PORO", "ADM1_PCODE": "CI128", "ADM2_FR": "KORHOGO", "ADM2_PCODE": "CI2802", "ADM3_FR": "KORHOGO", "ADM3_PCODE": "CI280201", "ADM4_FR": "KORHOGO", "ADM4_PCODE": "C4410", "centerLat": 9.45799, "centerLng": -5.6375, "pop": 243048}, "id": 48}, {"type": "Feature", "geometry": {"coordinates": [-5.8362, 7.79041], "type": "Point"}, "properties": {"ADM0_FR": "WOROBA", "ADM0_PCODE": "CI13", "ADM1_FR": "BERE", "ADM1_PCODE": "CI107", "ADM2_FR": "KOUNAHIRI", "ADM2_PCODE": "CI0702", "ADM3_FR": "KOUNAHIRI", "ADM3_PCODE": "CI070201", "ADM4_FR": "KOUNAHIRI", "ADM4_PCODE": "C4707", "centerLat": 7.79041, "centerLng": -5.8362, "pop": 5483}, "id": 49}, {"type": "Feature", "geometry": {"coordinates": [-7.55442, 7.40545], "type": "Point"}, "properties": {"ADM0_FR": "MONTAGNES", "ADM0_PCODE": "CI09", "ADM1_FR": "TONKPI", "ADM1_PCODE": "CI132", "ADM2_FR": "MAN", "ADM2_PCODE": "CI3203", "ADM3_FR": "MAN", "ADM3_PCODE": "CI320301", "ADM4_FR": "MAN", "ADM4_PCODE": "C5323", "centerLat": 7.40545, "centerLng": -7.55442, "pop": 149041}, "id": 50}, {"type": "Feature", "geometry": {"coordinates": [-6.64906, 6.93244], "type": "Point"}, "properties": {"ADM0_FR": "WOROBA", "ADM0_PCODE": "CI13", "ADM1_FR": "WORODOUGOU", "ADM1_PCODE": "CI133", "ADM2_FR": "SEGUELA", "ADM2_PCODE": "CI3302", "ADM3_FR": "WOROFLA", "ADM3_PCODE": "CI330207", "ADM4_FR": "MANKONO", "ADM4_PCODE": "C5355", "centerLat": 6.93244, "centerLng": -6.64906, "pop": 1576}, "id": 51}, {"type": "Feature", "geometry": {"coordinates": [-4.36, 6.47], "type": "Point"}, "properties": {"ADM0_FR": "LACS", "ADM0_PCODE": "CI07", "ADM1_FR": "MORONOU", "ADM1_PCODE": "CI125", "ADM2_FR": "M'BATTO", "ADM2_PCODE": "CI2503", "ADM3_FR": "M'BATTO", "ADM3_PCODE": "CI250301", "ADM4_FR": "M'BATTO", "ADM4_PCODE": "C5421", "centerLat": 6.47, "centerLng": -4.36, "pop": 18300}, "id": 52}, {"type": "Feature", "geometry": {"coordinates": [-6.55634, 5.40618], "type": "Point"}, "properties": {"ADM0_FR": "BAS-SASSANDRA", "ADM0_PCODE": "CI01", "ADM1_FR": "NAWA", "ADM1_PCODE": "CI126", "ADM2_FR": "MEAGUI", "ADM2_PCODE": "CI2603", "ADM3_FR": "MEAGUI", "ADM3_PCODE": "CI260301", "ADM4_FR": "M\u00c9AGUI", "ADM4_PCODE": "C5452", "centerLat": 5.40618, "centerLng": -6.55634, "pop": 57367}, "id": 53}, {"type": "Feature", "geometry": {"coordinates": [-4.76, 5.87], "type": "Point"}, "properties": {"ADM0_FR": "LAGUNES", "ADM0_PCODE": "CI08", "ADM1_FR": "AGNEBY-TIASSA", "ADM1_PCODE": "CI103", "ADM2_FR": "TIASSALE", "ADM2_PCODE": "CI0304", "ADM3_FR": "N'DOUCI", "ADM3_PCODE": "CI030404", "ADM4_FR": "N'DOUCI", "ADM4_PCODE": "C5846", "centerLat": 5.87, "centerLng": -4.76, "pop": 27112}, "id": 54}, {"type": "Feature", "geometry": {"coordinates": [-5.29, 8.66], "type": "Point"}, "properties": {"ADM0_FR": "VALLEE DU BANDAMA", "ADM0_PCODE": "CI12", "ADM1_FR": "HAMBOL", "ADM1_PCODE": "CI117", "ADM2_FR": "NIAKARAMADOUGOU", "ADM2_PCODE": "CI1703", "ADM3_FR": "NIAKARAMADOUGOU", "ADM3_PCODE": "CI170301", "ADM4_FR": "NIAKARAMADOUGOU", "ADM4_PCODE": "C5977", "centerLat": 8.66, "centerLng": -5.29, "pop": 16812}, "id": 55}, {"type": "Feature", "geometry": {"coordinates": [-7.56213, 9.50687], "type": "Point"}, "properties": {"ADM0_FR": "DENGUELE", "ADM0_PCODE": "CI03", "ADM1_FR": "KABADOUGOU", "ADM1_PCODE": "CI121", "ADM2_FR": "ODIENNE", "ADM2_PCODE": "CI2103", "ADM3_FR": "ODIENNE", "ADM3_PCODE": "CI210301", "ADM4_FR": "ODIENNE", "ADM4_PCODE": "C6210", "centerLat": 9.50687, "centerLng": -7.56213, "pop": 42173}, "id": 56}, {"type": "Feature", "geometry": {"coordinates": [-5.41528, 6.3835], "type": "Point"}, "properties": {"ADM0_FR": "GOH-DJIBOUA", "ADM0_PCODE": "CI06", "ADM1_FR": "GOH", "ADM1_PCODE": "CI113", "ADM2_FR": "OUME", "ADM2_PCODE": "CI1302", "ADM3_FR": "OUME", "ADM3_PCODE": "CI130201", "ADM4_FR": "OUM\u00c9", "ADM4_PCODE": "C6363", "centerLat": 6.3835, "centerLng": -5.41528, "pop": 45210}, "id": 57}, {"type": "Feature", "geometry": {"coordinates": [-5.93268, 6.31364], "type": "Point"}, "properties": {"ADM0_FR": "GOH-DJIBOUA", "ADM0_PCODE": "CI06", "ADM1_FR": "GOH", "ADM1_PCODE": "CI113", "ADM2_FR": "GAGNOA", "ADM2_PCODE": "CI1301", "ADM3_FR": "OURAGAHIO", "ADM3_PCODE": "CI130110", "ADM4_FR": "OURAGAHIO", "ADM4_PCODE": "C6381", "centerLat": 6.31364, "centerLng": -5.93268, "pop": 11253}, "id": 58}, {"type": "Feature", "geometry": {"coordinates": [-3.48406, 6.86288], "type": "Point"}, "properties": {"ADM0_FR": "COMOE", "ADM0_PCODE": "CI02", "ADM1_FR": "INDENIE-DJUABLIN", "ADM1_PCODE": "CI120", "ADM2_FR": "ABENGOUROU", "ADM2_PCODE": "CI2001", "ADM3_FR": "YAKASSE FEYASSE", "ADM3_PCODE": "CI200106", "ADM4_FR": "SANKADIOKRO", "ADM4_PCODE": "C6802", "centerLat": 6.86288, "centerLng": -3.48406, "pop": 9736}, "id": 59}, {"type": "Feature", "geometry": {"coordinates": [-6.61973, 4.73809], "type": "Point"}, "properties": {"ADM0_FR": "BAS-SASSANDRA", "ADM0_PCODE": "CI01", "ADM1_FR": "SAN-PEDRO", "ADM1_PCODE": "CI129", "ADM2_FR": "SAN-PEDRO", "ADM2_PCODE": "CI2901", "ADM3_FR": "SAN-PEDRO", "ADM3_PCODE": "CI290101", "ADM4_FR": "SAN-PEDRO", "ADM4_PCODE": "C6807", "centerLat": 4.73809, "centerLng": -6.61973, "pop": 164944}, "id": 60}, {"type": "Feature", "geometry": {"coordinates": [-6.09211, 4.95198], "type": "Point"}, "properties": {"ADM0_FR": "BAS-SASSANDRA", "ADM0_PCODE": "CI01", "ADM1_FR": "GBOKLE", "ADM1_PCODE": "CI112", "ADM2_FR": "SASSANDRA", "ADM2_PCODE": "CI1202", "ADM3_FR": "SASSANDRA", "ADM3_PCODE": "CI120201", "ADM4_FR": "SASSANDRA", "ADM4_PCODE": "C6835", "centerLat": 4.95198, "centerLng": -6.09211, "pop": 26608}, "id": 61}, {"type": "Feature", "geometry": {"coordinates": [-6.67313, 7.96253], "type": "Point"}, "properties": {"ADM0_FR": "WOROBA", "ADM0_PCODE": "CI13", "ADM1_FR": "WORODOUGOU", "ADM1_PCODE": "CI133", "ADM2_FR": "SEGUELA", "ADM2_PCODE": "CI3302", "ADM3_FR": "SEGUELA", "ADM3_PCODE": "CI330201", "ADM4_FR": "S\u00c9GU\u00c9LA", "ADM4_PCODE": "C6882", "centerLat": 7.96253, "centerLng": -6.67313, "pop": 46189}, "id": 62}, {"type": "Feature", "geometry": {"coordinates": [-4.57207, 5.67065], "type": "Point"}, "properties": {"ADM0_FR": "LAGUNES", "ADM0_PCODE": "CI08", "ADM1_FR": "AGNEBY-TIASSA", "ADM1_PCODE": "CI103", "ADM2_FR": "SIKENSI", "ADM2_PCODE": "CI0302", "ADM3_FR": "SIKENSI", "ADM3_PCODE": "CI030201", "ADM4_FR": "SIKENSI", "ADM4_PCODE": "C7019", "centerLat": 5.67065, "centerLng": -4.57207, "pop": 7308}, "id": 63}, {"type": "Feature", "geometry": {"coordinates": [-5.38559, 9.58325], "type": "Point"}, "properties": {"ADM0_FR": "SAVANES", "ADM0_PCODE": "CI11", "ADM1_FR": "PORO", "ADM1_PCODE": "CI128", "ADM2_FR": "SINEMATIALI", "ADM2_PCODE": "CI2804", "ADM3_FR": "SINEMATIALI", "ADM3_PCODE": "CI280401", "ADM4_FR": "SINEMATIALI", "ADM4_PCODE": "C7043", "centerLat": 9.58325, "centerLng": -5.38559, "pop": 10167}, "id": 64}, {"type": "Feature", "geometry": {"coordinates": [-5.91517, 6.62035], "type": "Point"}, "properties": {"ADM0_FR": "SASSANDRA-MARAHOUE", "ADM0_PCODE": "CI10", "ADM1_FR": "MARAHOUE", "ADM1_PCODE": "CI123", "ADM2_FR": "SINFRA", "ADM2_PCODE": "CI2302", "ADM3_FR": "SINFRA", "ADM3_PCODE": "CI230201", "ADM4_FR": "SINFRA", "ADM4_PCODE": "C7045", "centerLat": 6.62035, "centerLng": -5.91517, "pop": 80658}, "id": 65}, {"type": "Feature", "geometry": {"coordinates": [-6.59, 5.78], "type": "Point"}, "properties": {"ADM0_FR": "COMOE", "ADM0_PCODE": "CI02", "ADM1_FR": "SUD-COMOE", "ADM1_PCODE": "CI130", "ADM2_FR": "ABOISSO", "ADM2_PCODE": "CI3001", "ADM3_FR": "BIANOUAN", "ADM3_PCODE": "CI300105", "ADM4_FR": "SOUBR\u00c9", "ADM4_PCODE": "C7241", "centerLat": 5.78, "centerLng": -6.59, "pop": 1421}, "id": 66}, {"type": "Feature", "geometry": {"coordinates": [-5.16212, 9.07022], "type": "Point"}, "properties": {"ADM0_FR": "VALLEE DU BANDAMA", "ADM0_PCODE": "CI12", "ADM1_FR": "HAMBOL", "ADM1_PCODE": "CI117", "ADM2_FR": "NIAKARAMADOUGOU", "ADM2_PCODE": "CI1703", "ADM3_FR": "TAFIRE", "ADM3_PCODE": "CI170305", "ADM4_FR": "TAFIRE", "ADM4_PCODE": "C7314", "centerLat": 9.07022, "centerLng": -5.16212, "pop": 17191}, "id": 67}, {"type": "Feature", "geometry": {"coordinates": [-3.16789, 7.80253], "type": "Point"}, "properties": {"ADM0_FR": "ZANZAN", "ADM0_PCODE": "CI14", "ADM1_FR": "GONTOUGO", "ADM1_PCODE": "CI114", "ADM2_FR": "TANDA", "ADM2_PCODE": "CI1404", "ADM3_FR": "TANDA", "ADM3_PCODE": "CI140401", "ADM4_FR": "TANDA", "ADM4_PCODE": "C7386", "centerLat": 7.80253, "centerLng": -3.16789, "pop": 27659}, "id": 68}, {"type": "Feature", "geometry": {"coordinates": [-7.31834, 9.54501], "type": "Point"}, "properties": {"ADM0_FR": "DENGUELE", "ADM0_PCODE": "CI03", "ADM1_FR": "KABADOUGOU", "ADM1_PCODE": "CI121", "ADM2_FR": "ODIENNE", "ADM2_PCODE": "CI2103", "ADM3_FR": "TIEME", "ADM3_PCODE": "CI210305", "ADM4_FR": "TIEME", "ADM4_PCODE": "C7613", "centerLat": 9.54501, "centerLng": -7.31834, "pop": 6267}, "id": 69}, {"type": "Feature", "geometry": {"coordinates": [-7.68063, 8.28504], "type": "Point"}, "properties": {"ADM0_FR": "WOROBA", "ADM0_PCODE": "CI13", "ADM1_FR": "BAFING", "ADM1_PCODE": "CI104", "ADM2_FR": "TOUBA", "ADM2_PCODE": "CI0403", "ADM3_FR": "TOUBA", "ADM3_PCODE": "CI040301", "ADM4_FR": "TOUBA", "ADM4_PCODE": "C7832", "centerLat": 8.28504, "centerLng": -7.68063, "pop": 22361}, "id": 70}, {"type": "Feature", "geometry": {"coordinates": [-5.01819, 6.56024], "type": "Point"}, "properties": {"ADM0_FR": "LACS", "ADM0_PCODE": "CI07", "ADM1_FR": "BELIER", "ADM1_PCODE": "CI106", "ADM2_FR": "TOUMODI", "ADM2_PCODE": "CI0604", "ADM3_FR": "TOUMODI", "ADM3_PCODE": "CI060401", "ADM4_FR": "TOUMODI", "ADM4_PCODE": "C7862", "centerLat": 6.56024, "centerLng": -5.01819, "pop": 43189}, "id": 71}, {"type": "Feature", "geometry": {"coordinates": [-5.27786, 6.81819], "type": "Point"}, "properties": {"ADM0_FR": "DISTRICT AUTONOME DE YAMOUSSOUKRO", "ADM0_PCODE": "CI05", "ADM1_FR": "DISTRICT AUTONOME DE YAMOUSSOUKRO", "ADM1_PCODE": "CI102", "ADM2_FR": "YAMOUSSOUKRO", "ADM2_PCODE": "CI0202", "ADM3_FR": "YAMOUSSOUKRO", "ADM3_PCODE": "CI020201", "ADM4_FR": "YAMOUSSOUKRO", "ADM4_PCODE": "C8092", "centerLat": 6.81819, "centerLng": -5.27786, "pop": 212670}, "id": 72}, {"type": "Feature", "geometry": {"coordinates": [-6.86531, 6.76481], "type": "Point"}, "properties": {"ADM0_FR": "SASSANDRA-MARAHOUE", "ADM0_PCODE": "CI10", "ADM1_FR": "HAUT-SASSANDRA", "ADM1_PCODE": "CI118", "ADM2_FR": "ZOUKOUGBEU", "ADM2_PCODE": "CI1804", "ADM3_FR": "ZOUKOUGBEU", "ADM3_PCODE": "CI180401", "ADM4_FR": "ZOUKOUGBEU", "ADM4_PCODE": "C8499", "centerLat": 6.76481, "centerLng": -6.86531, "pop": 11861}, "id": 73}, {"type": "Feature", "geometry": {"coordinates": [-6.04748, 7.43083], "type": "Point"}, "properties": {"ADM0_FR": "SASSANDRA-MARAHOUE", "ADM0_PCODE": "CI10", "ADM1_FR": "MARAHOUE", "ADM1_PCODE": "CI123", "ADM2_FR": "ZUENOULA", "ADM2_PCODE": "CI2303", "ADM3_FR": "ZUENOULA", "ADM3_PCODE": "CI230301", "ADM4_FR": "ZU\u00c9NOULA", "ADM4_PCODE": "C8516", "centerLat": 7.43083, "centerLng": -6.04748, "pop": 34018}, "id": 74}]}