{"type": "FeatureCollection", "features": [{"type": "Feature", "geometry": {"coordinates": [-4.01585, 5.43515], "type": "Point"}, "properties": {"ADM0_FR": "DISTRICT AUTONOME D'ABIDJAN", "ADM0_PCODE": "CI04", "ADM1_FR": "DISTRICT AUTONOME D'ABIDJAN", "ADM1_PCODE": "CI101", "ADM2_FR": "ABIDJAN", "ADM2_PCODE": "CI0101", "ADM3_FR": "ABIDJAN", "ADM3_PCODE": "CI010101", "ADM4_FR": "ABOBO", "ADM4_PCODE": "C0029", "centerLat": 5.43515, "centerLng": -4.01585, "pop": 1030658}, "id": 1}, {"type": "Feature", "geometry": {"coordinates": [-4.01988, 5.37187], "type": "Point"}, "properties": {"ADM0_FR": "DISTRICT AUTONOME D'ABIDJAN", "ADM0_PCODE": "CI04", "ADM1_FR": "DISTRICT AUTONOME D'ABIDJAN", "ADM1_PCODE": "CI101", "ADM2_FR": "ABIDJAN", "ADM2_PCODE": "CI0101", "ADM3_FR": "ABIDJAN", "ADM3_PCODE": "CI010101", "ADM4_FR": "ADJAME", "ADM4_PCODE": "C0133", "centerLat": 5.37187, "centerLng": -4.01988, "pop": 372978}, "id": 2}, {"type": "Feature", "geometry": {"coordinates": [-4.05488, 5.49466], "type": "Point"}, "properties": {"ADM0_FR": "DISTRICT AUTONOME D'ABIDJAN", "ADM0_PCODE": "CI04", "ADM1_FR": "DISTRICT AUTONOME D'ABIDJAN", "ADM1_PCODE": "CI101", "ADM2_FR": "ABIDJAN", "ADM2_PCODE": "CI0101", "ADM3_FR": "ANYAMA", "ADM3_PCODE": "CI010102", "ADM4_FR": "ANYAMA", "ADM4_PCODE": "C0570", "centerLat": 5.49466, "centerLng": -4.05488, "pop": 103297}, "id": 3}, {"type": "Feature", "geometry": {"coordinates": [-4.05198, 5.38219], "type": "Point"}, "properties": {"ADM0_FR": "DISTRICT AUTONOME D'ABIDJAN", "ADM0_PCODE": "CI04", "ADM1_FR": "DISTRICT AUTONOME D'ABIDJAN", "ADM1_PCODE": "CI101", "ADM2_FR": "ABIDJAN", "ADM2_PCODE": "CI0101", "ADM3_FR": "ABIDJAN", "ADM3_PCODE": "CI010101", "ADM4_FR": "ATTECOUBE", "ADM4_PCODE": "C0734", "centerLat": 5.38219, "centerLng": -4.05198, "pop": 260911}, "id": 4}, {"type": "Feature", "geometry": {"coordinates": [-3.89704, 5.359], "type": "Point"}, "properties": {"ADM0_FR": "DISTRICT AUTONOME D'ABIDJAN", "ADM0_PCODE": "CI04", "ADM1_FR": "DISTRICT AUTONOME D'ABIDJAN", "ADM1_PCODE": "CI101", "ADM2_FR": "ABIDJAN", "ADM2_PCODE": "CI0101", "ADM3_FR": "BINGERVILLE", "ADM3_PCODE": "CI010103", "ADM4_FR": "BINGERVILLE", "ADM4_PCODE": "C1214", "centerLat": 5.359, "centerLng": -3.89704, "pop": 64015}, "id": 5}, {"type": "Feature", "geometry": {"coordinates": [-3.96089, 5.373], "type": "Point"}, "properties": {"ADM0_FR": "DISTRICT AUTONOME D'ABIDJAN", "ADM0_PCODE": "CI04", "ADM1_FR": "DISTRICT AUTONOME D'ABIDJAN", "ADM1_PCODE": "CI101", "ADM2_FR": "ABIDJAN", "ADM2_PCODE": "CI0101", "ADM3_FR": "ABIDJAN", "ADM3_PCODE": "CI010101", "ADM4_FR": "COCODY", "ADM4_PCODE": "C1672", "centerLat": 5.373, "centerLng": -3.96089, "pop": 447055}, "id": 6}, {"type": "Feature", "geometry": {"coordinates": [-3.72689, 5.19266], "type": "Point"}, "properties": {"ADM0_FR": "COMOE", "ADM0_PCODE": "CI02", "ADM1_FR": "SUD-COMOE", "ADM1_PCODE": "CI130", "ADM2_FR": "GRAND-BASSAM", "ADM2_PCODE": "CI3003", "ADM3_FR": "GRAND-BASSAM", "ADM3_PCODE": "CI300303", "ADM4_FR": "GRAND-BASSAM", "ADM4_PCODE": "C3367", "centerLat": 5.19266, "centerLng": -3.72689, "pop": 74671}, "id": 7}, {"type": "Feature", "geometry": {"coordinates": [-3.94836, 5.30249], "type": "Point"}, "properties": {"ADM0_FR": "DISTRICT AUTONOME D'ABIDJAN", "ADM0_PCODE": "CI04", "ADM1_FR": "DISTRICT AUTONOME D'ABIDJAN", "ADM1_PCODE": "CI101", "ADM2_FR": "ABIDJAN", "ADM2_PCODE": "CI0101", "ADM3_FR": "ABIDJAN", "ADM3_PCODE": "CI010101", "ADM4_FR": "KOUMASSI", "ADM4_PCODE": "C4694", "centerLat": 5.30249, "centerLng": -3.94836, "pop": 433139}, "id": 8}, {"type": "Feature", "geometry": {"coordinates": [-3.98251, 5.29932], "type": "Point"}, "properties": {"ADM0_FR": "DISTRICT AUTONOME D'ABIDJAN", "ADM0_PCODE": "CI04", "ADM1_FR": "DISTRICT AUTONOME D'ABIDJAN", "ADM1_PCODE": "CI101", "ADM2_FR": "ABIDJAN", "ADM2_PCODE": "CI0101", "ADM3_FR": "ABIDJAN", "ADM3_PCODE": "CI010101", "ADM4_FR": "MARCORY", "ADM4_PCODE": "C5375", "centerLat": 5.29932, "centerLng": -3.98251, "pop": 249858}, "id": 9}, {"type": "Feature", "geometry": {"coordinates": [-4.02164, 5.32517], "type": "Point"}, "properties": {"ADM0_FR": "DISTRICT AUTONOME D'ABIDJAN", "ADM0_PCODE": "CI04", "ADM1_FR": "DISTRICT AUTONOME D'ABIDJAN", "ADM1_PCODE": "CI101", "ADM2_FR": "ABIDJAN", "ADM2_PCODE": "CI0101", "ADM3_FR": "ABIDJAN", "ADM3_PCODE": "CI010101", "ADM4_FR": "PLATEAU", "ADM4_PCODE": "C6556", "centerLat": 5.32517, "centerLng": -4.02164, "pop": 7488}, "id": 10}, {"type": "Feature", "geometry": {"coordinates": [-3.958626, 5.256881], "type": "Point"}, "properties": {"ADM0_FR": "DISTRICT AUTONOME D'ABIDJAN", "ADM0_PCODE": "CI04", "ADM1_FR": "DISTRICT AUTONOME D'ABIDJAN", "ADM1_PCODE": "CI101", "ADM2_FR": "ABIDJAN", "ADM2_PCODE": "CI0101", "ADM3_FR": "ABIDJAN", "ADM3_PCODE": "CI010101", "ADM4_FR": "PORT-BOUET", "ADM4_PCODE": "C6619", "centerLat": 5.256881, "centerLng": -3.958626, "pop": 419033}, "id": 11}, {"type": "Feature", "geometry": {"coordinates": [-4.01044, 5.29098], "type": "Point"}, "properties": {"ADM0_FR": "DISTRICT AUTONOME D'ABIDJAN", "ADM0_PCODE": "CI04", "ADM1_FR": "DISTRICT AUTONOME D'ABIDJAN", "ADM1_PCODE": "CI101", "ADM2_FR": "ABIDJAN", "ADM2_PCODE": "CI0101", "ADM3_FR": "ABIDJAN", "ADM3_PCODE": "CI010101", "ADM4_FR": "TREICHVILLE", "ADM4_PCODE": "C7913", "centerLat": 5.29098, "centerLng": -4.01044, "pop": 102580}, "id": 12}, {"type": "Feature", "geometry": {"coordinates": [-4.09015, 5.30848], "type": "Point"}, "properties": {"ADM0_FR": "DISTRICT AUTONOME D'ABIDJAN", "ADM0_PCODE": "CI04", "ADM1_FR": "DISTRICT AUTONOME D'ABIDJAN", "ADM1_PCODE": "CI101", "ADM2_FR": "ABIDJAN", "ADM2_PCODE": "CI0101", "ADM3_FR": "ABIDJAN", "ADM3_PCODE": "CI010101", "ADM4_FR": "YOPOUGON", "ADM4_PCODE": "C8230", "centerLat": 5.30848, "centerLng": -4.09015, "pop": 1071543}, "id": 13}, {"type": "Feature", "geometry": {"coordinates": [-3.49676, 6.72836], "type": "Point"}, "properties": {"ADM0_FR": "COMOE", "ADM0_PCODE": "CI02", "ADM1_FR": "INDENIE-DJUABLIN", "ADM1_PCODE": "CI120", "ADM2_FR": "ABENGOUROU", "ADM2_PCODE": "CI2001", "ADM3_FR": "ABENGOUROU", "ADM3_PCODE": "CI200101", "ADM4_FR": "ABENGOUROU", "ADM4_PCODE": "C0014", "centerLat": 6.72836, "centerLng": -3.49676, "pop": 100910}, "id": 14}, {"type": "Feature", "geometry": {"coordinates": [-3.20677, 5.47457], "type": "Point"}, "properties": {"ADM0_FR": "COMOE", "ADM0_PCODE": "CI02", "ADM1_FR": "SUD-COMOE", "ADM1_PCODE": "CI130", "ADM2_FR": "ABOISSO", "ADM2_PCODE": "CI3001", "ADM3_FR": "ABOISSO", "ADM3_PCODE": "CI300101", "ADM4_FR": "ABOISSO", "ADM4_PCODE": "C0033", "centerLat": 5.47457, "centerLng": -3.20677, "pop": 45688}, "id": 15}, {"type": "Feature", "geometry": {"coordinates": [-3.30166, 5.28673], "type": "Point"}, "properties": {"ADM0_FR": "COMOE", "ADM0_PCODE": "CI02", "ADM1_FR": "SUD-COMOE", "ADM1_PCODE": "CI130", "ADM2_FR": "ADIAKE", "ADM2_PCODE": "CI3002", "ADM3_FR": "ADIAKE", "ADM3_PCODE": "CI300201", "ADM4_FR": "ADIAK\u00c9", "ADM4_PCODE": "C0106", "centerLat": 5.28673, "centerLng": -3.30166, "pop": 19055}, "id": 16}, {"type": "Feature", "geometry": {"coordinates": [-3.86622, 6.1096], "type": "Point"}, "properties": {"ADM0_FR": "LAGUNES", "ADM0_PCODE": "CI08", "ADM1_FR": "LA ME", "ADM1_PCODE": "CI124", "ADM2_FR": "ADZOPE", "ADM2_PCODE": "CI2401", "ADM3_FR": "ADZOPE", "ADM3_PCODE": "CI240101", "ADM4_FR": "ADZOPE", "ADM4_PCODE": "C0176", "centerLat": 6.1096, "centerLng": -3.86622, "pop": 58722}, "id": 17}, {"type": "Feature", "geometry": {"coordinates": [-3.51942, 7.75001], "type": "Point"}, "properties": {"ADM0_FR": "ZANZAN", "ADM0_PCODE": "CI14", "ADM1_FR": "GONTOUGO", "ADM1_PCODE": "CI114", "ADM2_FR": "KOUN-FAO", "ADM2_PCODE": "CI1402", "ADM3_FR": "KOUASSI-DATEKRO", "ADM3_PCODE": "CI140204", "ADM4_FR": "AFF\u00c9RY", "ADM4_PCODE": "C0184", "centerLat": 7.75001, "centerLng": -3.51942, "pop": 442}, "id": 18}, {"type": "Feature", "geometry": {"coordinates": [-3.20278, 7.12987], "type": "Point"}, "properties": {"ADM0_FR": "COMOE", "ADM0_PCODE": "CI02", "ADM1_FR": "INDENIE-DJUABLIN", "ADM1_PCODE": "CI120", "ADM2_FR": "AGNIBILEKROU", "ADM2_PCODE": "CI2002", "ADM3_FR": "AGNIBILEKROU", "ADM3_PCODE": "CI200201", "ADM4_FR": "AGNIBILEKROU", "ADM4_PCODE": "C0224", "centerLat": 7.12987, "centerLng": -3.20278, "pop": 48611}, "id": 19}, {"type": "Feature", "geometry": {"coordinates": [-3.88779, 6.38525], "type": "Point"}, "properties": {"ADM0_FR": "LAGUNES", "ADM0_PCODE": "CI08", "ADM1_FR": "LA ME", "ADM1_PCODE": "CI124", "ADM2_FR": "AKOUPE", "ADM2_PCODE": "CI2402", "ADM3_FR": "AKOUPE", "ADM3_PCODE": "CI240202", "ADM4_FR": "AKOUPE", "ADM4_PCODE": "C0363", "centerLat": 6.38525, "centerLng": -3.88779, "pop": 26668}, "id": 20}, {"type": "Feature", "geometry": {"coordinates": [-3.96954, 6.67259], "type": "Point"}, "properties": {"ADM0_FR": "LACS", "ADM0_PCODE": "CI07", "ADM1_FR": "MORONOU", "ADM1_PCODE": "CI125", "ADM2_FR": "ARRAH", "ADM2_PCODE": "CI2501", "ADM3_FR": "ARRAH", "ADM3_PCODE": "CI250101", "ADM4_FR": "ARRAH", "ADM4_PCODE": "C0600", "centerLat": 6.67259, "centerLng": -3.96954, "pop": 24122}, "id": 21}, {"type": "Feature", "geometry": {"coordinates": [-4.08075, 5.64569], "type": "Point"}, "properties": {"ADM0_FR": "LAGUNES", "ADM0_PCODE": "CI08", "ADM1_FR": "AGNEBY-TIASSA", "ADM1_PCODE": "CI103", "ADM2_FR": "AGBOVILLE", "ADM2_PCODE": "CI0301", "ADM3_FR": "AZAGUIE", "ADM3_PCODE": "CI030105", "ADM4_FR": "AZAGUI\u00c9", "ADM4_PCODE": "C0780", "centerLat": 5.64569, "centerLng": -4.08075, "pop": 13876}, "id": 22}, {"type": "Feature", "geometry": {"coordinates": [-6.02687, 5.43337], "type": "Point"}, "properties": {"ADM0_FR": "BAS-SASSANDRA", "ADM0_PCODE": "CI01", "ADM1_FR": "NAWA", "ADM1_PCODE": "CI126", "ADM2_FR": "GUEYO", "ADM2_PCODE": "CI2602", "ADM3_FR": "DABOUYO", "ADM3_PCODE": "CI260202", "ADM4_FR": "BAL\u00c9KO", "ADM4_PCODE": "C0888", "centerLat": 5.43337, "centerLng": -6.02687, "pop": 4971}, "id": 23}, {"type": "Feature", "geometry": {"coordinates": [-7.49, 7.01], "type": "Point"}, "properties": {"ADM0_FR": "VALLEE DU BANDAMA", "ADM0_PCODE": "CI12", "ADM1_FR": "HAMBOL", "ADM1_PCODE": "CI117", "ADM2_FR": "DABAKALA", "ADM2_PCODE": "CI1701", "ADM3_FR": "TENDENE-BAMBARASSO", "ADM3_PCODE": "CI170109", "ADM4_FR": "BANGOLO", "ADM4_PCODE": "C0934", "centerLat": 7.01, "centerLng": -7.49, "pop": 900}, "id": 24}, {"type": "Feature", "geometry": {"coordinates": [-3.17341, 9.02343], "type": "Point"}, "properties": {"ADM0_FR": "ZANZAN", "ADM0_PCODE": "CI14", "ADM1_FR": "BOUNKANI", "ADM1_PCODE": "CI108", "ADM2_FR": "BOUNA", "ADM2_PCODE": "CI0801", "ADM3_FR": "BOUNA", "ADM3_PCODE": "CI080102", "ADM4_FR": "BANIA", "ADM4_PCODE": "C0945", "centerLat": 9.02343, "centerLng": -3.17341, "pop": 644}, "id": 25}, {"type": "Feature", "geometry": {"coordinates": [-5.57393, 7.67086], "type": "Point"}, "properties": {"ADM0_FR": "VALLEE DU BANDAMA", "ADM0_PCODE": "CI12", "ADM1_FR": "GBEKE", "ADM1_PCODE": "CI111", "ADM2_FR": "BEOUMI", "ADM2_PCODE": "CI1101", "ADM3_FR": "BEOUMI", "ADM3_PCODE": "CI110102", "ADM4_FR": "B\u00c9OUMI", "ADM4_PCODE": "C1124", "centerLat": 7.67086, "centerLng": -5.57393, "pop": 25526}, "id": 26}, {"type": "Feature", "geometry": {"coordinates": [-8.00319, 6.57065], "type": "Point"}, "properties": {"ADM0_FR": "MONTAGNES", "ADM0_PCODE": "CI09", "ADM1_FR": "CAVALLY", "ADM1_PCODE": "CI109", "ADM2_FR": "BLOLEQUIN", "ADM2_PCODE": "CI0901", "ADM3_FR": "BLOLEQUIN", "ADM3_PCODE": "CI090101", "ADM4_FR": "BLOL\u00c9QUIN", "ADM4_PCODE": "C1290", "centerLat": 6.57065, "centerLng": -8.00319, "pop": 32262}, "id": 27}, {"type": "Feature", "geometry": {"coordinates": [-4.49751, 7.06267], "type": "Point"}, "properties": {"ADM0_FR": "LACS", "ADM0_PCODE": "CI07", "ADM1_FR": "N'ZI", "ADM1_PCODE": "CI127", "ADM2_FR": "BOCANDA", "ADM2_PCODE": "CI2701", "ADM3_FR": "BOCANDA", "ADM3_PCODE": "CI270102", "ADM4_FR": "BOCANDA", "ADM4_PCODE": "C1317", "centerLat": 7.06267, "centerLng": -4.49751, "pop": 10684}, "id": 28}, {"type": "Feature", "geometry": {"coordinates": [-2.8, 8.04], "type": "Point"}, "properties": {"ADM0_FR": "COMOE", "ADM0_PCODE": "CI02", "ADM1_FR": "SUD-COMOE", "ADM1_PCODE": "CI130", "ADM2_FR": "ADIAKE", "ADM2_PCODE": "CI3002", "ADM3_FR": "ADIAKE", "ADM3_PCODE": "CI300201", "ADM4_FR": "BONDOUKOU", "ADM4_PCODE": "C1424", "centerLat": 8.04, "centerLng": -2.8, "pop": 1837}, "id": 29}, {"type": "Feature", "geometry": {"coordinates": [-4.71884, 8.37181], "type": "Point"}, "properties": {"ADM0_FR": "VALLEE DU BANDAMA", "ADM0_PCODE": "CI12", "ADM1_FR": "HAMBOL", "ADM1_PCODE": "CI117", "ADM2_FR": "DABAKALA", "ADM2_PCODE": "CI1701", "ADM3_FR": "BONIEREDOUGOU", "ADM3_PCODE": "CI170102", "ADM4_FR": "BONI\u00c9R\u00c9DOUGOU", "ADM4_PCODE": "C1442", "centerLat": 8.37181, "centerLng": -4.71884, "pop": 3002}, "id": 30}, {"type": "Feature", "geometry": {"coordinates": [-6.04477, 6.92719], "type": "Point"}, "properties": {"ADM0_FR": "SASSANDRA-MARAHOUE", "ADM0_PCODE": "CI10", "ADM1_FR": "MARAHOUE", "ADM1_PCODE": "CI123", "ADM2_FR": "BOUAFLE", "ADM2_PCODE": "CI2301", "ADM3_FR": "BONON", "ADM3_PCODE": "CI230102", "ADM4_FR": "BONON", "ADM4_PCODE": "C1450", "centerLat": 6.92719, "centerLng": -6.04477, "pop": 92523}, "id": 31}, {"type": "Feature", "geometry": {"coordinates": [-3.59476, 5.27193], "type": "Point"}, "properties": {"ADM0_FR": "COMOE", "ADM0_PCODE": "CI02", "ADM1_FR": "SUD-COMOE", "ADM1_PCODE": "CI130", "ADM2_FR": "GRAND-BASSAM", "ADM2_PCODE": "CI3003", "ADM3_FR": "BONOUA", "ADM3_PCODE": "CI300302", "ADM4_FR": "BONOUA", "ADM4_PCODE": "C1451", "centerLat": 5.27193, "centerLng": -3.59476, "pop": 38135}, "id": 32}, {"type": "Feature", "geometry": {"coordinates": [-5.31106, 7.85095], "type": "Point"}, "properties": {"ADM0_FR": "VALLEE DU BANDAMA", "ADM0_PCODE": "CI12", "ADM1_FR": "GBEKE", "ADM1_PCODE": "CI111", "ADM2_FR": "BOTRO", "ADM2_PCODE": "CI1102", "ADM3_FR": "BOTRO", "ADM3_PCODE": "CI110201", "ADM4_FR": "BOTRO", "ADM4_PCODE": "C1497", "centerLat": 7.85095, "centerLng": -5.31106, "pop": 10006}, "id": 33}, {"type": "Feature", "geometry": {"coordinates": [-5.75132, 6.98414], "type": "Point"}, "properties": {"ADM0_FR": "SASSANDRA-MARAHOUE", "ADM0_PCODE": "CI10", "ADM1_FR": "MARAHOUE", "ADM1_PCODE": "CI123", "ADM2_FR": "BOUAFLE", "ADM2_PCODE": "CI2301", "ADM3_FR": "BOUAFLE", "ADM3_PCODE": "CI230103", "ADM4_FR": "BOUAFL\u00c9", "ADM4_PCODE": "C1503", "centerLat": 6.98414, "centerLng": -5.75132, "pop": 80389}, "id": 34}, {"type": "Feature", "geometry": {"coordinates": [-5.02961, 7.68791], "type": "Point"}, "properties": {"ADM0_FR": "VALLEE DU BANDAMA", "ADM0_PCODE": "CI12", "ADM1_FR": "GBEKE", "ADM1_PCODE": "CI111", "ADM2_FR": "BOUAKE", "ADM2_PCODE": "CI1103", "ADM3_FR": "BOUAKE", "ADM3_PCODE": "CI110301", "ADM4_FR": "BOUAK\u00c9", "ADM4_PCODE": "C1507", "centerLat": 7.68791, "centerLng": -5.02961, "pop": 536719}, "id": 35}, {"type": "Feature", "geometry": {"coordinates": [-2.99909, 9.26864], "type": "Point"}, "properties": {"ADM0_FR": "ZANZAN", "ADM0_PCODE": "CI14", "ADM1_FR": "BOUNKANI", "ADM1_PCODE": "CI108", "ADM2_FR": "BOUNA", "ADM2_PCODE": "CI0801", "ADM3_FR": "BOUNA", "ADM3_PCODE": "CI080102", "ADM4_FR": "BOUNA", "ADM4_PCODE": "C1550", "centerLat": 9.26864, "centerLng": -2.99909, "pop": 18755}, "id": 36}, {"type": "Feature", "geometry": {"coordinates": [-6.48411, 9.52143], "type": "Point"}, "properties": {"ADM0_FR": "SAVANES", "ADM0_PCODE": "CI11", "ADM1_FR": "BAGOUE", "ADM1_PCODE": "CI105", "ADM2_FR": "BOUNDIALI", "ADM2_PCODE": "CI0501", "ADM3_FR": "BOUNDIALI", "ADM3_PCODE": "CI050102", "ADM4_FR": "BOUNDIALI", "ADM4_PCODE": "C1557", "centerLat": 9.52143, "centerLng": -6.48411, "pop": 39962}, "id": 37}, {"type": "Feature", "geometry": {"coordinates": [-5.54, 6.92], "type": "Point"}, "properties": {"ADM0_FR": "SASSANDRA-MARAHOUE", "ADM0_PCODE": "CI10", "ADM1_FR": "MARAHOUE", "ADM1_PCODE": "CI123", "ADM2_FR": "BOUAFLE", "ADM2_PCODE": "CI2301", "ADM3_FR": "BOUAFLE", "ADM3_PCODE": "CI230103", "ADM4_FR": "BOZI", "ADM4_PCODE": "C1583", "centerLat": 6.92, "centerLng": -5.54, "pop": 3982}, "id": 38}, {"type": "Feature", "geometry": {"coordinates": [-4.82699, 7.64178], "type": "Point"}, "properties": {"ADM0_FR": "VALLEE DU BANDAMA", "ADM0_PCODE": "CI12", "ADM1_FR": "GBEKE", "ADM1_PCODE": "CI111", "ADM2_FR": "BOUAKE", "ADM2_PCODE": "CI1103", "ADM3_FR": "BROBO", "ADM3_PCODE": "CI110303", "ADM4_FR": "BROBO", "ADM4_PCODE": "C1615", "centerLat": 7.64178, "centerLng": -4.82699, "pop": 8009}, "id": 39}, {"type": "Feature", "geometry": {"coordinates": [-7.00892, 6.24932], "type": "Point"}, "properties": {"ADM0_FR": "BAS-SASSANDRA", "ADM0_PCODE": "CI01", "ADM1_FR": "NAWA", "ADM1_PCODE": "CI126", "ADM2_FR": "BUYO", "ADM2_PCODE": "CI2601", "ADM3_FR": "BUYO", "ADM3_PCODE": "CI260101", "ADM4_FR": "BUYO", "ADM4_PCODE": "C1656", "centerLat": 6.24932, "centerLng": -7.00892, "pop": 25339}, "id": 40}, {"type": "Feature", "geometry": {"coordinates": [-4.42938, 8.36405], "type": "Point"}, "properties": {"ADM0_FR": "VALLEE DU BANDAMA", "ADM0_PCODE": "CI12", "ADM1_FR": "HAMBOL", "ADM1_PCODE": "CI117", "ADM2_FR": "DABAKALA", "ADM2_PCODE": "CI1701", "ADM3_FR": "DABAKALA", "ADM3_PCODE": "CI170103", "ADM4_FR": "DABAKALA", "ADM4_PCODE": "C1689", "centerLat": 8.36405, "centerLng": -4.42938, "pop": 14134}, "id": 41}, {"type": "Feature", "geometry": {"coordinates": [-6.4486, 6.88815], "type": "Point"}, "properties": {"ADM0_FR": "SASSANDRA-MARAHOUE", "ADM0_PCODE": "CI10", "ADM1_FR": "HAUT-SASSANDRA", "ADM1_PCODE": "CI118", "ADM2_FR": "DALOA", "ADM2_PCODE": "CI1801", "ADM3_FR": "DALOA", "ADM3_PCODE": "CI180102", "ADM4_FR": "DALOA", "ADM4_PCODE": "C1779", "centerLat": 6.88815, "centerLng": -6.4486, "pop": 245360}, "id": 42}, {"type": "Feature", "geometry": {"coordinates": [-8.16032, 7.26075], "type": "Point"}, "properties": {"ADM0_FR": "MONTAGNES", "ADM0_PCODE": "CI09", "ADM1_FR": "TONKPI", "ADM1_PCODE": "CI132", "ADM2_FR": "DANANE", "ADM2_PCODE": "CI3202", "ADM3_FR": "DANANE", "ADM3_PCODE": "CI320202", "ADM4_FR": "DANAN\u00c9", "ADM4_PCODE": "C1791", "centerLat": 7.26075, "centerLng": -8.16032, "pop": 60645}, "id": 43}, {"type": "Feature", "geometry": {"coordinates": [-3.96247, 7.05411], "type": "Point"}, "properties": {"ADM0_FR": "LACS", "ADM0_PCODE": "CI07", "ADM1_FR": "IFFOU", "ADM1_PCODE": "CI119", "ADM2_FR": "DAOUKRO", "ADM2_PCODE": "CI1901", "ADM3_FR": "DAOUKRO", "ADM3_PCODE": "CI190103", "ADM4_FR": "DAOUKRO", "ADM4_PCODE": "C1821", "centerLat": 7.05411, "centerLng": -3.96247, "pop": 44342}, "id": 44}, {"type": "Feature", "geometry": {"coordinates": [-6.37921, 10.4369], "type": "Point"}, "properties": {"ADM0_FR": "SAVANES", "ADM0_PCODE": "CI11", "ADM1_FR": "BAGOUE", "ADM1_PCODE": "CI105", "ADM2_FR": "TENGRELA", "ADM2_PCODE": "CI0503", "ADM3_FR": "TENGRELA", "ADM3_PCODE": "CI050301", "ADM4_FR": "DARANIANI", "ADM4_PCODE": "C1831", "centerLat": 10.4369, "centerLng": -6.37921, "pop": 440}, "id": 45}, {"type": "Feature", "geometry": {"coordinates": [-6.2543, 8.94791], "type": "Point"}, "properties": {"ADM0_FR": "WOROBA", "ADM0_PCODE": "CI13", "ADM1_FR": "BERE", "ADM1_PCODE": "CI107", "ADM2_FR": "DIANRA", "ADM2_PCODE": "CI0701", "ADM3_FR": "DIANRA", "ADM3_PCODE": "CI070101", "ADM4_FR": "DIANRA", "ADM4_PCODE": "C1947", "centerLat": 8.94791, "centerLng": -6.2543, "pop": 25880}, "id": 46}, {"type": "Feature", "geometry": {"coordinates": [-2.9798, 5.65752], "type": "Point"}, "properties": {"ADM0_FR": "COMOE", "ADM0_PCODE": "CI02", "ADM1_FR": "SUD-COMOE", "ADM1_PCODE": "CI130", "ADM2_FR": "ABOISSO", "ADM2_PCODE": "CI3001", "ADM3_FR": "MAFERE", "ADM3_PCODE": "CI300107", "ADM4_FR": "DIBY", "ADM4_PCODE": "C1973", "centerLat": 5.65752, "centerLng": -2.9798, "pop": 6570}, "id": 47}, {"type": "Feature", "geometry": {"coordinates": [-4.89835, 7.1292], "type": "Point"}, "properties": {"ADM0_FR": "LACS", "ADM0_PCODE": "CI07", "ADM1_FR": "BELIER", "ADM1_PCODE": "CI106", "ADM2_FR": "DIDIEVI", "ADM2_PCODE": "CI0601", "ADM3_FR": "DIDIEVI", "ADM3_PCODE": "CI060102", "ADM4_FR": "DIDI\u00c9VI", "ADM4_PCODE": "C1986", "centerLat": 7.1292, "centerLng": -4.89835, "pop": 7917}, "id": 48}, {"type": "Feature", "geometry": {"coordinates": [-5.57273, 6.28671], "type": "Point"}, "properties": {"ADM0_FR": "GOH-DJIBOUA", "ADM0_PCODE": "CI06", "ADM1_FR": "GOH", "ADM1_PCODE": "CI113", "ADM2_FR": "OUME", "ADM2_PCODE": "CI1302", "ADM3_FR": "DIEGONEFLA", "ADM3_PCODE": "CI130202", "ADM4_FR": "DI\u00c9GON\u00c9FLA", "ADM4_PCODE": "C1998", "centerLat": 6.28671, "centerLng": -5.57273, "pop": 33523}, "id": 49}, {"type": "Feature", "geometry": {"coordinates": [-5.77662, 9.06715], "type": "Point"}, "properties": {"ADM0_FR": "SAVANES", "ADM0_PCODE": "CI11", "ADM1_FR": "PORO", "ADM1_PCODE": "CI128", "ADM2_FR": "DIKODOUGOU", "ADM2_PCODE": "CI2801", "ADM3_FR": "DIKODOUGOU", "ADM3_PCODE": "CI280102", "ADM4_FR": "DIKODOUGOU", "ADM4_PCODE": "C2061", "centerLat": 9.06715, "centerLng": -5.77662, "pop": 13953}, "id": 50}, {"type": "Feature", "geometry": {"coordinates": [-4.70461, 6.6454], "type": "Point"}, "properties": {"ADM0_FR": "LACS", "ADM0_PCODE": "CI07", "ADM1_FR": "N'ZI", "ADM1_PCODE": "CI127", "ADM2_FR": "DIMBOKRO", "ADM2_PCODE": "CI2702", "ADM3_FR": "DIMBOKRO", "ADM3_PCODE": "CI270203", "ADM4_FR": "DIMBOKRO", "ADM4_PCODE": "C2073", "centerLat": 6.6454, "centerLng": -4.70461, "pop": 48860}, "id": 51}, {"type": "Feature", "geometry": {"coordinates": [-5.35702, 5.83833], "type": "Point"}, "properties": {"ADM0_FR": "GOH-DJIBOUA", "ADM0_PCODE": "CI06", "ADM1_FR": "LOH-DJIBOUA", "ADM1_PCODE": "CI122", "ADM2_FR": "DIVO", "ADM2_PCODE": "CI2201", "ADM3_FR": "DIVO", "ADM3_PCODE": "CI220103", "ADM4_FR": "DIVO", "ADM4_PCODE": "C2117", "centerLat": 5.83833, "centerLng": -5.35702, "pop": 105397}, "id": 52}, {"type": "Feature", "geometry": {"coordinates": [-5.07205, 7.51697], "type": "Point"}, "properties": {"ADM0_FR": "VALLEE DU BANDAMA", "ADM0_PCODE": "CI12", "ADM1_FR": "GBEKE", "ADM1_PCODE": "CI111", "ADM2_FR": "BOUAKE", "ADM2_PCODE": "CI1103", "ADM3_FR": "DJEBONOUA", "ADM3_PCODE": "CI110304", "ADM4_FR": "DJEBONOUA", "ADM4_PCODE": "C2159", "centerLat": 7.51697, "centerLng": -5.07205, "pop": 3648}, "id": 53}, {"type": "Feature", "geometry": {"coordinates": [-5.11627, 6.47235], "type": "Point"}, "properties": {"ADM0_FR": "LACS", "ADM0_PCODE": "CI07", "ADM1_FR": "BELIER", "ADM1_PCODE": "CI106", "ADM2_FR": "DJEKANOU", "ADM2_PCODE": "CI0602", "ADM3_FR": "DJEKANOU", "ADM3_PCODE": "CI060202", "ADM4_FR": "DJ\u00c9KANOU", "ADM4_PCODE": "C2171", "centerLat": 6.47235, "centerLng": -5.11627, "pop": 3981}, "id": 54}, {"type": "Feature", "geometry": {"coordinates": [-3.34132, 9.80814], "type": "Point"}, "properties": {"ADM0_FR": "ZANZAN", "ADM0_PCODE": "CI14", "ADM1_FR": "BOUNKANI", "ADM1_PCODE": "CI108", "ADM2_FR": "DOROPO", "ADM2_PCODE": "CI0802", "ADM3_FR": "DOROPO", "ADM3_PCODE": "CI080202", "ADM4_FR": "DOROPO", "ADM4_PCODE": "C2324", "centerLat": 9.80814, "centerLng": -3.34132, "pop": 14388}, "id": 55}, {"type": "Feature", "geometry": {"coordinates": [-6.54233, 8.12173], "type": "Point"}, "properties": {"ADM0_FR": "WOROBA", "ADM0_PCODE": "CI13", "ADM1_FR": "WORODOUGOU", "ADM1_PCODE": "CI133", "ADM2_FR": "SEGUELA", "ADM2_PCODE": "CI3302", "ADM3_FR": "DUALLA", "ADM3_PCODE": "CI330203", "ADM4_FR": "DUALLA", "ADM4_PCODE": "C2423", "centerLat": 8.12173, "centerLng": -6.54233, "pop": 1915}, "id": 56}, {"type": "Feature", "geometry": {"coordinates": [-7.34262, 6.74496], "type": "Point"}, "properties": {"ADM0_FR": "MONTAGNES", "ADM0_PCODE": "CI09", "ADM1_FR": "GUEMON", "ADM1_PCODE": "CI116", "ADM2_FR": "DUEKOUE", "ADM2_PCODE": "CI1602", "ADM3_FR": "DUEKOUE", "ADM3_PCODE": "CI160202", "ADM4_FR": "DUEKOUE", "ADM4_PCODE": "C2425", "centerLat": 6.74496, "centerLng": -7.34262, "pop": 90274}, "id": 57}, {"type": "Feature", "geometry": {"coordinates": [-4.51, 5.69], "type": "Point"}, "properties": {"ADM0_FR": "LAGUNES", "ADM0_PCODE": "CI08", "ADM1_FR": "AGNEBY-TIASSA", "ADM1_PCODE": "CI103", "ADM2_FR": "SIKENSI", "ADM2_PCODE": "CI0302", "ADM3_FR": "SIKENSI", "ADM3_PCODE": "CI030201", "ADM4_FR": "ELLIBOU", "ADM4_PCODE": "C2485", "centerLat": 5.69, "centerLng": -4.51, "pop": 5875}, "id": 58}, {"type": "Feature", "geometry": {"coordinates": [-7.37694, 7.38819], "type": "Point"}, "properties": {"ADM0_FR": "MONTAGNES", "ADM0_PCODE": "CI09", "ADM1_FR": "GUEMON", "ADM1_PCODE": "CI116", "ADM2_FR": "FACOBLY", "ADM2_PCODE": "CI1603", "ADM3_FR": "FACOBLY", "ADM3_PCODE": "CI160301", "ADM4_FR": "FACOBLY", "ADM4_PCODE": "C2527", "centerLat": 7.38819, "centerLng": -7.37694, "pop": 4536}, "id": 59}, {"type": "Feature", "geometry": {"coordinates": [-5.19762, 9.59226], "type": "Point"}, "properties": {"ADM0_FR": "SAVANES", "ADM0_PCODE": "CI11", "ADM1_FR": "TCHOLOGO", "ADM1_PCODE": "CI131", "ADM2_FR": "FERKESSEDOUGOU", "ADM2_PCODE": "CI3101", "ADM3_FR": "FERKESSEDOUGOU", "ADM3_PCODE": "CI310101", "ADM4_FR": "FERKESS\u00c9DOUGOU", "ADM4_PCODE": "C2603", "centerLat": 9.59226, "centerLng": -5.19762, "pop": 55910}, "id": 60}, {"type": "Feature", "geometry": {"coordinates": [-5.58651, 5.10559], "type": "Point"}, "properties": {"ADM0_FR": "BAS-SASSANDRA", "ADM0_PCODE": "CI01", "ADM1_FR": "GBOKLE", "ADM1_PCODE": "CI112", "ADM2_FR": "FRESCO", "ADM2_PCODE": "CI1201", "ADM3_FR": "FRESCO", "ADM3_PCODE": "CI120102", "ADM4_FR": "FRESCO", "ADM4_PCODE": "C2691", "centerLat": 5.10559, "centerLng": -5.58651, "pop": 8533}, "id": 61}, {"type": "Feature", "geometry": {"coordinates": [-5.94436, 6.12836], "type": "Point"}, "properties": {"ADM0_FR": "GOH-DJIBOUA", "ADM0_PCODE": "CI06", "ADM1_FR": "GOH", "ADM1_PCODE": "CI113", "ADM2_FR": "GAGNOA", "ADM2_PCODE": "CI1301", "ADM3_FR": "GAGNOA", "ADM3_PCODE": "CI130106", "ADM4_FR": "GAGNOA", "ADM4_PCODE": "C2707", "centerLat": 6.12836, "centerLng": -5.94436, "pop": 160465}, "id": 62}, {"type": "Feature", "geometry": {"coordinates": [-8.33, 7.57], "type": "Point"}, "properties": {"ADM0_FR": "MONTAGNES", "ADM0_PCODE": "CI09", "ADM1_FR": "TONKPI", "ADM1_PCODE": "CI132", "ADM2_FR": "DANANE", "ADM2_PCODE": "CI3202", "ADM3_FR": "KOUAN-HOULE", "ADM3_PCODE": "CI320204", "ADM4_FR": "GBAPLEU", "ADM4_PCODE": "C2878", "centerLat": 7.57, "centerLng": -8.33, "pop": 2358}, "id": 63}, {"type": "Feature", "geometry": {"coordinates": [-6.44827, 9.8341], "type": "Point"}, "properties": {"ADM0_FR": "SAVANES", "ADM0_PCODE": "CI11", "ADM1_FR": "BAGOUE", "ADM1_PCODE": "CI105", "ADM2_FR": "KOUTO", "ADM2_PCODE": "CI0502", "ADM3_FR": "GBON", "ADM3_PCODE": "CI050203", "ADM4_FR": "GBON", "ADM4_PCODE": "C2986", "centerLat": 9.8341, "centerLng": -6.44827, "pop": 9615}, "id": 64}, {"type": "Feature", "geometry": {"coordinates": [-5.96948, 6.94469], "type": "Point"}, "properties": {"ADM0_FR": "SASSANDRA-MARAHOUE", "ADM0_PCODE": "CI10", "ADM1_FR": "MARAHOUE", "ADM1_PCODE": "CI123", "ADM2_FR": "BOUAFLE", "ADM2_PCODE": "CI2301", "ADM3_FR": "BONON", "ADM3_PCODE": "CI230102", "ADM4_FR": "GOBAZRA", "ADM4_PCODE": "C3147", "centerLat": 6.94469, "centerLng": -5.96948, "pop": 3978}, "id": 65}, {"type": "Feature", "geometry": {"coordinates": [-6.2454, 6.90526], "type": "Point"}, "properties": {"ADM0_FR": "SASSANDRA-MARAHOUE", "ADM0_PCODE": "CI10", "ADM1_FR": "HAUT-SASSANDRA", "ADM1_PCODE": "CI118", "ADM2_FR": "DALOA", "ADM2_PCODE": "CI1801", "ADM3_FR": "GONATE", "ADM3_PCODE": "CI180105", "ADM4_FR": "GONAT\u00c9", "ADM4_PCODE": "C3235", "centerLat": 6.90526, "centerLng": -6.2454, "pop": 19161}, "id": 66}, {"type": "Feature", "geometry": {"coordinates": [-5.00208, 5.24919], "type": "Point"}, "properties": {"ADM0_FR": "LAGUNES", "ADM0_PCODE": "CI08", "ADM1_FR": "GRANDS-PONTS", "ADM1_PCODE": "CI115", "ADM2_FR": "GRAND-LAHOU", "ADM2_PCODE": "CI1502", "ADM3_FR": "GRAND-LAHOU", "ADM3_PCODE": "CI150204", "ADM4_FR": "GRAND-LAHOU", "ADM4_PCODE": "C3376", "centerLat": 5.24919, "centerLng": -5.00208, "pop": 28470}, "id": 67}, {"type": "Feature", "geometry": {"coordinates": [-6.9247, 4.65053], "type": "Point"}, "properties": {"ADM0_FR": "BAS-SASSANDRA", "ADM0_PCODE": "CI01", "ADM1_FR": "SAN-PEDRO", "ADM1_PCODE": "CI129", "ADM2_FR": "SAN-PEDRO", "ADM2_PCODE": "CI2901", "ADM3_FR": "GRAND-BEREBY", "ADM3_PCODE": "CI290105", "ADM4_FR": "GRAND-B\u00c9R\u00c9BY", "ADM4_PCODE": "C3368", "centerLat": 4.65053, "centerLng": -6.9247, "pop": 9338}, "id": 68}, {"type": "Feature", "geometry": {"coordinates": [-6.9556, 6.74014], "type": "Point"}, "properties": {"ADM0_FR": "SASSANDRA-MARAHOUE", "ADM0_PCODE": "CI10", "ADM1_FR": "HAUT-SASSANDRA", "ADM1_PCODE": "CI118", "ADM2_FR": "ZOUKOUGBEU", "ADM2_PCODE": "CI1804", "ADM3_FR": "GUESSABO", "ADM3_PCODE": "CI180404", "ADM4_FR": "GUESSABO", "ADM4_PCODE": "C3447", "centerLat": 6.74014, "centerLng": -6.9556, "pop": 13843}, "id": 69}, {"type": "Feature", "geometry": {"coordinates": [-7.12, 6.74], "type": "Point"}, "properties": {"ADM0_FR": "MONTAGNES", "ADM0_PCODE": "CI09", "ADM1_FR": "CAVALLY", "ADM1_PCODE": "CI109", "ADM2_FR": "GUIGLO", "ADM2_PCODE": "CI0902", "ADM3_FR": "KAADE", "ADM3_PCODE": "CI090203", "ADM4_FR": "GU\u00c9ZON", "ADM4_PCODE": "C3475", "centerLat": 6.74, "centerLng": -7.12, "pop": 1144}, "id": 70}, {"type": "Feature", "geometry": {"coordinates": [-7.48625, 6.54472], "type": "Point"}, "properties": {"ADM0_FR": "MONTAGNES", "ADM0_PCODE": "CI09", "ADM1_FR": "CAVALLY", "ADM1_PCODE": "CI109", "ADM2_FR": "GUIGLO", "ADM2_PCODE": "CI0902", "ADM3_FR": "GUIGLO", "ADM3_PCODE": "CI090201", "ADM4_FR": "GUIGLO", "ADM4_PCODE": "C3495", "centerLat": 6.54472, "centerLng": -7.48625, "pop": 52544}, "id": 71}, {"type": "Feature", "geometry": {"coordinates": [-7.72352, 6.56732], "type": "Point"}, "properties": {"ADM0_FR": "MONTAGNES", "ADM0_PCODE": "CI09", "ADM1_FR": "CAVALLY", "ADM1_PCODE": "CI109", "ADM2_FR": "GUIGLO", "ADM2_PCODE": "CI0902", "ADM3_FR": "KAADE", "ADM3_PCODE": "CI090203", "ADM4_FR": "GUINKIN", "ADM4_PCODE": "C3519", "centerLat": 6.56732, "centerLng": -7.72352, "pop": 5964}, "id": 72}, {"type": "Feature", "geometry": {"coordinates": [-6.58904, 6.48762], "type": "Point"}, "properties": {"ADM0_FR": "SASSANDRA-MARAHOUE", "ADM0_PCODE": "CI10", "ADM1_FR": "HAUT-SASSANDRA", "ADM1_PCODE": "CI118", "ADM2_FR": "ISSIA", "ADM2_PCODE": "CI1802", "ADM3_FR": "ISSIA", "ADM3_PCODE": "CI180201", "ADM4_FR": "ISSIA", "ADM4_PCODE": "C3598", "centerLat": 6.48762, "centerLng": -6.58904, "pop": 52660}, "id": 73}, {"type": "Feature", "geometry": {"coordinates": [-4.41967, 5.20547], "type": "Point"}, "properties": {"ADM0_FR": "LAGUNES", "ADM0_PCODE": "CI08", "ADM1_FR": "GRANDS-PONTS", "ADM1_PCODE": "CI115", "ADM2_FR": "JACQUEVILLE", "ADM2_PCODE": "CI1503", "ADM3_FR": "JACQUEVILLE", "ADM3_PCODE": "CI150301", "ADM4_FR": "JACQUEVILLE", "ADM4_PCODE": "C3604", "centerLat": 5.20547, "centerLng": -4.41967, "pop": 11096}, "id": 74}, {"type": "Feature", "geometry": {"coordinates": [-6.60449, 8.47952], "type": "Point"}, "properties": {"ADM0_FR": "WOROBA", "ADM0_PCODE": "CI13", "ADM1_FR": "WORODOUGOU", "ADM1_PCODE": "CI133", "ADM2_FR": "KANI", "ADM2_PCODE": "CI3301", "ADM3_FR": "KANI", "ADM3_PCODE": "CI330101", "ADM4_FR": "KANI", "ADM4_PCODE": "C3786", "centerLat": 8.47952, "centerLng": -6.60449, "pop": 8908}, "id": 75}, {"type": "Feature", "geometry": {"coordinates": [-5.10206, 8.13861], "type": "Point"}, "properties": {"ADM0_FR": "VALLEE DU BANDAMA", "ADM0_PCODE": "CI12", "ADM1_FR": "HAMBOL", "ADM1_PCODE": "CI117", "ADM2_FR": "KATIOLA", "ADM2_PCODE": "CI1702", "ADM3_FR": "KATIOLA", "ADM3_PCODE": "CI170201", "ADM4_FR": "KATIOLA", "ADM4_PCODE": "C3915", "centerLat": 8.13861, "centerLng": -5.10206, "pop": 40319}, "id": 76}, {"type": "Feature", "geometry": {"coordinates": [-3.29073, 9.68684], "type": "Point"}, "properties": {"ADM0_FR": "ZANZAN", "ADM0_PCODE": "CI14", "ADM1_FR": "BOUNKANI", "ADM1_PCODE": "CI108", "ADM2_FR": "DOROPO", "ADM2_PCODE": "CI0802", "ADM3_FR": "DOROPO", "ADM3_PCODE": "CI080202", "ADM4_FR": "KODO", "ADM4_PCODE": "C4109", "centerLat": 9.68684, "centerLng": -3.29073, "pop": 604}, "id": 77}, {"type": "Feature", "geometry": {"coordinates": [-6.46315, 9.76592], "type": "Point"}, "properties": {"ADM0_FR": "SAVANES", "ADM0_PCODE": "CI11", "ADM1_FR": "BAGOUE", "ADM1_PCODE": "CI105", "ADM2_FR": "KOUTO", "ADM2_PCODE": "CI0502", "ADM3_FR": "KOLIA", "ADM3_PCODE": "CI050204", "ADM4_FR": "KOLIA", "ADM4_PCODE": "C4231", "centerLat": 9.76592, "centerLng": -6.46315, "pop": 12124}, "id": 78}, {"type": "Feature", "geometry": {"coordinates": [-4.61251, 9.15113], "type": "Point"}, "properties": {"ADM0_FR": "SAVANES", "ADM0_PCODE": "CI11", "ADM1_FR": "TCHOLOGO", "ADM1_PCODE": "CI131", "ADM2_FR": "KONG", "ADM2_PCODE": "CI3102", "ADM3_FR": "KONG", "ADM3_PCODE": "CI310201", "ADM4_FR": "KONG", "ADM4_PCODE": "C4324", "centerLat": 9.15113, "centerLng": -4.61251, "pop": 11774}, "id": 79}, {"type": "Feature", "geometry": {"coordinates": [-5.6375, 9.45799], "type": "Point"}, "properties": {"ADM0_FR": "SAVANES", "ADM0_PCODE": "CI11", "ADM1_FR": "PORO", "ADM1_PCODE": "CI128", "ADM2_FR": "KORHOGO", "ADM2_PCODE": "CI2802", "ADM3_FR": "KORHOGO", "ADM3_PCODE": "CI280201", "ADM4_FR": "KORHOGO", "ADM4_PCODE": "C4410", "centerLat": 9.45799, "centerLng": -5.6375, "pop": 243048}, "id": 80}, {"type": "Feature", "geometry": {"coordinates": [-7.46, 8.55], "type": "Point"}, "properties": {"ADM0_FR": "ZANZAN", "ADM0_PCODE": "CI14", "ADM1_FR": "BOUNKANI", "ADM1_PCODE": "CI108", "ADM2_FR": "DOROPO", "ADM2_PCODE": "CI0802", "ADM3_FR": "NIAMOUE", "ADM3_PCODE": "CI080204", "ADM4_FR": "KORO", "ADM4_PCODE": "C4420", "centerLat": 8.55, "centerLng": -7.46, "pop": 257}, "id": 81}, {"type": "Feature", "geometry": {"coordinates": [-4.13201, 6.69809], "type": "Point"}, "properties": {"ADM0_FR": "LACS", "ADM0_PCODE": "CI07", "ADM1_FR": "MORONOU", "ADM1_PCODE": "CI125", "ADM2_FR": "ARRAH", "ADM2_PCODE": "CI2501", "ADM3_FR": "KOTOBI", "ADM3_PCODE": "CI250102", "ADM4_FR": "KOTOBI", "ADM4_PCODE": "C4464", "centerLat": 6.69809, "centerLng": -4.13201, "pop": 6764}, "id": 82}, {"type": "Feature", "geometry": {"coordinates": [-7.39649, 10.1227], "type": "Point"}, "properties": {"ADM0_FR": "DENGUELE", "ADM0_PCODE": "CI03", "ADM1_FR": "FOLON", "ADM1_PCODE": "CI110", "ADM2_FR": "MINIGNAN", "ADM2_PCODE": "CI1002", "ADM3_FR": "TIENKO", "ADM3_PCODE": "CI100204", "ADM4_FR": "KOTOULA", "ADM4_PCODE": "C4480", "centerLat": 10.1227, "centerLng": -7.39649, "pop": 1331}, "id": 83}, {"type": "Feature", "geometry": {"coordinates": [-3.5263, 7.81794], "type": "Point"}, "properties": {"ADM0_FR": "ZANZAN", "ADM0_PCODE": "CI14", "ADM1_FR": "GONTOUGO", "ADM1_PCODE": "CI114", "ADM2_FR": "KOUN-FAO", "ADM2_PCODE": "CI1402", "ADM3_FR": "KOUASSI-DATEKRO", "ADM3_PCODE": "CI140204", "ADM4_FR": "KOUASSI-DATEKRO", "ADM4_PCODE": "C4593", "centerLat": 7.81794, "centerLng": -3.5263, "pop": 6145}, "id": 84}, {"type": "Feature", "geometry": {"coordinates": [-7.23513, 7.25525], "type": "Point"}, "properties": {"ADM0_FR": "MONTAGNES", "ADM0_PCODE": "CI09", "ADM1_FR": "GUEMON", "ADM1_PCODE": "CI116", "ADM2_FR": "KOUIBLY", "ADM2_PCODE": "CI1604", "ADM3_FR": "KOUIBLY", "ADM3_PCODE": "CI160401", "ADM4_FR": "KOUIBLY", "ADM4_PCODE": "C4656", "centerLat": 7.25525, "centerLng": -7.23513, "pop": 11830}, "id": 85}, {"type": "Feature", "geometry": {"coordinates": [-3.25314, 7.48698], "type": "Point"}, "properties": {"ADM0_FR": "ZANZAN", "ADM0_PCODE": "CI14", "ADM1_FR": "GONTOUGO", "ADM1_PCODE": "CI114", "ADM2_FR": "KOUN-FAO", "ADM2_PCODE": "CI1402", "ADM3_FR": "KOUN-FAO", "ADM3_PCODE": "CI140201", "ADM4_FR": "KOUN-FAO", "ADM4_PCODE": "C4714", "centerLat": 7.48698, "centerLng": -3.25314, "pop": 5488}, "id": 86}, {"type": "Feature", "geometry": {"coordinates": [-5.8362, 7.79041], "type": "Point"}, "properties": {"ADM0_FR": "WOROBA", "ADM0_PCODE": "CI13", "ADM1_FR": "BERE", "ADM1_PCODE": "CI107", "ADM2_FR": "KOUNAHIRI", "ADM2_PCODE": "CI0702", "ADM3_FR": "KOUNAHIRI", "ADM3_PCODE": "CI070201", "ADM4_FR": "KOUNAHIRI", "ADM4_PCODE": "C4707", "centerLat": 7.79041, "centerLng": -5.8362, "pop": 5483}, "id": 87}, {"type": "Feature", "geometry": {"coordinates": [-6.41316, 9.89214], "type": "Point"}, "properties": {"ADM0_FR": "SAVANES", "ADM0_PCODE": "CI11", "ADM1_FR": "BAGOUE", "ADM1_PCODE": "CI105", "ADM2_FR": "KOUTO", "ADM2_PCODE": "CI0502", "ADM3_FR": "KOUTO", "ADM3_PCODE": "CI050201", "ADM4_FR": "KOUTO", "ADM4_PCODE": "C4751", "centerLat": 9.89214, "centerLng": -6.41316, "pop": 10989}, "id": 88}, {"type": "Feature", "geometry": {"coordinates": [-5.68383, 5.84907], "type": "Point"}, "properties": {"ADM0_FR": "GOH-DJIBOUA", "ADM0_PCODE": "CI06", "ADM1_FR": "LOH-DJIBOUA", "ADM1_PCODE": "CI122", "ADM2_FR": "LAKOTA", "ADM2_PCODE": "CI2203", "ADM3_FR": "LAKOTA", "ADM3_PCODE": "CI220301", "ADM4_FR": "LAKOTA", "ADM4_PCODE": "C4974", "centerLat": 5.84907, "centerLng": -5.68383, "pop": 24976}, "id": 89}, {"type": "Feature", "geometry": {"coordinates": [-5.08457, 10.1459], "type": "Point"}, "properties": {"ADM0_FR": "SAVANES", "ADM0_PCODE": "CI11", "ADM1_FR": "TCHOLOGO", "ADM1_PCODE": "CI131", "ADM2_FR": "OUANGOLODOUGOU", "ADM2_PCODE": "CI3103", "ADM3_FR": "KAOUARA", "ADM3_PCODE": "CI310303", "ADM4_FR": "LAL\u00c9RABA", "ADM4_PCODE": "C4977", "centerLat": 10.1459, "centerLng": -5.08457, "pop": 1120}, "id": 90}, {"type": "Feature", "geometry": {"coordinates": [-5.03188, 7.08418], "type": "Point"}, "properties": {"ADM0_FR": "LACS", "ADM0_PCODE": "CI07", "ADM1_FR": "BELIER", "ADM1_PCODE": "CI106", "ADM2_FR": "TIEBISSOU", "ADM2_PCODE": "CI0603", "ADM3_FR": "LOMOKANKRO", "ADM3_PCODE": "CI060302", "ADM4_FR": "LOMOKANKRO", "ADM4_PCODE": "C5174", "centerLat": 7.08418, "centerLng": -5.03188, "pop": 1282}, "id": 91}, {"type": "Feature", "geometry": {"coordinates": [-4.97627, 6.37756], "type": "Point"}, "properties": {"ADM0_FR": "LACS", "ADM0_PCODE": "CI07", "ADM1_FR": "BELIER", "ADM1_PCODE": "CI106", "ADM2_FR": "TOUMODI", "ADM2_PCODE": "CI0604", "ADM3_FR": "TOUMODI", "ADM3_PCODE": "CI060401", "ADM4_FR": "LOMO-SUD", "ADM4_PCODE": "C5179", "centerLat": 6.37756, "centerLng": -4.97627, "pop": 373}, "id": 92}, {"type": "Feature", "geometry": {"coordinates": [-6.94096, 9.6116], "type": "Point"}, "properties": {"ADM0_FR": "DENGUELE", "ADM0_PCODE": "CI03", "ADM1_FR": "KABADOUGOU", "ADM1_PCODE": "CI121", "ADM2_FR": "MADINANI", "ADM2_PCODE": "CI2102", "ADM3_FR": "MADINANI", "ADM3_PCODE": "CI210201", "ADM4_FR": "MADINANI", "ADM4_PCODE": "C5251", "centerLat": 9.6116, "centerLng": -6.94096, "pop": 6710}, "id": 93}, {"type": "Feature", "geometry": {"coordinates": [-5.84247, 7.40332], "type": "Point"}, "properties": {"ADM0_FR": "SASSANDRA-MARAHOUE", "ADM0_PCODE": "CI10", "ADM1_FR": "MARAHOUE", "ADM1_PCODE": "CI123", "ADM2_FR": "ZUENOULA", "ADM2_PCODE": "CI2303", "ADM3_FR": "MAMINIGUI", "ADM3_PCODE": "CI230305", "ADM4_FR": "MAMINIGUI", "ADM4_PCODE": "C5310", "centerLat": 7.40332, "centerLng": -5.84247, "pop": 5319}, "id": 94}, {"type": "Feature", "geometry": {"coordinates": [-7.55442, 7.40545], "type": "Point"}, "properties": {"ADM0_FR": "MONTAGNES", "ADM0_PCODE": "CI09", "ADM1_FR": "TONKPI", "ADM1_PCODE": "CI132", "ADM2_FR": "MAN", "ADM2_PCODE": "CI3203", "ADM3_FR": "MAN", "ADM3_PCODE": "CI320301", "ADM4_FR": "MAN", "ADM4_PCODE": "C5323", "centerLat": 7.40545, "centerLng": -7.55442, "pop": 149041}, "id": 95}, {"type": "Feature", "geometry": {"coordinates": [-6.64906, 6.93244], "type": "Point"}, "properties": {"ADM0_FR": "WOROBA", "ADM0_PCODE": "CI13", "ADM1_FR": "WORODOUGOU", "ADM1_PCODE": "CI133", "ADM2_FR": "SEGUELA", "ADM2_PCODE": "CI3302", "ADM3_FR": "WOROFLA", "ADM3_PCODE": "CI330207", "ADM4_FR": "MANKONO", "ADM4_PCODE": "C5355", "centerLat": 6.93244, "centerLng": -6.64906, "pop": 1576}, "id": 96}, {"type": "Feature", "geometry": {"coordinates": [-4.34, 7.46], "type": "Point"}, "properties": {"ADM0_FR": "LACS", "ADM0_PCODE": "CI07", "ADM1_FR": "IFFOU", "ADM1_PCODE": "CI119", "ADM2_FR": "M'BAHIAKRO", "ADM2_PCODE": "CI1902", "ADM3_FR": "M'BAHIAKRO", "ADM3_PCODE": "CI190201", "ADM4_FR": "M'BAHIAKRO", "ADM4_PCODE": "C5412", "centerLat": 7.46, "centerLng": -4.34, "pop": 14894}, "id": 97}, {"type": "Feature", "geometry": {"coordinates": [-4.36, 6.47], "type": "Point"}, "properties": {"ADM0_FR": "LACS", "ADM0_PCODE": "CI07", "ADM1_FR": "MORONOU", "ADM1_PCODE": "CI125", "ADM2_FR": "M'BATTO", "ADM2_PCODE": "CI2503", "ADM3_FR": "M'BATTO", "ADM3_PCODE": "CI250301", "ADM4_FR": "M'BATTO", "ADM4_PCODE": "C5421", "centerLat": 6.47, "centerLng": -4.36, "pop": 18300}, "id": 98}, {"type": "Feature", "geometry": {"coordinates": [-6.55634, 5.40618], "type": "Point"}, "properties": {"ADM0_FR": "BAS-SASSANDRA", "ADM0_PCODE": "CI01", "ADM1_FR": "NAWA", "ADM1_PCODE": "CI126", "ADM2_FR": "MEAGUI", "ADM2_PCODE": "CI2603", "ADM3_FR": "MEAGUI", "ADM3_PCODE": "CI260301", "ADM4_FR": "M\u00c9AGUI", "ADM4_PCODE": "C5452", "centerLat": 5.40618, "centerLng": -6.55634, "pop": 57367}, "id": 99}, {"type": "Feature", "geometry": {"coordinates": [-3.67957, 5.18624], "type": "Point"}, "properties": {"ADM0_FR": "COMOE", "ADM0_PCODE": "CI02", "ADM1_FR": "SUD-COMOE", "ADM1_PCODE": "CI130", "ADM2_FR": "GRAND-BASSAM", "ADM2_PCODE": "CI3003", "ADM3_FR": "GRAND-BASSAM", "ADM3_PCODE": "CI300303", "ADM4_FR": "MONDOUKOU", "ADM4_PCODE": "C5561", "centerLat": 5.18624, "centerLng": -3.67957, "pop": 1400}, "id": 100}, {"type": "Feature", "geometry": {"coordinates": [-4.9718, 6.32154], "type": "Point"}, "properties": {"ADM0_FR": "LACS", "ADM0_PCODE": "CI07", "ADM1_FR": "BELIER", "ADM1_PCODE": "CI106", "ADM2_FR": "TOUMODI", "ADM2_PCODE": "CI0604", "ADM3_FR": "KPOUEBO", "ADM3_PCODE": "CI060404", "ADM4_FR": "MORONOU", "ADM4_PCODE": "C5589", "centerLat": 6.32154, "centerLng": -4.9718, "pop": 4642}, "id": 101}, {"type": "Feature", "geometry": {"coordinates": [-6.548317, 4.922005], "type": "Point"}, "properties": {"ADM0_FR": "BAS-SASSANDRA", "ADM0_PCODE": "CI01", "ADM1_FR": "SAN-PEDRO", "ADM1_PCODE": "CI129", "ADM2_FR": "SAN-PEDRO", "ADM2_PCODE": "CI2901", "ADM3_FR": "SAN-PEDRO", "ADM3_PCODE": "CI290101", "ADM4_FR": "MOUSSADOUGOU", "ADM4_PCODE": "C5605", "centerLat": 4.922005, "centerLng": -6.548317, "pop": 16344}, "id": 102}, {"type": "Feature", "geometry": {"coordinates": [-4.48, 9.4], "type": "Point"}, "properties": {"ADM0_FR": "SAVANES", "ADM0_PCODE": "CI11", "ADM1_FR": "TCHOLOGO", "ADM1_PCODE": "CI131", "ADM2_FR": "KONG", "ADM2_PCODE": "CI3102", "ADM3_FR": "SIKOLO", "ADM3_PCODE": "CI310204", "ADM4_FR": "NASSIAN", "ADM4_PCODE": "C5771", "centerLat": 9.4, "centerLng": -4.48, "pop": 1161}, "id": 103}, {"type": "Feature", "geometry": {"coordinates": [-4.76, 5.87], "type": "Point"}, "properties": {"ADM0_FR": "LAGUNES", "ADM0_PCODE": "CI08", "ADM1_FR": "AGNEBY-TIASSA", "ADM1_PCODE": "CI103", "ADM2_FR": "TIASSALE", "ADM2_PCODE": "CI0304", "ADM3_FR": "N'DOUCI", "ADM3_PCODE": "CI030404", "ADM4_FR": "N'DOUCI", "ADM4_PCODE": "C5846", "centerLat": 5.87, "centerLng": -4.76, "pop": 27112}, "id": 104}, {"type": "Feature", "geometry": {"coordinates": [-5.14, 7.28], "type": "Point"}, "properties": {"ADM0_FR": "LACS", "ADM0_PCODE": "CI07", "ADM1_FR": "BELIER", "ADM1_PCODE": "CI106", "ADM2_FR": "TIEBISSOU", "ADM2_PCODE": "CI0603", "ADM3_FR": "TIEBISSOU", "ADM3_PCODE": "CI060301", "ADM4_FR": "N'GATTADOLIKRO", "ADM4_PCODE": "C5908", "centerLat": 7.28, "centerLng": -5.14, "pop": 2925}, "id": 105}, {"type": "Feature", "geometry": {"coordinates": [-3.27, 6.66], "type": "Point"}, "properties": {"ADM0_FR": "GOH-DJIBOUA", "ADM0_PCODE": "CI06", "ADM1_FR": "LOH-DJIBOUA", "ADM1_PCODE": "CI122", "ADM2_FR": "LAKOTA", "ADM2_PCODE": "CI2203", "ADM3_FR": "DJIDJI", "ADM3_PCODE": "CI220302", "ADM4_FR": "NIABL\u00c9", "ADM4_PCODE": "C5974", "centerLat": 6.66, "centerLng": -3.27, "pop": 777}, "id": 106}, {"type": "Feature", "geometry": {"coordinates": [-5.62318, 10.1995], "type": "Point"}, "properties": {"ADM0_FR": "SAVANES", "ADM0_PCODE": "CI11", "ADM1_FR": "TCHOLOGO", "ADM1_PCODE": "CI131", "ADM2_FR": "OUANGOLODOUGOU", "ADM2_PCODE": "CI3103", "ADM3_FR": "NIELLE", "ADM3_PCODE": "CI310304", "ADM4_FR": "NIELL\u00c9", "ADM4_PCODE": "C6049", "centerLat": 10.1995, "centerLng": -5.62318, "pop": 19116}, "id": 107}, {"type": "Feature", "geometry": {"coordinates": [-2.78555, 5.29329], "type": "Point"}, "properties": {"ADM0_FR": "COMOE", "ADM0_PCODE": "CI02", "ADM1_FR": "SUD-COMOE", "ADM1_PCODE": "CI130", "ADM2_FR": "TIAPOUM", "ADM2_PCODE": "CI3004", "ADM3_FR": "NOE", "ADM3_PCODE": "CI300402", "ADM4_FR": "NO\u00c9", "ADM4_PCODE": "C6109", "centerLat": 5.29329, "centerLng": -2.78555, "pop": 9411}, "id": 108}, {"type": "Feature", "geometry": {"coordinates": [-4.82, 6.01], "type": "Point"}, "properties": {"ADM0_FR": "LAGUNES", "ADM0_PCODE": "CI08", "ADM1_FR": "AGNEBY-TIASSA", "ADM1_PCODE": "CI103", "ADM2_FR": "TIASSALE", "ADM2_PCODE": "CI0304", "ADM3_FR": "TIASSALE", "ADM3_PCODE": "CI030401", "ADM4_FR": "N'ZIANOUAN", "ADM4_PCODE": "C6185", "centerLat": 6.01, "centerLng": -4.82, "pop": 12603}, "id": 109}, {"type": "Feature", "geometry": {"coordinates": [-7.56213, 9.50687], "type": "Point"}, "properties": {"ADM0_FR": "DENGUELE", "ADM0_PCODE": "CI03", "ADM1_FR": "KABADOUGOU", "ADM1_PCODE": "CI121", "ADM2_FR": "ODIENNE", "ADM2_PCODE": "CI2103", "ADM3_FR": "ODIENNE", "ADM3_PCODE": "CI210301", "ADM4_FR": "ODIENNE", "ADM4_PCODE": "C6210", "centerLat": 9.50687, "centerLng": -7.56213, "pop": 42173}, "id": 110}, {"type": "Feature", "geometry": {"coordinates": [-6.2749, 5.72016], "type": "Point"}, "properties": {"ADM0_FR": "BAS-SASSANDRA", "ADM0_PCODE": "CI01", "ADM1_FR": "NAWA", "ADM1_PCODE": "CI126", "ADM2_FR": "SOUBRE", "ADM2_PCODE": "CI2604", "ADM3_FR": "OKROUYO", "ADM3_PCODE": "CI260405", "ADM4_FR": "OTTAWA", "ADM4_PCODE": "C6258", "centerLat": 5.72016, "centerLng": -6.2749, "pop": 8167}, "id": 111}, {"type": "Feature", "geometry": {"coordinates": [-5.15419, 9.96711], "type": "Point"}, "properties": {"ADM0_FR": "SAVANES", "ADM0_PCODE": "CI11", "ADM1_FR": "TCHOLOGO", "ADM1_PCODE": "CI131", "ADM2_FR": "OUANGOLODOUGOU", "ADM2_PCODE": "CI3103", "ADM3_FR": "OUANGOLODOUGOU", "ADM3_PCODE": "CI310301", "ADM4_FR": "OUANGOLODOUGOU", "ADM4_PCODE": "C6291", "centerLat": 9.96711, "centerLng": -5.15419, "pop": 37991}, "id": 112}, {"type": "Feature", "geometry": {"coordinates": [-4.01481, 7.29754], "type": "Point"}, "properties": {"ADM0_FR": "LACS", "ADM0_PCODE": "CI07", "ADM1_FR": "IFFOU", "ADM1_PCODE": "CI119", "ADM2_FR": "DAOUKRO", "ADM2_PCODE": "CI1901", "ADM3_FR": "OUELLE", "ADM3_PCODE": "CI190106", "ADM4_FR": "OUELLE", "ADM4_PCODE": "C6331", "centerLat": 7.29754, "centerLng": -4.01481, "pop": 6543}, "id": 113}, {"type": "Feature", "geometry": {"coordinates": [-5.41528, 6.3835], "type": "Point"}, "properties": {"ADM0_FR": "GOH-DJIBOUA", "ADM0_PCODE": "CI06", "ADM1_FR": "GOH", "ADM1_PCODE": "CI113", "ADM2_FR": "OUME", "ADM2_PCODE": "CI1302", "ADM3_FR": "OUME", "ADM3_PCODE": "CI130201", "ADM4_FR": "OUM\u00c9", "ADM4_PCODE": "C6363", "centerLat": 6.3835, "centerLng": -5.41528, "pop": 45210}, "id": 114}, {"type": "Feature", "geometry": {"coordinates": [-5.93268, 6.31364], "type": "Point"}, "properties": {"ADM0_FR": "GOH-DJIBOUA", "ADM0_PCODE": "CI06", "ADM1_FR": "GOH", "ADM1_PCODE": "CI113", "ADM2_FR": "GAGNOA", "ADM2_PCODE": "CI1301", "ADM3_FR": "OURAGAHIO", "ADM3_PCODE": "CI130110", "ADM4_FR": "OURAGAHIO", "ADM4_PCODE": "C6381", "centerLat": 6.31364, "centerLng": -5.93268, "pop": 11253}, "id": 115}, {"type": "Feature", "geometry": {"coordinates": [-4.93745, 6.16742], "type": "Point"}, "properties": {"ADM0_FR": "LAGUNES", "ADM0_PCODE": "CI08", "ADM1_FR": "AGNEBY-TIASSA", "ADM1_PCODE": "CI103", "ADM2_FR": "TAABO", "ADM2_PCODE": "CI0303", "ADM3_FR": "PACCOBO", "ADM3_PCODE": "CI030302", "ADM4_FR": "PACOBO", "ADM4_PCODE": "C6405", "centerLat": 6.16742, "centerLng": -4.93745, "pop": 1710}, "id": 116}, {"type": "Feature", "geometry": {"coordinates": [-4.3057, 6.07253], "type": "Point"}, "properties": {"ADM0_FR": "LAGUNES", "ADM0_PCODE": "CI08", "ADM1_FR": "AGNEBY-TIASSA", "ADM1_PCODE": "CI103", "ADM2_FR": "AGBOVILLE", "ADM2_PCODE": "CI0301", "ADM3_FR": "RUBINO", "ADM3_PCODE": "CI030111", "ADM4_FR": "RUBINO", "ADM4_PCODE": "C6669", "centerLat": 6.07253, "centerLng": -4.3057, "pop": 14025}, "id": 117}, {"type": "Feature", "geometry": {"coordinates": [-5.29194, 7.4558], "type": "Point"}, "properties": {"ADM0_FR": "VALLEE DU BANDAMA", "ADM0_PCODE": "CI12", "ADM1_FR": "GBEKE", "ADM1_PCODE": "CI111", "ADM2_FR": "SAKASSOU", "ADM2_PCODE": "CI1104", "ADM3_FR": "SAKASSOU", "ADM3_PCODE": "CI110401", "ADM4_FR": "SAKASSOU", "ADM4_PCODE": "C6712", "centerLat": 7.4558, "centerLng": -5.29194, "pop": 13186}, "id": 118}, {"type": "Feature", "geometry": {"coordinates": [-6.64, 5.38], "type": "Point"}, "properties": {"ADM0_FR": "DISTRICT AUTONOME DE YAMOUSSOUKRO", "ADM0_PCODE": "CI05", "ADM1_FR": "DISTRICT AUTONOME DE YAMOUSSOUKRO", "ADM1_PCODE": "CI102", "ADM2_FR": "ATTIEGOUAKRO", "ADM2_PCODE": "CI0201", "ADM3_FR": "LOLOBO", "ADM3_PCODE": "CI020102", "ADM4_FR": "SAKIAR\u00c9", "ADM4_PCODE": "C6714", "centerLat": 5.38, "centerLng": -6.64, "pop": 3684}, "id": 119}, {"type": "Feature", "geometry": {"coordinates": [-5.88775, 8.81244], "type": "Point"}, "properties": {"ADM0_FR": "SAVANES", "ADM0_PCODE": "CI11", "ADM1_FR": "PORO", "ADM1_PCODE": "CI128", "ADM2_FR": "DIKODOUGOU", "ADM2_PCODE": "CI2801", "ADM3_FR": "DIKODOUGOU", "ADM3_PCODE": "CI280102", "ADM4_FR": "SAMATIGUILA", "ADM4_PCODE": "C6741", "centerLat": 8.81244, "centerLng": -5.88775, "pop": 652}, "id": 120}, {"type": "Feature", "geometry": {"coordinates": [-6.61973, 4.73809], "type": "Point"}, "properties": {"ADM0_FR": "BAS-SASSANDRA", "ADM0_PCODE": "CI01", "ADM1_FR": "SAN-PEDRO", "ADM1_PCODE": "CI129", "ADM2_FR": "SAN-PEDRO", "ADM2_PCODE": "CI2901", "ADM3_FR": "SAN-PEDRO", "ADM3_PCODE": "CI290101", "ADM4_FR": "SAN-PEDRO", "ADM4_PCODE": "C6807", "centerLat": 4.73809, "centerLng": -6.61973, "pop": 164944}, "id": 121}, {"type": "Feature", "geometry": {"coordinates": [-6.09211, 4.95198], "type": "Point"}, "properties": {"ADM0_FR": "BAS-SASSANDRA", "ADM0_PCODE": "CI01", "ADM1_FR": "GBOKLE", "ADM1_PCODE": "CI112", "ADM2_FR": "SASSANDRA", "ADM2_PCODE": "CI1202", "ADM3_FR": "SASSANDRA", "ADM3_PCODE": "CI120201", "ADM4_FR": "SASSANDRA", "ADM4_PCODE": "C6835", "centerLat": 4.95198, "centerLng": -6.09211, "pop": 26608}, "id": 122}, {"type": "Feature", "geometry": {"coordinates": [-6.67313, 7.96253], "type": "Point"}, "properties": {"ADM0_FR": "WOROBA", "ADM0_PCODE": "CI13", "ADM1_FR": "WORODOUGOU", "ADM1_PCODE": "CI133", "ADM2_FR": "SEGUELA", "ADM2_PCODE": "CI3302", "ADM3_FR": "SEGUELA", "ADM3_PCODE": "CI330201", "ADM4_FR": "S\u00c9GU\u00c9LA", "ADM4_PCODE": "C6882", "centerLat": 7.96253, "centerLng": -6.67313, "pop": 46189}, "id": 123}, {"type": "Feature", "geometry": {"coordinates": [-4.57207, 5.67065], "type": "Point"}, "properties": {"ADM0_FR": "LAGUNES", "ADM0_PCODE": "CI08", "ADM1_FR": "AGNEBY-TIASSA", "ADM1_PCODE": "CI103", "ADM2_FR": "SIKENSI", "ADM2_PCODE": "CI0302", "ADM3_FR": "SIKENSI", "ADM3_PCODE": "CI030201", "ADM4_FR": "SIKENSI", "ADM4_PCODE": "C7019", "centerLat": 5.67065, "centerLng": -4.57207, "pop": 7308}, "id": 124}, {"type": "Feature", "geometry": {"coordinates": [-5.38559, 9.58325], "type": "Point"}, "properties": {"ADM0_FR": "SAVANES", "ADM0_PCODE": "CI11", "ADM1_FR": "PORO", "ADM1_PCODE": "CI128", "ADM2_FR": "SINEMATIALI", "ADM2_PCODE": "CI2804", "ADM3_FR": "SINEMATIALI", "ADM3_PCODE": "CI280401", "ADM4_FR": "SINEMATIALI", "ADM4_PCODE": "C7043", "centerLat": 9.58325, "centerLng": -5.38559, "pop": 10167}, "id": 125}, {"type": "Feature", "geometry": {"coordinates": [-5.91517, 6.62035], "type": "Point"}, "properties": {"ADM0_FR": "SASSANDRA-MARAHOUE", "ADM0_PCODE": "CI10", "ADM1_FR": "MARAHOUE", "ADM1_PCODE": "CI123", "ADM2_FR": "SINFRA", "ADM2_PCODE": "CI2302", "ADM3_FR": "SINFRA", "ADM3_PCODE": "CI230201", "ADM4_FR": "SINFRA", "ADM4_PCODE": "C7045", "centerLat": 6.62035, "centerLng": -5.91517, "pop": 80658}, "id": 126}, {"type": "Feature", "geometry": {"coordinates": [-4.91951, 6.09382], "type": "Point"}, "properties": {"ADM0_FR": "LAGUNES", "ADM0_PCODE": "CI08", "ADM1_FR": "AGNEBY-TIASSA", "ADM1_PCODE": "CI103", "ADM2_FR": "TAABO", "ADM2_PCODE": "CI0303", "ADM3_FR": "PACCOBO", "ADM3_PCODE": "CI030302", "ADM4_FR": "SINGROBO", "ADM4_PCODE": "C7054", "centerLat": 6.09382, "centerLng": -4.91951, "pop": 2799}, "id": 127}, {"type": "Feature", "geometry": {"coordinates": [-6.59, 5.78], "type": "Point"}, "properties": {"ADM0_FR": "COMOE", "ADM0_PCODE": "CI02", "ADM1_FR": "SUD-COMOE", "ADM1_PCODE": "CI130", "ADM2_FR": "ABOISSO", "ADM2_PCODE": "CI3001", "ADM3_FR": "BIANOUAN", "ADM3_PCODE": "CI300105", "ADM4_FR": "SOUBR\u00c9", "ADM4_PCODE": "C7241", "centerLat": 5.78, "centerLng": -6.59, "pop": 1421}, "id": 128}, {"type": "Feature", "geometry": {"coordinates": [-3.07097, 7.99062], "type": "Point"}, "properties": {"ADM0_FR": "ZANZAN", "ADM0_PCODE": "CI14", "ADM1_FR": "GONTOUGO", "ADM1_PCODE": "CI114", "ADM2_FR": "BONDOUKOU", "ADM2_PCODE": "CI1401", "ADM3_FR": "TABAGNE", "ADM3_PCODE": "CI140109", "ADM4_FR": "TABAGNE", "ADM4_PCODE": "C7298", "centerLat": 7.99062, "centerLng": -3.07097, "pop": 4950}, "id": 129}, {"type": "Feature", "geometry": {"coordinates": [-7.35615, 4.41452], "type": "Point"}, "properties": {"ADM0_FR": "BAS-SASSANDRA", "ADM0_PCODE": "CI01", "ADM1_FR": "SAN-PEDRO", "ADM1_PCODE": "CI129", "ADM2_FR": "TABOU", "ADM2_PCODE": "CI2902", "ADM3_FR": "TABOU", "ADM3_PCODE": "CI290201", "ADM4_FR": "TABOU", "ADM4_PCODE": "C7308", "centerLat": 4.41452, "centerLng": -7.35615, "pop": 22733}, "id": 130}, {"type": "Feature", "geometry": {"coordinates": [-5.16212, 9.07022], "type": "Point"}, "properties": {"ADM0_FR": "VALLEE DU BANDAMA", "ADM0_PCODE": "CI12", "ADM1_FR": "HAMBOL", "ADM1_PCODE": "CI117", "ADM2_FR": "NIAKARAMADOUGOU", "ADM2_PCODE": "CI1703", "ADM3_FR": "TAFIRE", "ADM3_PCODE": "CI170305", "ADM4_FR": "TAFIRE", "ADM4_PCODE": "C7314", "centerLat": 9.07022, "centerLng": -5.16212, "pop": 17191}, "id": 131}, {"type": "Feature", "geometry": {"coordinates": [-7.45579, 5.87385], "type": "Point"}, "properties": {"ADM0_FR": "MONTAGNES", "ADM0_PCODE": "CI09", "ADM1_FR": "CAVALLY", "ADM1_PCODE": "CI109", "ADM2_FR": "TA\u00cf", "ADM2_PCODE": "CI0903", "ADM3_FR": "TA\u00cf", "ADM3_PCODE": "CI090301", "ADM4_FR": "TAI", "ADM4_PCODE": "C7345", "centerLat": 5.87385, "centerLng": -7.45579, "pop": 5917}, "id": 132}, {"type": "Feature", "geometry": {"coordinates": [-3.16789, 7.80253], "type": "Point"}, "properties": {"ADM0_FR": "ZANZAN", "ADM0_PCODE": "CI14", "ADM1_FR": "GONTOUGO", "ADM1_PCODE": "CI114", "ADM2_FR": "TANDA", "ADM2_PCODE": "CI1404", "ADM3_FR": "TANDA", "ADM3_PCODE": "CI140401", "ADM4_FR": "TANDA", "ADM4_PCODE": "C7386", "centerLat": 7.80253, "centerLng": -3.16789, "pop": 27659}, "id": 133}, {"type": "Feature", "geometry": {"coordinates": [-4.82379, 5.89299], "type": "Point"}, "properties": {"ADM0_FR": "LAGUNES", "ADM0_PCODE": "CI08", "ADM1_FR": "AGNEBY-TIASSA", "ADM1_PCODE": "CI103", "ADM2_FR": "TIASSALE", "ADM2_PCODE": "CI0304", "ADM3_FR": "TIASSALE", "ADM3_PCODE": "CI030401", "ADM4_FR": "TIASSAL\u00c9", "ADM4_PCODE": "C7555", "centerLat": 5.89299, "centerLng": -4.82379, "pop": 20057}, "id": 134}, {"type": "Feature", "geometry": {"coordinates": [-4.66225, 7.71436], "type": "Point"}, "properties": {"ADM0_FR": "LACS", "ADM0_PCODE": "CI07", "ADM1_FR": "BELIER", "ADM1_PCODE": "CI106", "ADM2_FR": "TIEBISSOU", "ADM2_PCODE": "CI0603", "ADM3_FR": "TIEBISSOU", "ADM3_PCODE": "CI060301", "ADM4_FR": "TI\u00c9BISSOU", "ADM4_PCODE": "C7574", "centerLat": 7.71436, "centerLng": -4.66225, "pop": 18832}, "id": 135}, {"type": "Feature", "geometry": {"coordinates": [-7.31834, 9.54501], "type": "Point"}, "properties": {"ADM0_FR": "DENGUELE", "ADM0_PCODE": "CI03", "ADM1_FR": "KABADOUGOU", "ADM1_PCODE": "CI121", "ADM2_FR": "ODIENNE", "ADM2_PCODE": "CI2103", "ADM3_FR": "TIEME", "ADM3_PCODE": "CI210305", "ADM4_FR": "TIEME", "ADM4_PCODE": "C7613", "centerLat": 9.54501, "centerLng": -7.31834, "pop": 6267}, "id": 136}, {"type": "Feature", "geometry": {"coordinates": [-6.41061, 10.489], "type": "Point"}, "properties": {"ADM0_FR": "SAVANES", "ADM0_PCODE": "CI11", "ADM1_FR": "BAGOUE", "ADM1_PCODE": "CI105", "ADM2_FR": "TENGRELA", "ADM2_PCODE": "CI0503", "ADM3_FR": "TENGRELA", "ADM3_PCODE": "CI050301", "ADM4_FR": "TENGRELA", "ADM4_PCODE": "C7513", "centerLat": 10.489, "centerLng": -6.41061, "pop": 40323}, "id": 137}, {"type": "Feature", "geometry": {"coordinates": [-5.64427, 6.35398], "type": "Point"}, "properties": {"ADM0_FR": "GOH-DJIBOUA", "ADM0_PCODE": "CI06", "ADM1_FR": "GOH", "ADM1_PCODE": "CI113", "ADM2_FR": "OUME", "ADM2_PCODE": "CI1302", "ADM3_FR": "TONLA", "ADM3_PCODE": "CI130204", "ADM4_FR": "TONLA", "ADM4_PCODE": "C7785", "centerLat": 6.35398, "centerLng": -5.64427, "pop": 7300}, "id": 138}, {"type": "Feature", "geometry": {"coordinates": [-7.68063, 8.28504], "type": "Point"}, "properties": {"ADM0_FR": "WOROBA", "ADM0_PCODE": "CI13", "ADM1_FR": "BAFING", "ADM1_PCODE": "CI104", "ADM2_FR": "TOUBA", "ADM2_PCODE": "CI0403", "ADM3_FR": "TOUBA", "ADM3_PCODE": "CI040301", "ADM4_FR": "TOUBA", "ADM4_PCODE": "C7832", "centerLat": 8.28504, "centerLng": -7.68063, "pop": 22361}, "id": 139}, {"type": "Feature", "geometry": {"coordinates": [-8.41519, 6.582], "type": "Point"}, "properties": {"ADM0_FR": "MONTAGNES", "ADM0_PCODE": "CI09", "ADM1_FR": "CAVALLY", "ADM1_PCODE": "CI109", "ADM2_FR": "TOULEPLEU", "ADM2_PCODE": "CI0904", "ADM3_FR": "TOULEPLEU", "ADM3_PCODE": "CI090401", "ADM4_FR": "TOULEPLEU", "ADM4_PCODE": "C7852", "centerLat": 6.582, "centerLng": -8.41519, "pop": 6784}, "id": 140}, {"type": "Feature", "geometry": {"coordinates": [-5.01819, 6.56024], "type": "Point"}, "properties": {"ADM0_FR": "LACS", "ADM0_PCODE": "CI07", "ADM1_FR": "BELIER", "ADM1_PCODE": "CI106", "ADM2_FR": "TOUMODI", "ADM2_PCODE": "CI0604", "ADM3_FR": "TOUMODI", "ADM3_PCODE": "CI060401", "ADM4_FR": "TOUMODI", "ADM4_PCODE": "C7862", "centerLat": 6.56024, "centerLng": -5.01819, "pop": 43189}, "id": 141}, {"type": "Feature", "geometry": {"coordinates": [-6.48051, 7.37748], "type": "Point"}, "properties": {"ADM0_FR": "SASSANDRA-MARAHOUE", "ADM0_PCODE": "CI10", "ADM1_FR": "HAUT-SASSANDRA", "ADM1_PCODE": "CI118", "ADM2_FR": "VAVOUA", "ADM2_PCODE": "CI1803", "ADM3_FR": "VAVOUA", "ADM3_PCODE": "CI180301", "ADM4_FR": "VAVOUA", "ADM4_PCODE": "C7965", "centerLat": 7.37748, "centerLng": -6.48051, "pop": 67096}, "id": 142}, {"type": "Feature", "geometry": {"coordinates": [-3.95, 5.81], "type": "Point"}, "properties": {"ADM0_FR": "LAGUNES", "ADM0_PCODE": "CI08", "ADM1_FR": "LA ME", "ADM1_PCODE": "CI124", "ADM2_FR": "ADZOPE", "ADM2_PCODE": "CI2401", "ADM3_FR": "YAKASSE-ME", "ADM3_PCODE": "CI240106", "ADM4_FR": "YAKASSE-ME", "ADM4_PCODE": "C8076", "centerLat": 5.81, "centerLng": -3.95, "pop": 9823}, "id": 143}, {"type": "Feature", "geometry": {"coordinates": [-5.27786, 6.81819], "type": "Point"}, "properties": {"ADM0_FR": "DISTRICT AUTONOME DE YAMOUSSOUKRO", "ADM0_PCODE": "CI05", "ADM1_FR": "DISTRICT AUTONOME DE YAMOUSSOUKRO", "ADM1_PCODE": "CI102", "ADM2_FR": "YAMOUSSOUKRO", "ADM2_PCODE": "CI0202", "ADM3_FR": "YAMOUSSOUKRO", "ADM3_PCODE": "CI020201", "ADM4_FR": "YAMOUSSOUKRO", "ADM4_PCODE": "C8092", "centerLat": 6.81819, "centerLng": -5.27786, "pop": 212670}, "id": 144}, {"type": "Feature", "geometry": {"coordinates": [-5.26, 5.79], "type": "Point"}, "properties": {"ADM0_FR": "DISTRICT AUTONOME DE YAMOUSSOUKRO", "ADM0_PCODE": "CI05", "ADM1_FR": "DISTRICT AUTONOME DE YAMOUSSOUKRO", "ADM1_PCODE": "CI102", "ADM2_FR": "YAMOUSSOUKRO", "ADM2_PCODE": "CI0202", "ADM3_FR": "KOSSOU", "ADM3_PCODE": "CI020202", "ADM4_FR": "YOBOU\u00c9KRO", "ADM4_PCODE": "C8202", "centerLat": 5.79, "centerLng": -5.26, "pop": 932}, "id": 145}, {"type": "Feature", "geometry": {"coordinates": [-5.41187, 6.73205], "type": "Point"}, "properties": {"ADM0_FR": "DISTRICT AUTONOME DE YAMOUSSOUKRO", "ADM0_PCODE": "CI05", "ADM1_FR": "DISTRICT AUTONOME DE YAMOUSSOUKRO", "ADM1_PCODE": "CI102", "ADM2_FR": "YAMOUSSOUKRO", "ADM2_PCODE": "CI0202", "ADM3_FR": "YAMOUSSOUKRO", "ADM3_PCODE": "CI020201", "ADM4_FR": "ZAMBAKRO", "ADM4_PCODE": "C8294", "centerLat": 6.73205, "centerLng": -5.41187, "pop": 7947}, "id": 146}, {"type": "Feature", "geometry": {"coordinates": [-5.40398, 6.87876], "type": "Point"}, "properties": {"ADM0_FR": "DISTRICT AUTONOME DE YAMOUSSOUKRO", "ADM0_PCODE": "CI05", "ADM1_FR": "DISTRICT AUTONOME DE YAMOUSSOUKRO", "ADM1_PCODE": "CI102", "ADM2_FR": "YAMOUSSOUKRO", "ADM2_PCODE": "CI0202", "ADM3_FR": "YAMOUSSOUKRO", "ADM3_PCODE": "CI020201", "ADM4_FR": "ZATTA", "ADM4_PCODE": "C8337", "centerLat": 6.87876, "centerLng": -5.40398, "pop": 8391}, "id": 147}, {"type": "Feature", "geometry": {"coordinates": [-5.84068, 6.45013], "type": "Point"}, "properties": {"ADM0_FR": "GOH-DJIBOUA", "ADM0_PCODE": "CI06", "ADM1_FR": "GOH", "ADM1_PCODE": "CI113", "ADM2_FR": "GAGNOA", "ADM2_PCODE": "CI1301", "ADM3_FR": "YOPOHUE", "ADM3_PCODE": "CI130112", "ADM4_FR": "ZIPLIGNAN", "ADM4_PCODE": "C8434", "centerLat": 6.45013, "centerLng": -5.84068, "pop": 6750}, "id": 148}, {"type": "Feature", "geometry": {"coordinates": [-8.20892, 6.91987], "type": "Point"}, "properties": {"ADM0_FR": "MONTAGNES", "ADM0_PCODE": "CI09", "ADM1_FR": "TONKPI", "ADM1_PCODE": "CI132", "ADM2_FR": "ZOUAN-HOUNIEN", "ADM2_PCODE": "CI3205", "ADM3_FR": "ZOUAN-HOUNIEN", "ADM3_PCODE": "CI320501", "ADM4_FR": "ZOUAN-HOUNIEN", "ADM4_PCODE": "C8485", "centerLat": 6.91987, "centerLng": -8.20892, "pop": 22872}, "id": 149}, {"type": "Feature", "geometry": {"coordinates": [-6.04748, 7.43083], "type": "Point"}, "properties": {"ADM0_FR": "SASSANDRA-MARAHOUE", "ADM0_PCODE": "CI10", "ADM1_FR": "MARAHOUE", "ADM1_PCODE": "CI123", "ADM2_FR": "ZUENOULA", "ADM2_PCODE": "CI2303", "ADM3_FR": "ZUENOULA", "ADM3_PCODE": "CI230301", "ADM4_FR": "ZU\u00c9NOULA", "ADM4_PCODE": "C8516", "centerLat": 7.43083, "centerLng": -6.04748, "pop": 34018}, "id": 150}]}