{"type": "FeatureCollection", "features": [{"type": "Feature", "geometry": {"coordinates": [-4.01585, 5.43515], "type": "Point"}, "properties": {"ADM0_FR": "DISTRICT AUTONOME D'ABIDJAN", "ADM0_PCODE": "CI04", "ADM1_FR": "DISTRICT AUTONOME D'ABIDJAN", "ADM1_PCODE": "CI101", "ADM2_FR": "ABIDJAN", "ADM2_PCODE": "CI0101", "ADM3_FR": "ABIDJAN", "ADM3_PCODE": "CI010101", "ADM4_FR": "ABOBO", "ADM4_PCODE": "C0029", "centerLat": 5.43515, "centerLng": -4.01585, "pop": 1030658}, "id": 1}, {"type": "Feature", "geometry": {"coordinates": [-4.01988, 5.37187], "type": "Point"}, "properties": {"ADM0_FR": "DISTRICT AUTONOME D'ABIDJAN", "ADM0_PCODE": "CI04", "ADM1_FR": "DISTRICT AUTONOME D'ABIDJAN", "ADM1_PCODE": "CI101", "ADM2_FR": "ABIDJAN", "ADM2_PCODE": "CI0101", "ADM3_FR": "ABIDJAN", "ADM3_PCODE": "CI010101", "ADM4_FR": "ADJAME", "ADM4_PCODE": "C0133", "centerLat": 5.37187, "centerLng": -4.01988, "pop": 372978}, "id": 2}, {"type": "Feature", "geometry": {"coordinates": [-4.05488, 5.49466], "type": "Point"}, "properties": {"ADM0_FR": "DISTRICT AUTONOME D'ABIDJAN", "ADM0_PCODE": "CI04", "ADM1_FR": "DISTRICT AUTONOME D'ABIDJAN", "ADM1_PCODE": "CI101", "ADM2_FR": "ABIDJAN", "ADM2_PCODE": "CI0101", "ADM3_FR": "ANYAMA", "ADM3_PCODE": "CI010102", "ADM4_FR": "ANYAMA", "ADM4_PCODE": "C0570", "centerLat": 5.49466, "centerLng": -4.05488, "pop": 103297}, "id": 3}, {"type": "Feature", "geometry": {"coordinates": [-4.05198, 5.38219], "type": "Point"}, "properties": {"ADM0_FR": "DISTRICT AUTONOME D'ABIDJAN", "ADM0_PCODE": "CI04", "ADM1_FR": "DISTRICT AUTONOME D'ABIDJAN", "ADM1_PCODE": "CI101", "ADM2_FR": "ABIDJAN", "ADM2_PCODE": "CI0101", "ADM3_FR": "ABIDJAN", "ADM3_PCODE": "CI010101", "ADM4_FR": "ATTECOUBE", "ADM4_PCODE": "C0734", "centerLat": 5.38219, "centerLng": -4.05198, "pop": 260911}, "id": 4}, {"type": "Feature", "geometry": {"coordinates": [-3.89704, 5.359], "type": "Point"}, "properties": {"ADM0_FR": "DISTRICT AUTONOME D'ABIDJAN", "ADM0_PCODE": "CI04", "ADM1_FR": "DISTRICT AUTONOME D'ABIDJAN", "ADM1_PCODE": "CI101", "ADM2_FR": "ABIDJAN", "ADM2_PCODE": "CI0101", "ADM3_FR": "BINGERVILLE", "ADM3_PCODE": "CI010103", "ADM4_FR": "BINGERVILLE", "ADM4_PCODE": "C1214", "centerLat": 5.359, "centerLng": -3.89704, "pop": 64015}, "id": 5}, {"type": "Feature", "geometry": {"coordinates": [-3.96089, 5.373], "type": "Point"}, "properties": {"ADM0_FR": "DISTRICT AUTONOME D'ABIDJAN", "ADM0_PCODE": "CI04", "ADM1_FR": "DISTRICT AUTONOME D'ABIDJAN", "ADM1_PCODE": "CI101", "ADM2_FR": "ABIDJAN", "ADM2_PCODE": "CI0101", "ADM3_FR": "ABIDJAN", "ADM3_PCODE": "CI010101", "ADM4_FR": "COCODY", "ADM4_PCODE": "C1672", "centerLat": 5.373, "centerLng": -3.96089, "pop": 447055}, "id": 6}, {"type": "Feature", "geometry": {"coordinates": [-3.72689, 5.19266], "type": "Point"}, "properties": {"ADM0_FR": "COMOE", "ADM0_PCODE": "CI02", "ADM1_FR": "SUD-COMOE", "ADM1_PCODE": "CI130", "ADM2_FR": "GRAND-BASSAM", "ADM2_PCODE": "CI3003", "ADM3_FR": "GRAND-BASSAM", "ADM3_PCODE": "CI300303", "ADM4_FR": "GRAND-BASSAM", "ADM4_PCODE": "C3367", "centerLat": 5.19266, "centerLng": -3.72689, "pop": 74671}, "id": 7}, {"type": "Feature", "geometry": {"coordinates": [-3.94836, 5.30249], "type": "Point"}, "properties": {"ADM0_FR": "DISTRICT AUTONOME D'ABIDJAN", "ADM0_PCODE": "CI04", "ADM1_FR": "DISTRICT AUTONOME D'ABIDJAN", "ADM1_PCODE": "CI101", "ADM2_FR": "ABIDJAN", "ADM2_PCODE": "CI0101", "ADM3_FR": "ABIDJAN", "ADM3_PCODE": "CI010101", "ADM4_FR": "KOUMASSI", "ADM4_PCODE": "C4694", "centerLat": 5.30249, "centerLng": -3.94836, "pop": 433139}, "id": 8}, {"type": "Feature", "geometry": {"coordinates": [-3.98251, 5.29932], "type": "Point"}, "properties": {"ADM0_FR": "DISTRICT AUTONOME D'ABIDJAN", "ADM0_PCODE": "CI04", "ADM1_FR": "DISTRICT AUTONOME D'ABIDJAN", "ADM1_PCODE": "CI101", "ADM2_FR": "ABIDJAN", "ADM2_PCODE": "CI0101", "ADM3_FR": "ABIDJAN", "ADM3_PCODE": "CI010101", "ADM4_FR": "MARCORY", "ADM4_PCODE": "C5375", "centerLat": 5.29932, "centerLng": -3.98251, "pop": 249858}, "id": 9}, {"type": "Feature", "geometry": {"coordinates": [-4.02164, 5.32517], "type": "Point"}, "properties": {"ADM0_FR": "DISTRICT AUTONOME D'ABIDJAN", "ADM0_PCODE": "CI04", "ADM1_FR": "DISTRICT AUTONOME D'ABIDJAN", "ADM1_PCODE": "CI101", "ADM2_FR": "ABIDJAN", "ADM2_PCODE": "CI0101", "ADM3_FR": "ABIDJAN", "ADM3_PCODE": "CI010101", "ADM4_FR": "PLATEAU", "ADM4_PCODE": "C6556", "centerLat": 5.32517, "centerLng": -4.02164, "pop": 7488}, "id": 10}, {"type": "Feature", "geometry": {"coordinates": [-3.958626, 5.256881], "type": "Point"}, "properties": {"ADM0_FR": "DISTRICT AUTONOME D'ABIDJAN", "ADM0_PCODE": "CI04", "ADM1_FR": "DISTRICT AUTONOME D'ABIDJAN", "ADM1_PCODE": "CI101", "ADM2_FR": "ABIDJAN", "ADM2_PCODE": "CI0101", "ADM3_FR": "ABIDJAN", "ADM3_PCODE": "CI010101", "ADM4_FR": "PORT-BOUET", "ADM4_PCODE": "C6619", "centerLat": 5.256881, "centerLng": -3.958626, "pop": 419033}, "id": 11}, {"type": "Feature", "geometry": {"coordinates": [-4.01044, 5.29098], "type": "Point"}, "properties": {"ADM0_FR": "DISTRICT AUTONOME D'ABIDJAN", "ADM0_PCODE": "CI04", "ADM1_FR": "DISTRICT AUTONOME D'ABIDJAN", "ADM1_PCODE": "CI101", "ADM2_FR": "ABIDJAN", "ADM2_PCODE": "CI0101", "ADM3_FR": "ABIDJAN", "ADM3_PCODE": "CI010101", "ADM4_FR": "TREICHVILLE", "ADM4_PCODE": "C7913", "centerLat": 5.29098, "centerLng": -4.01044, "pop": 102580}, "id": 12}, {"type": "Feature", "geometry": {"coordinates": [-4.09015, 5.30848], "type": "Point"}, "properties": {"ADM0_FR": "DISTRICT AUTONOME D'ABIDJAN", "ADM0_PCODE": "CI04", "ADM1_FR": "DISTRICT AUTONOME D'ABIDJAN", "ADM1_PCODE": "CI101", "ADM2_FR": "ABIDJAN", "ADM2_PCODE": "CI0101", "ADM3_FR": "ABIDJAN", "ADM3_PCODE": "CI010101", "ADM4_FR": "YOPOUGON", "ADM4_PCODE": "C8230", "centerLat": 5.30848, "centerLng": -4.09015, "pop": 1071543}, "id": 13}, {"type": "Feature", "geometry": {"coordinates": [-3.49676, 6.72836], "type": "Point"}, "properties": {"ADM0_FR": "COMOE", "ADM0_PCODE": "CI02", "ADM1_FR": "INDENIE-DJUABLIN", "ADM1_PCODE": "CI120", "ADM2_FR": "ABENGOUROU", "ADM2_PCODE": "CI2001", "ADM3_FR": "ABENGOUROU", "ADM3_PCODE": "CI200101", "ADM4_FR": "ABENGOUROU", "ADM4_PCODE": "C0014", "centerLat": 6.72836, "centerLng": -3.49676, "pop": 100910}, "id": 14}, {"type": "Feature", "geometry": {"coordinates": [-3.20677, 5.47457], "type": "Point"}, "properties": {"ADM0_FR": "COMOE", "ADM0_PCODE": "CI02", "ADM1_FR": "SUD-COMOE", "ADM1_PCODE": "CI130", "ADM2_FR": "ABOISSO", "ADM2_PCODE": "CI3001", "ADM3_FR": "ABOISSO", "ADM3_PCODE": "CI300101", "ADM4_FR": "ABOISSO", "ADM4_PCODE": "C0033", "centerLat": 5.47457, "centerLng": -3.20677, "pop": 45688}, "id": 15}, {"type": "Feature", "geometry": {"coordinates": [-3.86622, 6.1096], "type": "Point"}, "properties": {"ADM0_FR": "LAGUNES", "ADM0_PCODE": "CI08", "ADM1_FR": "LA ME", "ADM1_PCODE": "CI124", "ADM2_FR": "ADZOPE", "ADM2_PCODE": "CI2401", "ADM3_FR": "ADZOPE", "ADM3_PCODE": "CI240101", "ADM4_FR": "ADZOPE", "ADM4_PCODE": "C0176", "centerLat": 6.1096, "centerLng": -3.86622, "pop": 58722}, "id": 16}, {"type": "Feature", "geometry": {"coordinates": [-4.21523, 5.92964], "type": "Point"}, "properties": {"ADM0_FR": "LAGUNES", "ADM0_PCODE": "CI08", "ADM1_FR": "AGNEBY-TIASSA", "ADM1_PCODE": "CI103", "ADM2_FR": "AGBOVILLE", "ADM2_PCODE": "CI0301", "ADM3_FR": "AGBOVILLE", "ADM3_PCODE": "CI030102", "ADM4_FR": "AGBOVILLE", "ADM4_PCODE": "C0215", "centerLat": 5.92964, "centerLng": -4.21523, "pop": 50873}, "id": 17}, {"type": "Feature", "geometry": {"coordinates": [-3.88779, 6.38525], "type": "Point"}, "properties": {"ADM0_FR": "LAGUNES", "ADM0_PCODE": "CI08", "ADM1_FR": "LA ME", "ADM1_PCODE": "CI124", "ADM2_FR": "AKOUPE", "ADM2_PCODE": "CI2402", "ADM3_FR": "AKOUPE", "ADM3_PCODE": "CI240202", "ADM4_FR": "AKOUPE", "ADM4_PCODE": "C0363", "centerLat": 6.38525, "centerLng": -3.88779, "pop": 26668}, "id": 18}, {"type": "Feature", "geometry": {"coordinates": [-3.66061, 5.50126], "type": "Point"}, "properties": {"ADM0_FR": "LAGUNES", "ADM0_PCODE": "CI08", "ADM1_FR": "LA ME", "ADM1_PCODE": "CI124", "ADM2_FR": "ALEPE", "ADM2_PCODE": "CI2403", "ADM3_FR": "ALEPE", "ADM3_PCODE": "CI240302", "ADM4_FR": "ALEPE", "ADM4_PCODE": "C0398", "centerLat": 5.50126, "centerLng": -3.66061, "pop": 9045}, "id": 19}, {"type": "Feature", "geometry": {"coordinates": [-3.28996, 5.13392], "type": "Point"}, "properties": {"ADM0_FR": "COMOE", "ADM0_PCODE": "CI02", "ADM1_FR": "SUD-COMOE", "ADM1_PCODE": "CI130", "ADM2_FR": "ADIAKE", "ADM2_PCODE": "CI3002", "ADM3_FR": "ASSINIE-MAFIA", "ADM3_PCODE": "CI300202", "ADM4_FR": "ASSINIE-MAFIA", "ADM4_PCODE": "C0685", "centerLat": 5.13392, "centerLng": -3.28996, "pop": 5661}, "id": 20}, {"type": "Feature", "geometry": {"coordinates": [-7.61002, 9.14095], "type": "Point"}, "properties": {"ADM0_FR": "DENGUELE", "ADM0_PCODE": "CI03", "ADM1_FR": "KABADOUGOU", "ADM1_PCODE": "CI121", "ADM2_FR": "ODIENNE", "ADM2_PCODE": "CI2103", "ADM3_FR": "BAKO", "ADM3_PCODE": "CI210302", "ADM4_FR": "BAKO", "ADM4_PCODE": "C0871", "centerLat": 9.14095, "centerLng": -7.61002, "pop": 1796}, "id": 21}, {"type": "Feature", "geometry": {"coordinates": [-7.61483, 7.74078], "type": "Point"}, "properties": {"ADM0_FR": "MONTAGNES", "ADM0_PCODE": "CI09", "ADM1_FR": "TONKPI", "ADM1_PCODE": "CI132", "ADM2_FR": "BIANKOUMA", "ADM2_PCODE": "CI3201", "ADM3_FR": "BIANKOUMA", "ADM3_PCODE": "CI320101", "ADM4_FR": "BIANKOUMA", "ADM4_PCODE": "C1160", "centerLat": 7.74078, "centerLng": -7.61483, "pop": 17922}, "id": 22}, {"type": "Feature", "geometry": {"coordinates": [-3.59476, 5.27193], "type": "Point"}, "properties": {"ADM0_FR": "COMOE", "ADM0_PCODE": "CI02", "ADM1_FR": "SUD-COMOE", "ADM1_PCODE": "CI130", "ADM2_FR": "GRAND-BASSAM", "ADM2_PCODE": "CI3003", "ADM3_FR": "BONOUA", "ADM3_PCODE": "CI300302", "ADM4_FR": "BONOUA", "ADM4_PCODE": "C1451", "centerLat": 5.27193, "centerLng": -3.59476, "pop": 38135}, "id": 23}, {"type": "Feature", "geometry": {"coordinates": [-5.75132, 6.98414], "type": "Point"}, "properties": {"ADM0_FR": "SASSANDRA-MARAHOUE", "ADM0_PCODE": "CI10", "ADM1_FR": "MARAHOUE", "ADM1_PCODE": "CI123", "ADM2_FR": "BOUAFLE", "ADM2_PCODE": "CI2301", "ADM3_FR": "BOUAFLE", "ADM3_PCODE": "CI230103", "ADM4_FR": "BOUAFL\u00c9", "ADM4_PCODE": "C1503", "centerLat": 6.98414, "centerLng": -5.75132, "pop": 80389}, "id": 24}, {"type": "Feature", "geometry": {"coordinates": [-5.02961, 7.68791], "type": "Point"}, "properties": {"ADM0_FR": "VALLEE DU BANDAMA", "ADM0_PCODE": "CI12", "ADM1_FR": "GBEKE", "ADM1_PCODE": "CI111", "ADM2_FR": "BOUAKE", "ADM2_PCODE": "CI1103", "ADM3_FR": "BOUAKE", "ADM3_PCODE": "CI110301", "ADM4_FR": "BOUAK\u00c9", "ADM4_PCODE": "C1507", "centerLat": 7.68791, "centerLng": -5.02961, "pop": 536719}, "id": 25}, {"type": "Feature", "geometry": {"coordinates": [-2.99909, 9.26864], "type": "Point"}, "properties": {"ADM0_FR": "ZANZAN", "ADM0_PCODE": "CI14", "ADM1_FR": "BOUNKANI", "ADM1_PCODE": "CI108", "ADM2_FR": "BOUNA", "ADM2_PCODE": "CI0801", "ADM3_FR": "BOUNA", "ADM3_PCODE": "CI080102", "ADM4_FR": "BOUNA", "ADM4_PCODE": "C1550", "centerLat": 9.26864, "centerLng": -2.99909, "pop": 18755}, "id": 26}, {"type": "Feature", "geometry": {"coordinates": [-6.48411, 9.52143], "type": "Point"}, "properties": {"ADM0_FR": "SAVANES", "ADM0_PCODE": "CI11", "ADM1_FR": "BAGOUE", "ADM1_PCODE": "CI105", "ADM2_FR": "BOUNDIALI", "ADM2_PCODE": "CI0501", "ADM3_FR": "BOUNDIALI", "ADM3_PCODE": "CI050102", "ADM4_FR": "BOUNDIALI", "ADM4_PCODE": "C1557", "centerLat": 9.52143, "centerLng": -6.48411, "pop": 39962}, "id": 27}, {"type": "Feature", "geometry": {"coordinates": [-4.38208, 5.32271], "type": "Point"}, "properties": {"ADM0_FR": "LAGUNES", "ADM0_PCODE": "CI08", "ADM1_FR": "GRANDS-PONTS", "ADM1_PCODE": "CI115", "ADM2_FR": "DABOU", "ADM2_PCODE": "CI1501", "ADM3_FR": "DABOU", "ADM3_PCODE": "CI150101", "ADM4_FR": "DABOU", "ADM4_PCODE": "C1708", "centerLat": 5.32271, "centerLng": -4.38208, "pop": 61942}, "id": 28}, {"type": "Feature", "geometry": {"coordinates": [-6.4486, 6.88815], "type": "Point"}, "properties": {"ADM0_FR": "SASSANDRA-MARAHOUE", "ADM0_PCODE": "CI10", "ADM1_FR": "HAUT-SASSANDRA", "ADM1_PCODE": "CI118", "ADM2_FR": "DALOA", "ADM2_PCODE": "CI1801", "ADM3_FR": "DALOA", "ADM3_PCODE": "CI180102", "ADM4_FR": "DALOA", "ADM4_PCODE": "C1779", "centerLat": 6.88815, "centerLng": -6.4486, "pop": 245360}, "id": 29}, {"type": "Feature", "geometry": {"coordinates": [-8.16032, 7.26075], "type": "Point"}, "properties": {"ADM0_FR": "MONTAGNES", "ADM0_PCODE": "CI09", "ADM1_FR": "TONKPI", "ADM1_PCODE": "CI132", "ADM2_FR": "DANANE", "ADM2_PCODE": "CI3202", "ADM3_FR": "DANANE", "ADM3_PCODE": "CI320202", "ADM4_FR": "DANAN\u00c9", "ADM4_PCODE": "C1791", "centerLat": 7.26075, "centerLng": -8.16032, "pop": 60645}, "id": 30}, {"type": "Feature", "geometry": {"coordinates": [-5.35702, 5.83833], "type": "Point"}, "properties": {"ADM0_FR": "GOH-DJIBOUA", "ADM0_PCODE": "CI06", "ADM1_FR": "LOH-DJIBOUA", "ADM1_PCODE": "CI122", "ADM2_FR": "DIVO", "ADM2_PCODE": "CI2201", "ADM3_FR": "DIVO", "ADM3_PCODE": "CI220103", "ADM4_FR": "DIVO", "ADM4_PCODE": "C2117", "centerLat": 5.83833, "centerLng": -5.35702, "pop": 105397}, "id": 31}, {"type": "Feature", "geometry": {"coordinates": [-7.58178, 4.87959], "type": "Point"}, "properties": {"ADM0_FR": "BAS-SASSANDRA", "ADM0_PCODE": "CI01", "ADM1_FR": "SAN-PEDRO", "ADM1_PCODE": "CI129", "ADM2_FR": "TABOU", "ADM2_PCODE": "CI2902", "ADM3_FR": "GRABO", "ADM3_PCODE": "CI290205", "ADM4_FR": "DJIMAN\u00c9", "ADM4_PCODE": "C2210", "centerLat": 4.87959, "centerLng": -7.58178, "pop": 103}, "id": 32}, {"type": "Feature", "geometry": {"coordinates": [-7.37694, 7.38819], "type": "Point"}, "properties": {"ADM0_FR": "MONTAGNES", "ADM0_PCODE": "CI09", "ADM1_FR": "GUEMON", "ADM1_PCODE": "CI116", "ADM2_FR": "FACOBLY", "ADM2_PCODE": "CI1603", "ADM3_FR": "FACOBLY", "ADM3_PCODE": "CI160301", "ADM4_FR": "FACOBLY", "ADM4_PCODE": "C2527", "centerLat": 7.38819, "centerLng": -7.37694, "pop": 4536}, "id": 33}, {"type": "Feature", "geometry": {"coordinates": [-5.19762, 9.59226], "type": "Point"}, "properties": {"ADM0_FR": "SAVANES", "ADM0_PCODE": "CI11", "ADM1_FR": "TCHOLOGO", "ADM1_PCODE": "CI131", "ADM2_FR": "FERKESSEDOUGOU", "ADM2_PCODE": "CI3101", "ADM3_FR": "FERKESSEDOUGOU", "ADM3_PCODE": "CI310101", "ADM4_FR": "FERKESS\u00c9DOUGOU", "ADM4_PCODE": "C2603", "centerLat": 9.59226, "centerLng": -5.19762, "pop": 55910}, "id": 34}, {"type": "Feature", "geometry": {"coordinates": [-5.06354, 7.98253], "type": "Point"}, "properties": {"ADM0_FR": "VALLEE DU BANDAMA", "ADM0_PCODE": "CI12", "ADM1_FR": "HAMBOL", "ADM1_PCODE": "CI117", "ADM2_FR": "KATIOLA", "ADM2_PCODE": "CI1702", "ADM3_FR": "KATIOLA", "ADM3_PCODE": "CI170201", "ADM4_FR": "FORO-FORO", "ADM4_PCODE": "C2667", "centerLat": 7.98253, "centerLng": -5.06354, "pop": 1091}, "id": 35}, {"type": "Feature", "geometry": {"coordinates": [-5.58651, 5.10559], "type": "Point"}, "properties": {"ADM0_FR": "BAS-SASSANDRA", "ADM0_PCODE": "CI01", "ADM1_FR": "GBOKLE", "ADM1_PCODE": "CI112", "ADM2_FR": "FRESCO", "ADM2_PCODE": "CI1201", "ADM3_FR": "FRESCO", "ADM3_PCODE": "CI120102", "ADM4_FR": "FRESCO", "ADM4_PCODE": "C2691", "centerLat": 5.10559, "centerLng": -5.58651, "pop": 8533}, "id": 36}, {"type": "Feature", "geometry": {"coordinates": [-5.94436, 6.12836], "type": "Point"}, "properties": {"ADM0_FR": "GOH-DJIBOUA", "ADM0_PCODE": "CI06", "ADM1_FR": "GOH", "ADM1_PCODE": "CI113", "ADM2_FR": "GAGNOA", "ADM2_PCODE": "CI1301", "ADM3_FR": "GAGNOA", "ADM3_PCODE": "CI130106", "ADM4_FR": "GAGNOA", "ADM4_PCODE": "C2707", "centerLat": 6.12836, "centerLng": -5.94436, "pop": 160465}, "id": 37}, {"type": "Feature", "geometry": {"coordinates": [-4.442165, 5.724871], "type": "Point"}, "properties": {"ADM0_FR": "LAGUNES", "ADM0_PCODE": "CI08", "ADM1_FR": "AGNEBY-TIASSA", "ADM1_PCODE": "CI103", "ADM2_FR": "SIKENSI", "ADM2_PCODE": "CI0302", "ADM3_FR": "GOMON", "ADM3_PCODE": "CI030202", "ADM4_FR": "GOMON I", "ADM4_PCODE": "C3231", "centerLat": 5.724871, "centerLng": -4.442165, "pop": 9843}, "id": 38}, {"type": "Feature", "geometry": {"coordinates": [-5.00208, 5.24919], "type": "Point"}, "properties": {"ADM0_FR": "LAGUNES", "ADM0_PCODE": "CI08", "ADM1_FR": "GRANDS-PONTS", "ADM1_PCODE": "CI115", "ADM2_FR": "GRAND-LAHOU", "ADM2_PCODE": "CI1502", "ADM3_FR": "GRAND-LAHOU", "ADM3_PCODE": "CI150204", "ADM4_FR": "GRAND-LAHOU", "ADM4_PCODE": "C3376", "centerLat": 5.24919, "centerLng": -5.00208, "pop": 28470}, "id": 39}, {"type": "Feature", "geometry": {"coordinates": [-7.48625, 6.54472], "type": "Point"}, "properties": {"ADM0_FR": "MONTAGNES", "ADM0_PCODE": "CI09", "ADM1_FR": "CAVALLY", "ADM1_PCODE": "CI109", "ADM2_FR": "GUIGLO", "ADM2_PCODE": "CI0902", "ADM3_FR": "GUIGLO", "ADM3_PCODE": "CI090201", "ADM4_FR": "GUIGLO", "ADM4_PCODE": "C3495", "centerLat": 6.54472, "centerLng": -7.48625, "pop": 52544}, "id": 40}, {"type": "Feature", "geometry": {"coordinates": [-5.24131, 5.51964], "type": "Point"}, "properties": {"ADM0_FR": "GOH-DJIBOUA", "ADM0_PCODE": "CI06", "ADM1_FR": "LOH-DJIBOUA", "ADM1_PCODE": "CI122", "ADM2_FR": "GUITRY", "ADM2_PCODE": "CI2202", "ADM3_FR": "GUITRY", "ADM3_PCODE": "CI220201", "ADM4_FR": "GUITRY", "ADM4_PCODE": "C3525", "centerLat": 5.51964, "centerLng": -5.24131, "pop": 11445}, "id": 41}, {"type": "Feature", "geometry": {"coordinates": [-4.41967, 5.20547], "type": "Point"}, "properties": {"ADM0_FR": "LAGUNES", "ADM0_PCODE": "CI08", "ADM1_FR": "GRANDS-PONTS", "ADM1_PCODE": "CI115", "ADM2_FR": "JACQUEVILLE", "ADM2_PCODE": "CI1503", "ADM3_FR": "JACQUEVILLE", "ADM3_PCODE": "CI150301", "ADM4_FR": "JACQUEVILLE", "ADM4_PCODE": "C3604", "centerLat": 5.20547, "centerLng": -4.41967, "pop": 11096}, "id": 42}, {"type": "Feature", "geometry": {"coordinates": [-7.51257, 9.81604], "type": "Point"}, "properties": {"ADM0_FR": "DENGUELE", "ADM0_PCODE": "CI03", "ADM1_FR": "FOLON", "ADM1_PCODE": "CI110", "ADM2_FR": "KANIASSO", "ADM2_PCODE": "CI1001", "ADM3_FR": "KANIASSO", "ADM3_PCODE": "CI100102", "ADM4_FR": "KANIASSO", "ADM4_PCODE": "C3788", "centerLat": 9.81604, "centerLng": -7.51257, "pop": 2545}, "id": 43}, {"type": "Feature", "geometry": {"coordinates": [-6.60449, 8.47952], "type": "Point"}, "properties": {"ADM0_FR": "WOROBA", "ADM0_PCODE": "CI13", "ADM1_FR": "WORODOUGOU", "ADM1_PCODE": "CI133", "ADM2_FR": "KANI", "ADM2_PCODE": "CI3301", "ADM3_FR": "KANI", "ADM3_PCODE": "CI330101", "ADM4_FR": "KANI", "ADM4_PCODE": "C3786", "centerLat": 8.47952, "centerLng": -6.60449, "pop": 8908}, "id": 44}, {"type": "Feature", "geometry": {"coordinates": [-5.10206, 8.13861], "type": "Point"}, "properties": {"ADM0_FR": "VALLEE DU BANDAMA", "ADM0_PCODE": "CI12", "ADM1_FR": "HAMBOL", "ADM1_PCODE": "CI117", "ADM2_FR": "KATIOLA", "ADM2_PCODE": "CI1702", "ADM3_FR": "KATIOLA", "ADM3_PCODE": "CI170201", "ADM4_FR": "KATIOLA", "ADM4_PCODE": "C3915", "centerLat": 8.13861, "centerLng": -5.10206, "pop": 40319}, "id": 45}, {"type": "Feature", "geometry": {"coordinates": [-6.07949, 7.81589], "type": "Point"}, "properties": {"ADM0_FR": "WOROBA", "ADM0_PCODE": "CI13", "ADM1_FR": "BERE", "ADM1_PCODE": "CI107", "ADM2_FR": "KOUNAHIRI", "ADM2_PCODE": "CI0702", "ADM3_FR": "KONGASSO", "ADM3_PCODE": "CI070202", "ADM4_FR": "KONGASSO", "ADM4_PCODE": "C4327", "centerLat": 7.81589, "centerLng": -6.07949, "pop": 4714}, "id": 46}, {"type": "Feature", "geometry": {"coordinates": [-5.6375, 9.45799], "type": "Point"}, "properties": {"ADM0_FR": "SAVANES", "ADM0_PCODE": "CI11", "ADM1_FR": "PORO", "ADM1_PCODE": "CI128", "ADM2_FR": "KORHOGO", "ADM2_PCODE": "CI2802", "ADM3_FR": "KORHOGO", "ADM3_PCODE": "CI280201", "ADM4_FR": "KORHOGO", "ADM4_PCODE": "C4410", "centerLat": 9.45799, "centerLng": -5.6375, "pop": 243048}, "id": 47}, {"type": "Feature", "geometry": {"coordinates": [-7.61, 9.62], "type": "Point"}, "properties": {"ADM0_FR": "DENGUELE", "ADM0_PCODE": "CI03", "ADM1_FR": "KABADOUGOU", "ADM1_PCODE": "CI121", "ADM2_FR": "SAMATIGUILA", "ADM2_PCODE": "CI2104", "ADM3_FR": "KIMBIRILA-SUD", "ADM3_PCODE": "CI210402", "ADM4_FR": "KOTOUBA", "ADM4_PCODE": "C4479", "centerLat": 9.62, "centerLng": -7.61, "pop": 554}, "id": 48}, {"type": "Feature", "geometry": {"coordinates": [-5.70343, 6.20895], "type": "Point"}, "properties": {"ADM0_FR": "GOH-DJIBOUA", "ADM0_PCODE": "CI06", "ADM1_FR": "GOH", "ADM1_PCODE": "CI113", "ADM2_FR": "OUME", "ADM2_PCODE": "CI1302", "ADM3_FR": "DIEGONEFLA", "ADM3_PCODE": "CI130202", "ADM4_FR": "LAHOUDA", "ADM4_PCODE": "C4967", "centerLat": 6.20895, "centerLng": -5.70343, "pop": 5454}, "id": 49}, {"type": "Feature", "geometry": {"coordinates": [-5.68383, 5.84907], "type": "Point"}, "properties": {"ADM0_FR": "GOH-DJIBOUA", "ADM0_PCODE": "CI06", "ADM1_FR": "LOH-DJIBOUA", "ADM1_PCODE": "CI122", "ADM2_FR": "LAKOTA", "ADM2_PCODE": "CI2203", "ADM3_FR": "LAKOTA", "ADM3_PCODE": "CI220301", "ADM4_FR": "LAKOTA", "ADM4_PCODE": "C4974", "centerLat": 5.84907, "centerLng": -5.68383, "pop": 24976}, "id": 50}, {"type": "Feature", "geometry": {"coordinates": [-3.03, 5.42], "type": "Point"}, "properties": {"ADM0_FR": "COMOE", "ADM0_PCODE": "CI02", "ADM1_FR": "SUD-COMOE", "ADM1_PCODE": "CI130", "ADM2_FR": "ABOISSO", "ADM2_PCODE": "CI3001", "ADM3_FR": "MAFERE", "ADM3_PCODE": "CI300107", "ADM4_FR": "MAF\u00c9R\u00c9", "ADM4_PCODE": "C5260", "centerLat": 5.42, "centerLng": -3.03, "pop": 13121}, "id": 51}, {"type": "Feature", "geometry": {"coordinates": [-7.55442, 7.40545], "type": "Point"}, "properties": {"ADM0_FR": "MONTAGNES", "ADM0_PCODE": "CI09", "ADM1_FR": "TONKPI", "ADM1_PCODE": "CI132", "ADM2_FR": "MAN", "ADM2_PCODE": "CI3203", "ADM3_FR": "MAN", "ADM3_PCODE": "CI320301", "ADM4_FR": "MAN", "ADM4_PCODE": "C5323", "centerLat": 7.40545, "centerLng": -7.55442, "pop": 149041}, "id": 52}, {"type": "Feature", "geometry": {"coordinates": [-4.34, 7.46], "type": "Point"}, "properties": {"ADM0_FR": "LACS", "ADM0_PCODE": "CI07", "ADM1_FR": "IFFOU", "ADM1_PCODE": "CI119", "ADM2_FR": "M'BAHIAKRO", "ADM2_PCODE": "CI1902", "ADM3_FR": "M'BAHIAKRO", "ADM3_PCODE": "CI190201", "ADM4_FR": "M'BAHIAKRO", "ADM4_PCODE": "C5412", "centerLat": 7.46, "centerLng": -4.34, "pop": 14894}, "id": 53}, {"type": "Feature", "geometry": {"coordinates": [-4.9718, 6.32154], "type": "Point"}, "properties": {"ADM0_FR": "LACS", "ADM0_PCODE": "CI07", "ADM1_FR": "BELIER", "ADM1_PCODE": "CI106", "ADM2_FR": "TOUMODI", "ADM2_PCODE": "CI0604", "ADM3_FR": "KPOUEBO", "ADM3_PCODE": "CI060404", "ADM4_FR": "MORONOU", "ADM4_PCODE": "C5589", "centerLat": 6.32154, "centerLng": -4.9718, "pop": 4642}, "id": 54}, {"type": "Feature", "geometry": {"coordinates": [-4.76, 5.87], "type": "Point"}, "properties": {"ADM0_FR": "LAGUNES", "ADM0_PCODE": "CI08", "ADM1_FR": "AGNEBY-TIASSA", "ADM1_PCODE": "CI103", "ADM2_FR": "TIASSALE", "ADM2_PCODE": "CI0304", "ADM3_FR": "N'DOUCI", "ADM3_PCODE": "CI030404", "ADM4_FR": "N'DOUCI", "ADM4_PCODE": "C5846", "centerLat": 5.87, "centerLng": -4.76, "pop": 27112}, "id": 55}, {"type": "Feature", "geometry": {"coordinates": [-7.56213, 9.50687], "type": "Point"}, "properties": {"ADM0_FR": "DENGUELE", "ADM0_PCODE": "CI03", "ADM1_FR": "KABADOUGOU", "ADM1_PCODE": "CI121", "ADM2_FR": "ODIENNE", "ADM2_PCODE": "CI2103", "ADM3_FR": "ODIENNE", "ADM3_PCODE": "CI210301", "ADM4_FR": "ODIENNE", "ADM4_PCODE": "C6210", "centerLat": 9.50687, "centerLng": -7.56213, "pop": 42173}, "id": 56}, {"type": "Feature", "geometry": {"coordinates": [-5.41528, 6.3835], "type": "Point"}, "properties": {"ADM0_FR": "GOH-DJIBOUA", "ADM0_PCODE": "CI06", "ADM1_FR": "GOH", "ADM1_PCODE": "CI113", "ADM2_FR": "OUME", "ADM2_PCODE": "CI1302", "ADM3_FR": "OUME", "ADM3_PCODE": "CI130201", "ADM4_FR": "OUM\u00c9", "ADM4_PCODE": "C6363", "centerLat": 6.3835, "centerLng": -5.41528, "pop": 45210}, "id": 57}, {"type": "Feature", "geometry": {"coordinates": [-6.59, 5.57], "type": "Point"}, "properties": {"ADM0_FR": "BAS-SASSANDRA", "ADM0_PCODE": "CI01", "ADM1_FR": "NAWA", "ADM1_PCODE": "CI126", "ADM2_FR": "MEAGUI", "ADM2_PCODE": "CI2603", "ADM3_FR": "OUPOYO", "ADM3_PCODE": "CI260302", "ADM4_FR": "OUPOYO", "ADM4_PCODE": "C6379", "centerLat": 5.57, "centerLng": -6.59, "pop": 18386}, "id": 58}, {"type": "Feature", "geometry": {"coordinates": [-4.79408, 7.63566], "type": "Point"}, "properties": {"ADM0_FR": "VALLEE DU BANDAMA", "ADM0_PCODE": "CI12", "ADM1_FR": "GBEKE", "ADM1_PCODE": "CI111", "ADM2_FR": "BOUAKE", "ADM2_PCODE": "CI1103", "ADM3_FR": "BROBO", "ADM3_PCODE": "CI110303", "ADM4_FR": "PRIKRO", "ADM4_PCODE": "C6643", "centerLat": 7.63566, "centerLng": -4.79408, "pop": 257}, "id": 59}, {"type": "Feature", "geometry": {"coordinates": [-5.29194, 7.4558], "type": "Point"}, "properties": {"ADM0_FR": "VALLEE DU BANDAMA", "ADM0_PCODE": "CI12", "ADM1_FR": "GBEKE", "ADM1_PCODE": "CI111", "ADM2_FR": "SAKASSOU", "ADM2_PCODE": "CI1104", "ADM3_FR": "SAKASSOU", "ADM3_PCODE": "CI110401", "ADM4_FR": "SAKASSOU", "ADM4_PCODE": "C6712", "centerLat": 7.4558, "centerLng": -5.29194, "pop": 13186}, "id": 60}, {"type": "Feature", "geometry": {"coordinates": [-6.61973, 4.73809], "type": "Point"}, "properties": {"ADM0_FR": "BAS-SASSANDRA", "ADM0_PCODE": "CI01", "ADM1_FR": "SAN-PEDRO", "ADM1_PCODE": "CI129", "ADM2_FR": "SAN-PEDRO", "ADM2_PCODE": "CI2901", "ADM3_FR": "SAN-PEDRO", "ADM3_PCODE": "CI290101", "ADM4_FR": "SAN-PEDRO", "ADM4_PCODE": "C6807", "centerLat": 4.73809, "centerLng": -6.61973, "pop": 164944}, "id": 61}, {"type": "Feature", "geometry": {"coordinates": [-6.67313, 7.96253], "type": "Point"}, "properties": {"ADM0_FR": "WOROBA", "ADM0_PCODE": "CI13", "ADM1_FR": "WORODOUGOU", "ADM1_PCODE": "CI133", "ADM2_FR": "SEGUELA", "ADM2_PCODE": "CI3302", "ADM3_FR": "SEGUELA", "ADM3_PCODE": "CI330201", "ADM4_FR": "S\u00c9GU\u00c9LA", "ADM4_PCODE": "C6882", "centerLat": 7.96253, "centerLng": -6.67313, "pop": 46189}, "id": 62}, {"type": "Feature", "geometry": {"coordinates": [-6.92876, 7.98425], "type": "Point"}, "properties": {"ADM0_FR": "WOROBA", "ADM0_PCODE": "CI13", "ADM1_FR": "WORODOUGOU", "ADM1_PCODE": "CI133", "ADM2_FR": "SEGUELA", "ADM2_PCODE": "CI3302", "ADM3_FR": "SIFIE", "ADM3_PCODE": "CI330206", "ADM4_FR": "SIFI\u00c9", "ADM4_PCODE": "C7012", "centerLat": 7.98425, "centerLng": -6.92876, "pop": 3142}, "id": 63}, {"type": "Feature", "geometry": {"coordinates": [-6.59, 5.78], "type": "Point"}, "properties": {"ADM0_FR": "COMOE", "ADM0_PCODE": "CI02", "ADM1_FR": "SUD-COMOE", "ADM1_PCODE": "CI130", "ADM2_FR": "ABOISSO", "ADM2_PCODE": "CI3001", "ADM3_FR": "BIANOUAN", "ADM3_PCODE": "CI300105", "ADM4_FR": "SOUBR\u00c9", "ADM4_PCODE": "C7241", "centerLat": 5.78, "centerLng": -6.59, "pop": 1421}, "id": 64}, {"type": "Feature", "geometry": {"coordinates": [-5.16212, 9.07022], "type": "Point"}, "properties": {"ADM0_FR": "VALLEE DU BANDAMA", "ADM0_PCODE": "CI12", "ADM1_FR": "HAMBOL", "ADM1_PCODE": "CI117", "ADM2_FR": "NIAKARAMADOUGOU", "ADM2_PCODE": "CI1703", "ADM3_FR": "TAFIRE", "ADM3_PCODE": "CI170305", "ADM4_FR": "TAFIRE", "ADM4_PCODE": "C7314", "centerLat": 9.07022, "centerLng": -5.16212, "pop": 17191}, "id": 65}, {"type": "Feature", "geometry": {"coordinates": [-4.66225, 7.71436], "type": "Point"}, "properties": {"ADM0_FR": "LACS", "ADM0_PCODE": "CI07", "ADM1_FR": "BELIER", "ADM1_PCODE": "CI106", "ADM2_FR": "TIEBISSOU", "ADM2_PCODE": "CI0603", "ADM3_FR": "TIEBISSOU", "ADM3_PCODE": "CI060301", "ADM4_FR": "TI\u00c9BISSOU", "ADM4_PCODE": "C7574", "centerLat": 7.71436, "centerLng": -4.66225, "pop": 18832}, "id": 66}, {"type": "Feature", "geometry": {"coordinates": [-7.31834, 9.54501], "type": "Point"}, "properties": {"ADM0_FR": "DENGUELE", "ADM0_PCODE": "CI03", "ADM1_FR": "KABADOUGOU", "ADM1_PCODE": "CI121", "ADM2_FR": "ODIENNE", "ADM2_PCODE": "CI2103", "ADM3_FR": "TIEME", "ADM3_PCODE": "CI210305", "ADM4_FR": "TIEME", "ADM4_PCODE": "C7613", "centerLat": 9.54501, "centerLng": -7.31834, "pop": 6267}, "id": 67}, {"type": "Feature", "geometry": {"coordinates": [-7.68063, 8.28504], "type": "Point"}, "properties": {"ADM0_FR": "WOROBA", "ADM0_PCODE": "CI13", "ADM1_FR": "BAFING", "ADM1_PCODE": "CI104", "ADM2_FR": "TOUBA", "ADM2_PCODE": "CI0403", "ADM3_FR": "TOUBA", "ADM3_PCODE": "CI040301", "ADM4_FR": "TOUBA", "ADM4_PCODE": "C7832", "centerLat": 8.28504, "centerLng": -7.68063, "pop": 22361}, "id": 68}, {"type": "Feature", "geometry": {"coordinates": [-5.01819, 6.56024], "type": "Point"}, "properties": {"ADM0_FR": "LACS", "ADM0_PCODE": "CI07", "ADM1_FR": "BELIER", "ADM1_PCODE": "CI106", "ADM2_FR": "TOUMODI", "ADM2_PCODE": "CI0604", "ADM3_FR": "TOUMODI", "ADM3_PCODE": "CI060401", "ADM4_FR": "TOUMODI", "ADM4_PCODE": "C7862", "centerLat": 6.56024, "centerLng": -5.01819, "pop": 43189}, "id": 69}, {"type": "Feature", "geometry": {"coordinates": [-3.01429, 7.54954], "type": "Point"}, "properties": {"ADM0_FR": "ZANZAN", "ADM0_PCODE": "CI14", "ADM1_FR": "GONTOUGO", "ADM1_PCODE": "CI114", "ADM2_FR": "TRANSUA", "ADM2_PCODE": "CI1405", "ADM3_FR": "TRANSUA", "ADM3_PCODE": "CI140501", "ADM4_FR": "TRANSUA", "ADM4_PCODE": "C7911", "centerLat": 7.54954, "centerLng": -3.01429, "pop": 4114}, "id": 70}, {"type": "Feature", "geometry": {"coordinates": [-5.27786, 6.81819], "type": "Point"}, "properties": {"ADM0_FR": "DISTRICT AUTONOME DE YAMOUSSOUKRO", "ADM0_PCODE": "CI05", "ADM1_FR": "DISTRICT AUTONOME DE YAMOUSSOUKRO", "ADM1_PCODE": "CI102", "ADM2_FR": "YAMOUSSOUKRO", "ADM2_PCODE": "CI0202", "ADM3_FR": "YAMOUSSOUKRO", "ADM3_PCODE": "CI020201", "ADM4_FR": "YAMOUSSOUKRO", "ADM4_PCODE": "C8092", "centerLat": 6.81819, "centerLng": -5.27786, "pop": 212670}, "id": 71}]}