{
  "type": "FeatureCollection",
  "features": [
    {
      "type": "Feature",
      "geometry": {
        "coordinates": [
          -4.01585,
          5.44515
        ],
        "type": "Point"
      },
      "properties": {
        "ADM0_FR": "DISTRICT AUTONOME D'ABIDJAN",
        "ADM0_PCODE": "CI04",
        "ADM1_FR": "DISTRICT AUTONOME D'ABIDJAN",
        "ADM1_PCODE": "CI101",
        "ADM2_FR": "ABIDJAN",
        "ADM2_PCODE": "CI0101",
        "ADM3_FR": "ABIDJAN",
        "ADM3_PCODE": "CI010101",
        "ADM4_FR": "ABOBO",
        "ADM4_PCODE": "C0029",
        "centerLat": 5.43515,
        "centerLng": -4.01585,
        "pop": 1030658,
        "Te_MOOV": 7.64,
        "Tbd_MOOV": 8.799999999999999,
        "Tc_MOOV": 17.61,
        "Tq_MOOV": 4.19,
        "Te_MTN": 6.34,
        "Tbd_MTN": 31.419999999999998,
        "Tc_MTN": 0.35000000000000003,
        "Tq_MTN": 3.65,
        "Te_ORANGE": 11.85,
        "Tbd_ORANGE": 48.07,
        "Tc_ORANGE": 45.300000000000004,
        "Tq_ORANGE": 1.79,
        "rang_Te_ORANGE": 3,
        "rang_Te_MTN": 1,
        "rang_Te_MOOV": 2,
        "rang_Tc_ORANGE": 3,
        "rang_Tc_MTN": 1,
        "rang_Tc_MOOV": 2,
        "rang_Tbd_ORANGE": 1,
        "rang_Tbd_MTN": 2,
        "rang_Tbd_MOOV": 3,
        "rang_Tq_ORANGE": 1,
        "rang_Tq_MTN": 2,
        "rang_Tq_MOOV": 3
      },
      "id": 1
    },
    {
      "type": "Feature",
      "geometry": {
        "coordinates": [
          -4.01988,
          5.38187
        ],
        "type": "Point"
      },
      "properties": {
        "ADM0_FR": "DISTRICT AUTONOME D'ABIDJAN",
        "ADM0_PCODE": "CI04",
        "ADM1_FR": "DISTRICT AUTONOME D'ABIDJAN",
        "ADM1_PCODE": "CI101",
        "ADM2_FR": "ABIDJAN",
        "ADM2_PCODE": "CI0101",
        "ADM3_FR": "ABIDJAN",
        "ADM3_PCODE": "CI010101",
        "ADM4_FR": "ADJAME",
        "ADM4_PCODE": "C0133",
        "centerLat": 5.37187,
        "centerLng": -4.01988,
        "pop": 372978,
        "Te_MOOV": 5.949999999999999,
        "Tbd_MOOV": 12.85,
        "Tc_MOOV": 16.6,
        "Tq_MOOV": 5.64,
        "Te_MTN": 4.07,
        "Tbd_MTN": 33.2,
        "Tc_MTN": 0.0,
        "Tq_MTN": 4.99,
        "Te_ORANGE": 5.0,
        "Tbd_ORANGE": 59.45,
        "Tc_ORANGE": 26.71,
        "Tq_ORANGE": 3.34,
        "rang_Te_ORANGE": 2,
        "rang_Te_MTN": 1,
        "rang_Te_MOOV": 3,
        "rang_Tc_ORANGE": 3,
        "rang_Tc_MTN": 1,
        "rang_Tc_MOOV": 2,
        "rang_Tbd_ORANGE": 1,
        "rang_Tbd_MTN": 2,
        "rang_Tbd_MOOV": 3,
        "rang_Tq_ORANGE": 1,
        "rang_Tq_MTN": 2,
        "rang_Tq_MOOV": 3
      },
      "id": 2
    },
    {
      "type": "Feature",
      "geometry": {
        "coordinates": [
          -4.05488,
          5.504659999999999
        ],
        "type": "Point"
      },
      "properties": {
        "ADM0_FR": "DISTRICT AUTONOME D'ABIDJAN",
        "ADM0_PCODE": "CI04",
        "ADM1_FR": "DISTRICT AUTONOME D'ABIDJAN",
        "ADM1_PCODE": "CI101",
        "ADM2_FR": "ABIDJAN",
        "ADM2_PCODE": "CI0101",
        "ADM3_FR": "ANYAMA",
        "ADM3_PCODE": "CI010102",
        "ADM4_FR": "ANYAMA",
        "ADM4_PCODE": "C0570",
        "centerLat": 5.49466,
        "centerLng": -4.05488,
        "pop": 103297,
        "Te_MOOV": 12.790000000000001,
        "Tbd_MOOV": 18.85,
        "Tc_MOOV": 13.61,
        "Tq_MOOV": 3.74,
        "Te_MTN": 9.84,
        "Tbd_MTN": 36.29,
        "Tc_MTN": 0.51,
        "Tq_MTN": 6.23,
        "Te_ORANGE": 12.42,
        "Tbd_ORANGE": 54.120000000000005,
        "Tc_ORANGE": 35.57,
        "Tq_ORANGE": 2.0500000000000003,
        "rang_Te_ORANGE": 2,
        "rang_Te_MTN": 1,
        "rang_Te_MOOV": 3,
        "rang_Tc_ORANGE": 3,
        "rang_Tc_MTN": 1,
        "rang_Tc_MOOV": 2,
        "rang_Tbd_ORANGE": 1,
        "rang_Tbd_MTN": 2,
        "rang_Tbd_MOOV": 3,
        "rang_Tq_ORANGE": 1,
        "rang_Tq_MTN": 3,
        "rang_Tq_MOOV": 2
      },
      "id": 3
    },
    {
      "type": "Feature",
      "geometry": {
        "coordinates": [
          -4.05198,
          5.392189999999999
        ],
        "type": "Point"
      },
      "properties": {
        "ADM0_FR": "DISTRICT AUTONOME D'ABIDJAN",
        "ADM0_PCODE": "CI04",
        "ADM1_FR": "DISTRICT AUTONOME D'ABIDJAN",
        "ADM1_PCODE": "CI101",
        "ADM2_FR": "ABIDJAN",
        "ADM2_PCODE": "CI0101",
        "ADM3_FR": "ABIDJAN",
        "ADM3_PCODE": "CI010101",
        "ADM4_FR": "ATTECOUBE",
        "ADM4_PCODE": "C0734",
        "centerLat": 5.38219,
        "centerLng": -4.05198,
        "pop": 260911,
        "Te_MOOV": 20.66,
        "Tbd_MOOV": 18.43,
        "Tc_MOOV": 14.249999999999998,
        "Tq_MOOV": 11.63,
        "Te_MTN": 18.3,
        "Tbd_MTN": 33.25,
        "Tc_MTN": 0.9400000000000001,
        "Tq_MTN": 6.9,
        "Te_ORANGE": 21.86,
        "Tbd_ORANGE": 31.14,
        "Tc_ORANGE": 34.55,
        "Tq_ORANGE": 2.02,
        "rang_Te_ORANGE": 3,
        "rang_Te_MTN": 1,
        "rang_Te_MOOV": 2,
        "rang_Tc_ORANGE": 3,
        "rang_Tc_MTN": 1,
        "rang_Tc_MOOV": 2,
        "rang_Tbd_ORANGE": 2,
        "rang_Tbd_MTN": 1,
        "rang_Tbd_MOOV": 3,
        "rang_Tq_ORANGE": 1,
        "rang_Tq_MTN": 2,
        "rang_Tq_MOOV": 3
      },
      "id": 4
    },
    {
      "type": "Feature",
      "geometry": {
        "coordinates": [
          -3.89704,
          5.369
        ],
        "type": "Point"
      },
      "properties": {
        "ADM0_FR": "DISTRICT AUTONOME D'ABIDJAN",
        "ADM0_PCODE": "CI04",
        "ADM1_FR": "DISTRICT AUTONOME D'ABIDJAN",
        "ADM1_PCODE": "CI101",
        "ADM2_FR": "ABIDJAN",
        "ADM2_PCODE": "CI0101",
        "ADM3_FR": "BINGERVILLE",
        "ADM3_PCODE": "CI010103",
        "ADM4_FR": "BINGERVILLE",
        "ADM4_PCODE": "C1214",
        "centerLat": 5.359,
        "centerLng": -3.89704,
        "pop": 64015,
        "Te_MOOV": 1.91,
        "Tbd_MOOV": 8.3,
        "Tc_MOOV": 13.43,
        "Tq_MOOV": 6.09,
        "Te_MTN": 3.27,
        "Tbd_MTN": 33.4,
        "Tc_MTN": 0.9400000000000001,
        "Tq_MTN": 4.09,
        "Te_ORANGE": 3.01,
        "Tbd_ORANGE": 47.33,
        "Tc_ORANGE": 19.79,
        "Tq_ORANGE": 3.73,
        "rang_Te_ORANGE": 2,
        "rang_Te_MTN": 3,
        "rang_Te_MOOV": 1,
        "rang_Tc_ORANGE": 3,
        "rang_Tc_MTN": 1,
        "rang_Tc_MOOV": 2,
        "rang_Tbd_ORANGE": 1,
        "rang_Tbd_MTN": 2,
        "rang_Tbd_MOOV": 3,
        "rang_Tq_ORANGE": 1,
        "rang_Tq_MTN": 2,
        "rang_Tq_MOOV": 3
      },
      "id": 5
    },
    {
      "type": "Feature",
      "geometry": {
        "coordinates": [
          -3.96089,
          5.383
        ],
        "type": "Point"
      },
      "properties": {
        "ADM0_FR": "DISTRICT AUTONOME D'ABIDJAN",
        "ADM0_PCODE": "CI04",
        "ADM1_FR": "DISTRICT AUTONOME D'ABIDJAN",
        "ADM1_PCODE": "CI101",
        "ADM2_FR": "ABIDJAN",
        "ADM2_PCODE": "CI0101",
        "ADM3_FR": "ABIDJAN",
        "ADM3_PCODE": "CI010101",
        "ADM4_FR": "COCODY",
        "ADM4_PCODE": "C1672",
        "centerLat": 5.373,
        "centerLng": -3.96089,
        "pop": 447055,
        "Te_MOOV": 2.7199999999999998,
        "Tbd_MOOV": 19.41,
        "Tc_MOOV": 28.15,
        "Tq_MOOV": 6.9,
        "Te_MTN": 1.53,
        "Tbd_MTN": 35.92,
        "Tc_MTN": 0.69,
        "Tq_MTN": 4.63,
        "Te_ORANGE": 4.26,
        "Tbd_ORANGE": 45.550000000000004,
        "Tc_ORANGE": 29.720000000000002,
        "Tq_ORANGE": 2.9499999999999997,
        "rang_Te_ORANGE": 3,
        "rang_Te_MTN": 1,
        "rang_Te_MOOV": 2,
        "rang_Tc_ORANGE": 3,
        "rang_Tc_MTN": 1,
        "rang_Tc_MOOV": 2,
        "rang_Tbd_ORANGE": 1,
        "rang_Tbd_MTN": 2,
        "rang_Tbd_MOOV": 3,
        "rang_Tq_ORANGE": 1,
        "rang_Tq_MTN": 2,
        "rang_Tq_MOOV": 3
      },
      "id": 6
    },
    {
      "type": "Feature",
      "geometry": {
        "coordinates": [
          -3.72689,
          5.20266
        ],
        "type": "Point"
      },
      "properties": {
        "ADM0_FR": "COMOE",
        "ADM0_PCODE": "CI02",
        "ADM1_FR": "SUD-COMOE",
        "ADM1_PCODE": "CI130",
        "ADM2_FR": "GRAND-BASSAM",
        "ADM2_PCODE": "CI3003",
        "ADM3_FR": "GRAND-BASSAM",
        "ADM3_PCODE": "CI300303",
        "ADM4_FR": "GRAND-BASSAM",
        "ADM4_PCODE": "C3367",
        "centerLat": 5.19266,
        "centerLng": -3.72689,
        "pop": 74671,
        "Te_MOOV": 5.0200000000000005,
        "Tbd_MOOV": 1.02,
        "Tc_MOOV": 0.61,
        "Tq_MOOV": 11.73,
        "Te_MTN": 2.39,
        "Tbd_MTN": 37.269999999999996,
        "Tc_MTN": 1.22,
        "Tq_MTN": 4.93,
        "Te_ORANGE": 5.46,
        "Tbd_ORANGE": 32.37,
        "Tc_ORANGE": 27.839999999999996,
        "Tq_ORANGE": 2.3,
        "rang_Te_ORANGE": 3,
        "rang_Te_MTN": 1,
        "rang_Te_MOOV": 2,
        "rang_Tc_ORANGE": 3,
        "rang_Tc_MTN": 2,
        "rang_Tc_MOOV": 1,
        "rang_Tbd_ORANGE": 2,
        "rang_Tbd_MTN": 1,
        "rang_Tbd_MOOV": 3,
        "rang_Tq_ORANGE": 1,
        "rang_Tq_MTN": 2,
        "rang_Tq_MOOV": 3
      },
      "id": 7
    },
    {
      "type": "Feature",
      "geometry": {
        "coordinates": [
          -3.94836,
          5.3124899999999995
        ],
        "type": "Point"
      },
      "properties": {
        "ADM0_FR": "DISTRICT AUTONOME D'ABIDJAN",
        "ADM0_PCODE": "CI04",
        "ADM1_FR": "DISTRICT AUTONOME D'ABIDJAN",
        "ADM1_PCODE": "CI101",
        "ADM2_FR": "ABIDJAN",
        "ADM2_PCODE": "CI0101",
        "ADM3_FR": "ABIDJAN",
        "ADM3_PCODE": "CI010101",
        "ADM4_FR": "KOUMASSI",
        "ADM4_PCODE": "C4694",
        "centerLat": 5.30249,
        "centerLng": -3.94836,
        "pop": 433139,
        "Te_MOOV": 6.34,
        "Tbd_MOOV": 17.119999999999997,
        "Tc_MOOV": 16.7,
        "Tq_MOOV": 13.25,
        "Te_MTN": 2.58,
        "Tbd_MTN": 29.799999999999997,
        "Tc_MTN": 0.8200000000000001,
        "Tq_MTN": 4.4799999999999995,
        "Te_ORANGE": 2.98,
        "Tbd_ORANGE": 29.299999999999997,
        "Tc_ORANGE": 24.59,
        "Tq_ORANGE": 1.38,
        "rang_Te_ORANGE": 2,
        "rang_Te_MTN": 1,
        "rang_Te_MOOV": 3,
        "rang_Tc_ORANGE": 3,
        "rang_Tc_MTN": 1,
        "rang_Tc_MOOV": 2,
        "rang_Tbd_ORANGE": 2,
        "rang_Tbd_MTN": 1,
        "rang_Tbd_MOOV": 3,
        "rang_Tq_ORANGE": 1,
        "rang_Tq_MTN": 2,
        "rang_Tq_MOOV": 3
      },
      "id": 8
    },
    {
      "type": "Feature",
      "geometry": {
        "coordinates": [
          -3.98251,
          5.30932
        ],
        "type": "Point"
      },
      "properties": {
        "ADM0_FR": "DISTRICT AUTONOME D'ABIDJAN",
        "ADM0_PCODE": "CI04",
        "ADM1_FR": "DISTRICT AUTONOME D'ABIDJAN",
        "ADM1_PCODE": "CI101",
        "ADM2_FR": "ABIDJAN",
        "ADM2_PCODE": "CI0101",
        "ADM3_FR": "ABIDJAN",
        "ADM3_PCODE": "CI010101",
        "ADM4_FR": "MARCORY",
        "ADM4_PCODE": "C5375",
        "centerLat": 5.29932,
        "centerLng": -3.98251,
        "pop": 249858,
        "Te_MOOV": 5.7299999999999995,
        "Tbd_MOOV": 18.62,
        "Tc_MOOV": 11.940000000000001,
        "Tq_MOOV": 7.969999999999999,
        "Te_MTN": 4.38,
        "Tbd_MTN": 33.269999999999996,
        "Tc_MTN": 0.2,
        "Tq_MTN": 4.5600000000000005,
        "Te_ORANGE": 5.4,
        "Tbd_ORANGE": 25.2,
        "Tc_ORANGE": 26.38,
        "Tq_ORANGE": 2.86,
        "rang_Te_ORANGE": 2,
        "rang_Te_MTN": 1,
        "rang_Te_MOOV": 3,
        "rang_Tc_ORANGE": 3,
        "rang_Tc_MTN": 1,
        "rang_Tc_MOOV": 2,
        "rang_Tbd_ORANGE": 2,
        "rang_Tbd_MTN": 1,
        "rang_Tbd_MOOV": 3,
        "rang_Tq_ORANGE": 1,
        "rang_Tq_MTN": 2,
        "rang_Tq_MOOV": 3
      },
      "id": 9
    },
    {
      "type": "Feature",
      "geometry": {
        "coordinates": [
          -4.02164,
          5.33517
        ],
        "type": "Point"
      },
      "properties": {
        "ADM0_FR": "DISTRICT AUTONOME D'ABIDJAN",
        "ADM0_PCODE": "CI04",
        "ADM1_FR": "DISTRICT AUTONOME D'ABIDJAN",
        "ADM1_PCODE": "CI101",
        "ADM2_FR": "ABIDJAN",
        "ADM2_PCODE": "CI0101",
        "ADM3_FR": "ABIDJAN",
        "ADM3_PCODE": "CI010101",
        "ADM4_FR": "PLATEAU",
        "ADM4_PCODE": "C6556",
        "centerLat": 5.32517,
        "centerLng": -4.02164,
        "pop": 7488,
        "Te_MOOV": 7.93,
        "Tbd_MOOV": 14.23,
        "Tc_MOOV": 20.04,
        "Tq_MOOV": 4.8,
        "Te_MTN": 6.3,
        "Tbd_MTN": 43.269999999999996,
        "Tc_MTN": 1.09,
        "Tq_MTN": 1.96,
        "Te_ORANGE": 7.109999999999999,
        "Tbd_ORANGE": 40.07,
        "Tc_ORANGE": 30.97,
        "Tq_ORANGE": 1.5699999999999998,
        "rang_Te_ORANGE": 2,
        "rang_Te_MTN": 1,
        "rang_Te_MOOV": 3,
        "rang_Tc_ORANGE": 3,
        "rang_Tc_MTN": 1,
        "rang_Tc_MOOV": 2,
        "rang_Tbd_ORANGE": 2,
        "rang_Tbd_MTN": 1,
        "rang_Tbd_MOOV": 3,
        "rang_Tq_ORANGE": 1,
        "rang_Tq_MTN": 2,
        "rang_Tq_MOOV": 3
      },
      "id": 10
    },
    {
      "type": "Feature",
      "geometry": {
        "coordinates": [
          -3.958626,
          5.266881
        ],
        "type": "Point"
      },
      "properties": {
        "ADM0_FR": "DISTRICT AUTONOME D'ABIDJAN",
        "ADM0_PCODE": "CI04",
        "ADM1_FR": "DISTRICT AUTONOME D'ABIDJAN",
        "ADM1_PCODE": "CI101",
        "ADM2_FR": "ABIDJAN",
        "ADM2_PCODE": "CI0101",
        "ADM3_FR": "ABIDJAN",
        "ADM3_PCODE": "CI010101",
        "ADM4_FR": "PORT-BOUET",
        "ADM4_PCODE": "C6619",
        "centerLat": 5.256881,
        "centerLng": -3.958626,
        "pop": 419033,
        "Te_MOOV": 5.79,
        "Tbd_MOOV": 5.53,
        "Tc_MOOV": 4.3,
        "Tq_MOOV": 9.520000000000001,
        "Te_MTN": 5.04,
        "Tbd_MTN": 31.840000000000003,
        "Tc_MTN": 0.41000000000000003,
        "Tq_MTN": 2.4299999999999997,
        "Te_ORANGE": 7.199999999999999,
        "Tbd_ORANGE": 31.66,
        "Tc_ORANGE": 35.85,
        "Tq_ORANGE": 2.11,
        "rang_Te_ORANGE": 3,
        "rang_Te_MTN": 1,
        "rang_Te_MOOV": 2,
        "rang_Tc_ORANGE": 3,
        "rang_Tc_MTN": 1,
        "rang_Tc_MOOV": 2,
        "rang_Tbd_ORANGE": 2,
        "rang_Tbd_MTN": 1,
        "rang_Tbd_MOOV": 3,
        "rang_Tq_ORANGE": 1,
        "rang_Tq_MTN": 2,
        "rang_Tq_MOOV": 3
      },
      "id": 11
    },
    {
      "type": "Feature",
      "geometry": {
        "coordinates": [
          -4.26,
          5.33
        ],
        "type": "Point"
      },
      "properties": {
        "ADM0_FR": "DISTRICT AUTONOME D'ABIDJAN",
        "ADM0_PCODE": "CI04",
        "ADM1_FR": "DISTRICT AUTONOME D'ABIDJAN",
        "ADM1_PCODE": "CI101",
        "ADM2_FR": "ABIDJAN",
        "ADM2_PCODE": "CI0101",
        "ADM3_FR": "SONGON",
        "ADM3_PCODE": "CI010105",
        "ADM4_FR": "SONGON-AGBAN",
        "ADM4_PCODE": "C7199",
        "centerLat": 5.32,
        "centerLng": -4.26,
        "pop": 11554,
        "Te_MOOV": 12.379999999999999,
        "Tbd_MOOV": 17.599999999999998,
        "Tc_MOOV": 11.200000000000001,
        "Tq_MOOV": 8.9,
        "Te_MTN": 2.34,
        "Tbd_MTN": 31.1,
        "Tc_MTN": 0.24,
        "Tq_MTN": 5.47,
        "Te_ORANGE": 1.38,
        "Tbd_ORANGE": 34.11,
        "Tc_ORANGE": 15.65,
        "Tq_ORANGE": 5.25,
        "rang_Te_ORANGE": 1,
        "rang_Te_MTN": 2,
        "rang_Te_MOOV": 3,
        "rang_Tc_ORANGE": 3,
        "rang_Tc_MTN": 1,
        "rang_Tc_MOOV": 2,
        "rang_Tbd_ORANGE": 1,
        "rang_Tbd_MTN": 2,
        "rang_Tbd_MOOV": 3,
        "rang_Tq_ORANGE": 1,
        "rang_Tq_MTN": 2,
        "rang_Tq_MOOV": 3
      },
      "id": 12
    },
    {
      "type": "Feature",
      "geometry": {
        "coordinates": [
          -4.01044,
          5.30098
        ],
        "type": "Point"
      },
      "properties": {
        "ADM0_FR": "DISTRICT AUTONOME D'ABIDJAN",
        "ADM0_PCODE": "CI04",
        "ADM1_FR": "DISTRICT AUTONOME D'ABIDJAN",
        "ADM1_PCODE": "CI101",
        "ADM2_FR": "ABIDJAN",
        "ADM2_PCODE": "CI0101",
        "ADM3_FR": "ABIDJAN",
        "ADM3_PCODE": "CI010101",
        "ADM4_FR": "TREICHVILLE",
        "ADM4_PCODE": "C7913",
        "centerLat": 5.29098,
        "centerLng": -4.01044,
        "pop": 102580,
        "Te_MOOV": 4.49,
        "Tbd_MOOV": 7.359999999999999,
        "Tc_MOOV": 17.79,
        "Tq_MOOV": 4.6899999999999995,
        "Te_MTN": 1.95,
        "Tbd_MTN": 36.65,
        "Tc_MTN": 0.4,
        "Tq_MTN": 1.6199999999999999,
        "Te_ORANGE": 4.29,
        "Tbd_ORANGE": 54.379999999999995,
        "Tc_ORANGE": 37.269999999999996,
        "Tq_ORANGE": 3.7800000000000002,
        "rang_Te_ORANGE": 2,
        "rang_Te_MTN": 1,
        "rang_Te_MOOV": 3,
        "rang_Tc_ORANGE": 3,
        "rang_Tc_MTN": 1,
        "rang_Tc_MOOV": 2,
        "rang_Tbd_ORANGE": 1,
        "rang_Tbd_MTN": 2,
        "rang_Tbd_MOOV": 3,
        "rang_Tq_ORANGE": 2,
        "rang_Tq_MTN": 1,
        "rang_Tq_MOOV": 3
      },
      "id": 13
    },
    {
      "type": "Feature",
      "geometry": {
        "coordinates": [
          -4.09015,
          5.31848
        ],
        "type": "Point"
      },
      "properties": {
        "ADM0_FR": "DISTRICT AUTONOME D'ABIDJAN",
        "ADM0_PCODE": "CI04",
        "ADM1_FR": "DISTRICT AUTONOME D'ABIDJAN",
        "ADM1_PCODE": "CI101",
        "ADM2_FR": "ABIDJAN",
        "ADM2_PCODE": "CI0101",
        "ADM3_FR": "ABIDJAN",
        "ADM3_PCODE": "CI010101",
        "ADM4_FR": "YOPOUGON",
        "ADM4_PCODE": "C8230",
        "centerLat": 5.30848,
        "centerLng": -4.09015,
        "pop": 1071543,
        "Te_MOOV": 11.379999999999999,
        "Tbd_MOOV": 23.189999999999998,
        "Tc_MOOV": 20.7,
        "Tq_MOOV": 8.91,
        "Te_MTN": 12.61,
        "Tbd_MTN": 29.880000000000003,
        "Tc_MTN": 0.8099999999999999,
        "Tq_MTN": 2.6599999999999997,
        "Te_ORANGE": 13.44,
        "Tbd_ORANGE": 32.300000000000004,
        "Tc_ORANGE": 28.78,
        "Tq_ORANGE": 2.4699999999999998,
        "rang_Te_ORANGE": 3,
        "rang_Te_MTN": 2,
        "rang_Te_MOOV": 1,
        "rang_Tc_ORANGE": 3,
        "rang_Tc_MTN": 1,
        "rang_Tc_MOOV": 2,
        "rang_Tbd_ORANGE": 1,
        "rang_Tbd_MTN": 2,
        "rang_Tbd_MOOV": 3,
        "rang_Tq_ORANGE": 1,
        "rang_Tq_MTN": 2,
        "rang_Tq_MOOV": 3
      },
      "id": 14
    },
    {
      "type": "Feature",
      "geometry": {
        "coordinates": [
          -3.49676,
          6.73836
        ],
        "type": "Point"
      },
      "properties": {
        "ADM0_FR": "COMOE",
        "ADM0_PCODE": "CI02",
        "ADM1_FR": "INDENIE-DJUABLIN",
        "ADM1_PCODE": "CI120",
        "ADM2_FR": "ABENGOUROU",
        "ADM2_PCODE": "CI2001",
        "ADM3_FR": "ABENGOUROU",
        "ADM3_PCODE": "CI200101",
        "ADM4_FR": "ABENGOUROU",
        "ADM4_PCODE": "C0014",
        "centerLat": 6.72836,
        "centerLng": -3.49676,
        "pop": 100910,
        "Te_MOOV": 6.15,
        "Tbd_MOOV": 17.26,
        "Tc_MOOV": 17.86,
        "Tq_MOOV": 0.0,
        "Te_MTN": 0.5599999999999999,
        "Tbd_MTN": 39.550000000000004,
        "Tc_MTN": 0.0,
        "Tq_MTN": 5.33,
        "Te_ORANGE": 2.21,
        "Tbd_ORANGE": 51.41,
        "Tc_ORANGE": 28.810000000000002,
        "Tq_ORANGE": 1.39,
        "rang_Te_ORANGE": 2,
        "rang_Te_MTN": 1,
        "rang_Te_MOOV": 3,
        "rang_Tc_ORANGE": 3,
        "rang_Tc_MTN": 1,
        "rang_Tc_MOOV": 2,
        "rang_Tbd_ORANGE": 1,
        "rang_Tbd_MTN": 2,
        "rang_Tbd_MOOV": 3,
        "rang_Tq_ORANGE": 2,
        "rang_Tq_MTN": 3,
        "rang_Tq_MOOV": 1
      },
      "id": 15
    },
    {
      "type": "Feature",
      "geometry": {
        "coordinates": [
          -3.20677,
          5.48457
        ],
        "type": "Point"
      },
      "properties": {
        "ADM0_FR": "COMOE",
        "ADM0_PCODE": "CI02",
        "ADM1_FR": "SUD-COMOE",
        "ADM1_PCODE": "CI130",
        "ADM2_FR": "ABOISSO",
        "ADM2_PCODE": "CI3001",
        "ADM3_FR": "ABOISSO",
        "ADM3_PCODE": "CI300101",
        "ADM4_FR": "ABOISSO",
        "ADM4_PCODE": "C0033",
        "centerLat": 5.47457,
        "centerLng": -3.20677,
        "pop": 45688,
        "Te_MOOV": 12.5,
        "Tbd_MOOV": 47.449999999999996,
        "Tc_MOOV": 24.490000000000002,
        "Tq_MOOV": 3.3000000000000003,
        "Te_MTN": 8.52,
        "Tbd_MTN": 49.02,
        "Tc_MTN": 0.98,
        "Tq_MTN": 5.64,
        "Te_ORANGE": 14.729999999999999,
        "Tbd_ORANGE": 49.21,
        "Tc_ORANGE": 28.799999999999997,
        "Tq_ORANGE": 0.64,
        "rang_Te_ORANGE": 3,
        "rang_Te_MTN": 1,
        "rang_Te_MOOV": 2,
        "rang_Tc_ORANGE": 3,
        "rang_Tc_MTN": 1,
        "rang_Tc_MOOV": 2,
        "rang_Tbd_ORANGE": 1,
        "rang_Tbd_MTN": 2,
        "rang_Tbd_MOOV": 3,
        "rang_Tq_ORANGE": 1,
        "rang_Tq_MTN": 3,
        "rang_Tq_MOOV": 2
      },
      "id": 16
    },
    {
      "type": "Feature",
      "geometry": {
        "coordinates": [
          -3.20278,
          7.13987
        ],
        "type": "Point"
      },
      "properties": {
        "ADM0_FR": "COMOE",
        "ADM0_PCODE": "CI02",
        "ADM1_FR": "INDENIE-DJUABLIN",
        "ADM1_PCODE": "CI120",
        "ADM2_FR": "AGNIBILEKROU",
        "ADM2_PCODE": "CI2002",
        "ADM3_FR": "AGNIBILEKROU",
        "ADM3_PCODE": "CI200201",
        "ADM4_FR": "AGNIBILEKROU",
        "ADM4_PCODE": "C0224",
        "centerLat": 7.12987,
        "centerLng": -3.20278,
        "pop": 48611,
        "Te_MOOV": 1.47,
        "Tbd_MOOV": 24.63,
        "Tc_MOOV": 9.700000000000001,
        "Tq_MOOV": 0.0,
        "Te_MTN": 0.75,
        "Tbd_MTN": 40.6,
        "Tc_MTN": 0.0,
        "Tq_MTN": 10.16,
        "Te_ORANGE": 2.96,
        "Tbd_ORANGE": 52.669999999999995,
        "Tc_ORANGE": 30.53,
        "Tq_ORANGE": 0.0,
        "rang_Te_ORANGE": 3,
        "rang_Te_MTN": 1,
        "rang_Te_MOOV": 2,
        "rang_Tc_ORANGE": 3,
        "rang_Tc_MTN": 1,
        "rang_Tc_MOOV": 2,
        "rang_Tbd_ORANGE": 1,
        "rang_Tbd_MTN": 2,
        "rang_Tbd_MOOV": 3,
        "rang_Tq_ORANGE": 1,
        "rang_Tq_MTN": 3,
        "rang_Tq_MOOV": 1
      },
      "id": 17
    },
    {
      "type": "Feature",
      "geometry": {
        "coordinates": [
          -3.88779,
          6.39525
        ],
        "type": "Point"
      },
      "properties": {
        "ADM0_FR": "LAGUNES",
        "ADM0_PCODE": "CI08",
        "ADM1_FR": "LA ME",
        "ADM1_PCODE": "CI124",
        "ADM2_FR": "AKOUPE",
        "ADM2_PCODE": "CI2402",
        "ADM3_FR": "AKOUPE",
        "ADM3_PCODE": "CI240202",
        "ADM4_FR": "AKOUPE",
        "ADM4_PCODE": "C0363",
        "centerLat": 6.38525,
        "centerLng": -3.88779,
        "pop": 26668,
        "Te_MOOV": 5.1,
        "Tbd_MOOV": 38.71,
        "Tc_MOOV": 15.049999999999999,
        "Tq_MOOV": 0.0,
        "Te_MTN": 4.0,
        "Tbd_MTN": 48.96,
        "Tc_MTN": 0.0,
        "Tq_MTN": 3.5700000000000003,
        "Te_ORANGE": 6.45,
        "Tbd_ORANGE": 52.87,
        "Tc_ORANGE": 25.290000000000003,
        "Tq_ORANGE": 1.47,
        "rang_Te_ORANGE": 3,
        "rang_Te_MTN": 1,
        "rang_Te_MOOV": 2,
        "rang_Tc_ORANGE": 3,
        "rang_Tc_MTN": 1,
        "rang_Tc_MOOV": 2,
        "rang_Tbd_ORANGE": 1,
        "rang_Tbd_MTN": 2,
        "rang_Tbd_MOOV": 3,
        "rang_Tq_ORANGE": 2,
        "rang_Tq_MTN": 3,
        "rang_Tq_MOOV": 1
      },
      "id": 18
    },
    {
      "type": "Feature",
      "geometry": {
        "coordinates": [
          -4.35551,
          5.21822
        ],
        "type": "Point"
      },
      "properties": {
        "ADM0_FR": "LAGUNES",
        "ADM0_PCODE": "CI08",
        "ADM1_FR": "GRANDS-PONTS",
        "ADM1_PCODE": "CI115",
        "ADM2_FR": "JACQUEVILLE",
        "ADM2_PCODE": "CI1503",
        "ADM3_FR": "JACQUEVILLE",
        "ADM3_PCODE": "CI150301",
        "ADM4_FR": "AKROU",
        "ADM4_PCODE": "C0392",
        "centerLat": 5.20822,
        "centerLng": -4.35551,
        "pop": 1289,
        "Te_MOOV": 35.449999999999996,
        "Tbd_MOOV": 36.620000000000005,
        "Tc_MOOV": 8.450000000000001,
        "Tq_MOOV": 7.35,
        "Te_MTN": 9.09,
        "Tbd_MTN": 50.0,
        "Tc_MTN": 0.0,
        "Tq_MTN": 0.0,
        "Te_ORANGE": 32.73,
        "Tbd_ORANGE": 75.68,
        "Tc_ORANGE": 39.190000000000005,
        "Tq_ORANGE": 7.2700000000000005,
        "rang_Te_ORANGE": 2,
        "rang_Te_MTN": 1,
        "rang_Te_MOOV": 3,
        "rang_Tc_ORANGE": 3,
        "rang_Tc_MTN": 1,
        "rang_Tc_MOOV": 2,
        "rang_Tbd_ORANGE": 1,
        "rang_Tbd_MTN": 2,
        "rang_Tbd_MOOV": 3,
        "rang_Tq_ORANGE": 2,
        "rang_Tq_MTN": 1,
        "rang_Tq_MOOV": 3
      },
      "id": 19
    },
    {
      "type": "Feature",
      "geometry": {
        "coordinates": [
          -3.28996,
          5.14392
        ],
        "type": "Point"
      },
      "properties": {
        "ADM0_FR": "COMOE",
        "ADM0_PCODE": "CI02",
        "ADM1_FR": "SUD-COMOE",
        "ADM1_PCODE": "CI130",
        "ADM2_FR": "ADIAKE",
        "ADM2_PCODE": "CI3002",
        "ADM3_FR": "ASSINIE-MAFIA",
        "ADM3_PCODE": "CI300202",
        "ADM4_FR": "ASSINIE-MAFIA",
        "ADM4_PCODE": "C0685",
        "centerLat": 5.13392,
        "centerLng": -3.28996,
        "pop": 5661,
        "Te_MOOV": 8.03,
        "Tbd_MOOV": 4.760000000000001,
        "Tc_MOOV": 4.760000000000001,
        "Tq_MOOV": 0.84,
        "Te_MTN": 9.49,
        "Tbd_MTN": 57.26,
        "Tc_MTN": 0.0,
        "Tq_MTN": 0.0,
        "Te_ORANGE": 8.09,
        "Tbd_ORANGE": 61.6,
        "Tc_ORANGE": 20.0,
        "Tq_ORANGE": 2.83,
        "rang_Te_ORANGE": 2,
        "rang_Te_MTN": 3,
        "rang_Te_MOOV": 1,
        "rang_Tc_ORANGE": 3,
        "rang_Tc_MTN": 1,
        "rang_Tc_MOOV": 2,
        "rang_Tbd_ORANGE": 1,
        "rang_Tbd_MTN": 2,
        "rang_Tbd_MOOV": 3,
        "rang_Tq_ORANGE": 3,
        "rang_Tq_MTN": 1,
        "rang_Tq_MOOV": 2
      },
      "id": 20
    },
    {
      "type": "Feature",
      "geometry": {
        "coordinates": [
          -2.97986,
          7.71073
        ],
        "type": "Point"
      },
      "properties": {
        "ADM0_FR": "ZANZAN",
        "ADM0_PCODE": "CI14",
        "ADM1_FR": "GONTOUGO",
        "ADM1_PCODE": "CI114",
        "ADM2_FR": "TRANSUA",
        "ADM2_PCODE": "CI1405",
        "ADM3_FR": "ASSUEFRY",
        "ADM3_PCODE": "CI140502",
        "ADM4_FR": "ASSUÉFRY",
        "ADM4_PCODE": "C0722",
        "centerLat": 7.70073,
        "centerLng": -2.97986,
        "pop": 9759,
        "Te_MOOV": 5.43,
        "Tbd_MOOV": 27.589999999999996,
        "Tc_MOOV": 5.75,
        "Tq_MOOV": 0.0,
        "Te_MTN": 2.22,
        "Tbd_MTN": 57.95,
        "Tc_MTN": 1.1400000000000001,
        "Tq_MTN": 2.67,
        "Te_ORANGE": 10.75,
        "Tbd_ORANGE": 57.830000000000005,
        "Tc_ORANGE": 7.23,
        "Tq_ORANGE": 0.0,
        "rang_Te_ORANGE": 3,
        "rang_Te_MTN": 1,
        "rang_Te_MOOV": 2,
        "rang_Tc_ORANGE": 3,
        "rang_Tc_MTN": 1,
        "rang_Tc_MOOV": 2,
        "rang_Tbd_ORANGE": 2,
        "rang_Tbd_MTN": 1,
        "rang_Tbd_MOOV": 3,
        "rang_Tq_ORANGE": 1,
        "rang_Tq_MTN": 3,
        "rang_Tq_MOOV": 1
      },
      "id": 21
    },
    {
      "type": "Feature",
      "geometry": {
        "coordinates": [
          -6.6782,
          7.859389999999999
        ],
        "type": "Point"
      },
      "properties": {
        "ADM0_FR": "WOROBA",
        "ADM0_PCODE": "CI13",
        "ADM1_FR": "WORODOUGOU",
        "ADM1_PCODE": "CI133",
        "ADM2_FR": "SEGUELA",
        "ADM2_PCODE": "CI3302",
        "ADM3_FR": "SEGUELA",
        "ADM3_PCODE": "CI330201",
        "ADM4_FR": "BANANDJÉ",
        "ADM4_PCODE": "C0913",
        "centerLat": 7.84939,
        "centerLng": -6.6782,
        "pop": 363,
        "Te_MOOV": 14.469999999999999,
        "Tbd_MOOV": 0.0,
        "Tc_MOOV": 0.0,
        "Tq_MOOV": 17.24,
        "Te_MTN": 2.63,
        "Tbd_MTN": 71.61999999999999,
        "Tc_MTN": 22.97,
        "Tq_MTN": 26.56,
        "Te_ORANGE": 28.38,
        "Tbd_ORANGE": 47.17,
        "Tc_ORANGE": 35.85,
        "Tq_ORANGE": 0.0,
        "rang_Te_ORANGE": 3,
        "rang_Te_MTN": 1,
        "rang_Te_MOOV": 2,
        "rang_Tc_ORANGE": 3,
        "rang_Tc_MTN": 2,
        "rang_Tc_MOOV": 1,
        "rang_Tbd_ORANGE": 2,
        "rang_Tbd_MTN": 1,
        "rang_Tbd_MOOV": 3,
        "rang_Tq_ORANGE": 1,
        "rang_Tq_MTN": 3,
        "rang_Tq_MOOV": 2
      },
      "id": 22
    },
    {
      "type": "Feature",
      "geometry": {
        "coordinates": [
          -7.49,
          7.02
        ],
        "type": "Point"
      },
      "properties": {
        "ADM0_FR": "VALLEE DU BANDAMA",
        "ADM0_PCODE": "CI12",
        "ADM1_FR": "HAMBOL",
        "ADM1_PCODE": "CI117",
        "ADM2_FR": "DABAKALA",
        "ADM2_PCODE": "CI1701",
        "ADM3_FR": "TENDENE-BAMBARASSO",
        "ADM3_PCODE": "CI170109",
        "ADM4_FR": "BANGOLO",
        "ADM4_PCODE": "C0934",
        "centerLat": 7.01,
        "centerLng": -7.49,
        "pop": 900,
        "Te_MOOV": 50.86000000000001,
        "Tbd_MOOV": 1.7500000000000002,
        "Tc_MOOV": 1.7500000000000002,
        "Tq_MOOV": 22.220000000000002,
        "Te_MTN": 0.88,
        "Tbd_MTN": 61.61,
        "Tc_MTN": 18.75,
        "Tq_MTN": 0.0,
        "Te_ORANGE": 16.950000000000003,
        "Tbd_ORANGE": 77.55,
        "Tc_ORANGE": 12.24,
        "Tq_ORANGE": 6.25,
        "rang_Te_ORANGE": 2,
        "rang_Te_MTN": 1,
        "rang_Te_MOOV": 3,
        "rang_Tc_ORANGE": 2,
        "rang_Tc_MTN": 3,
        "rang_Tc_MOOV": 1,
        "rang_Tbd_ORANGE": 1,
        "rang_Tbd_MTN": 2,
        "rang_Tbd_MOOV": 3,
        "rang_Tq_ORANGE": 2,
        "rang_Tq_MTN": 1,
        "rang_Tq_MOOV": 3
      },
      "id": 23
    },
    {
      "type": "Feature",
      "geometry": {
        "coordinates": [
          -7.61483,
          7.75078
        ],
        "type": "Point"
      },
      "properties": {
        "ADM0_FR": "MONTAGNES",
        "ADM0_PCODE": "CI09",
        "ADM1_FR": "TONKPI",
        "ADM1_PCODE": "CI132",
        "ADM2_FR": "BIANKOUMA",
        "ADM2_PCODE": "CI3201",
        "ADM3_FR": "BIANKOUMA",
        "ADM3_PCODE": "CI320101",
        "ADM4_FR": "BIANKOUMA",
        "ADM4_PCODE": "C1160",
        "centerLat": 7.74078,
        "centerLng": -7.61483,
        "pop": 17922,
        "Te_MOOV": 4.72,
        "Tbd_MOOV": 0.9900000000000001,
        "Tc_MOOV": 0.0,
        "Tq_MOOV": 4.08,
        "Te_MTN": 2.6,
        "Tbd_MTN": 92.0,
        "Tc_MTN": 56.00000000000001,
        "Tq_MTN": 1.1199999999999999,
        "Te_ORANGE": 5.609999999999999,
        "Tbd_ORANGE": 51.49,
        "Tc_ORANGE": 25.740000000000002,
        "Tq_ORANGE": 3.49,
        "rang_Te_ORANGE": 3,
        "rang_Te_MTN": 1,
        "rang_Te_MOOV": 2,
        "rang_Tc_ORANGE": 2,
        "rang_Tc_MTN": 3,
        "rang_Tc_MOOV": 1,
        "rang_Tbd_ORANGE": 2,
        "rang_Tbd_MTN": 1,
        "rang_Tbd_MOOV": 3,
        "rang_Tq_ORANGE": 2,
        "rang_Tq_MTN": 1,
        "rang_Tq_MOOV": 3
      },
      "id": 24
    },
    {
      "type": "Feature",
      "geometry": {
        "coordinates": [
          -3.19114,
          6.02179
        ],
        "type": "Point"
      },
      "properties": {
        "ADM0_FR": "COMOE",
        "ADM0_PCODE": "CI02",
        "ADM1_FR": "SUD-COMOE",
        "ADM1_PCODE": "CI130",
        "ADM2_FR": "ABOISSO",
        "ADM2_PCODE": "CI3001",
        "ADM3_FR": "BIANOUAN",
        "ADM3_PCODE": "CI300105",
        "ADM4_FR": "BIANOUAN",
        "ADM4_PCODE": "C1161",
        "centerLat": 6.01179,
        "centerLng": -3.19114,
        "pop": 13547,
        "Te_MOOV": 10.39,
        "Tbd_MOOV": 68.12,
        "Tc_MOOV": 11.59,
        "Tq_MOOV": 10.0,
        "Te_MTN": 8.61,
        "Tbd_MTN": 51.449999999999996,
        "Tc_MTN": 0.0,
        "Tq_MTN": 1.94,
        "Te_ORANGE": 11.04,
        "Tbd_ORANGE": 49.64,
        "Tc_ORANGE": 8.76,
        "Tq_ORANGE": 8.33,
        "rang_Te_ORANGE": 3,
        "rang_Te_MTN": 1,
        "rang_Te_MOOV": 2,
        "rang_Tc_ORANGE": 2,
        "rang_Tc_MTN": 1,
        "rang_Tc_MOOV": 3,
        "rang_Tbd_ORANGE": 3,
        "rang_Tbd_MTN": 2,
        "rang_Tbd_MOOV": 1,
        "rang_Tq_ORANGE": 2,
        "rang_Tq_MTN": 1,
        "rang_Tq_MOOV": 3
      },
      "id": 25
    },
    {
      "type": "Feature",
      "geometry": {
        "coordinates": [
          -4.49751,
          7.07267
        ],
        "type": "Point"
      },
      "properties": {
        "ADM0_FR": "LACS",
        "ADM0_PCODE": "CI07",
        "ADM1_FR": "N'ZI",
        "ADM1_PCODE": "CI127",
        "ADM2_FR": "BOCANDA",
        "ADM2_PCODE": "CI2701",
        "ADM3_FR": "BOCANDA",
        "ADM3_PCODE": "CI270102",
        "ADM4_FR": "BOCANDA",
        "ADM4_PCODE": "C1317",
        "centerLat": 7.06267,
        "centerLng": -4.49751,
        "pop": 10684,
        "Te_MOOV": 6.15,
        "Tbd_MOOV": 17.26,
        "Tc_MOOV": 17.86,
        "Tq_MOOV": 0.0,
        "Te_MTN": 0.5599999999999999,
        "Tbd_MTN": 39.550000000000004,
        "Tc_MTN": 0.0,
        "Tq_MTN": 5.33,
        "Te_ORANGE": 2.21,
        "Tbd_ORANGE": 51.41,
        "Tc_ORANGE": 28.810000000000002,
        "Tq_ORANGE": 1.39,
        "rang_Te_ORANGE": 2,
        "rang_Te_MTN": 1,
        "rang_Te_MOOV": 3,
        "rang_Tc_ORANGE": 3,
        "rang_Tc_MTN": 1,
        "rang_Tc_MOOV": 2,
        "rang_Tbd_ORANGE": 1,
        "rang_Tbd_MTN": 2,
        "rang_Tbd_MOOV": 3,
        "rang_Tq_ORANGE": 2,
        "rang_Tq_MTN": 3,
        "rang_Tq_MOOV": 1
      },
      "id": 26
    },
    {
      "type": "Feature",
      "geometry": {
        "coordinates": [
          -3.17079,
          8.59275
        ],
        "type": "Point"
      },
      "properties": {
        "ADM0_FR": "ZANZAN",
        "ADM0_PCODE": "CI14",
        "ADM1_FR": "BOUNKANI",
        "ADM1_PCODE": "CI108",
        "ADM2_FR": "NASSIAN",
        "ADM2_PCODE": "CI0803",
        "ADM3_FR": "BOGOFA",
        "ADM3_PCODE": "CI080302",
        "ADM4_FR": "BODE",
        "ADM4_PCODE": "C1319",
        "centerLat": 8.58275,
        "centerLng": -3.17079,
        "pop": 1527,
        "Te_MOOV": 38.78,
        "Tbd_MOOV": 16.669999999999998,
        "Tc_MOOV": 0.0,
        "Tq_MOOV": 96.15,
        "Te_MTN": 2.08,
        "Tbd_MTN": 40.43,
        "Tc_MTN": 0.0,
        "Tq_MTN": 4.760000000000001,
        "Te_ORANGE": 40.82,
        "Tbd_ORANGE": 48.28,
        "Tc_ORANGE": 0.0,
        "Tq_ORANGE": 9.09,
        "rang_Te_ORANGE": 3,
        "rang_Te_MTN": 1,
        "rang_Te_MOOV": 2,
        "rang_Tc_ORANGE": 1,
        "rang_Tc_MTN": 1,
        "rang_Tc_MOOV": 1,
        "rang_Tbd_ORANGE": 1,
        "rang_Tbd_MTN": 2,
        "rang_Tbd_MOOV": 3,
        "rang_Tq_ORANGE": 2,
        "rang_Tq_MTN": 1,
        "rang_Tq_MOOV": 3
      },
      "id": 27
    },
    {
      "type": "Feature",
      "geometry": {
        "coordinates": [
          -2.8,
          8.049999999999999
        ],
        "type": "Point"
      },
      "properties": {
        "ADM0_FR": "COMOE",
        "ADM0_PCODE": "CI02",
        "ADM1_FR": "SUD-COMOE",
        "ADM1_PCODE": "CI130",
        "ADM2_FR": "ADIAKE",
        "ADM2_PCODE": "CI3002",
        "ADM3_FR": "ADIAKE",
        "ADM3_PCODE": "CI300201",
        "ADM4_FR": "BONDOUKOU",
        "ADM4_PCODE": "C1424",
        "centerLat": 8.04,
        "centerLng": -2.8,
        "pop": 1837,
        "Te_MOOV": 22.64,
        "Tbd_MOOV": 26.83,
        "Tc_MOOV": 26.02,
        "Tq_MOOV": 0.0,
        "Te_MTN": 1.32,
        "Tbd_MTN": 60.4,
        "Tc_MTN": 0.67,
        "Tq_MTN": 2.4,
        "Te_ORANGE": 3.7699999999999996,
        "Tbd_ORANGE": 56.86,
        "Tc_ORANGE": 32.029999999999994,
        "Tq_ORANGE": 2.7,
        "rang_Te_ORANGE": 2,
        "rang_Te_MTN": 1,
        "rang_Te_MOOV": 3,
        "rang_Tc_ORANGE": 3,
        "rang_Tc_MTN": 1,
        "rang_Tc_MOOV": 2,
        "rang_Tbd_ORANGE": 2,
        "rang_Tbd_MTN": 1,
        "rang_Tbd_MOOV": 3,
        "rang_Tq_ORANGE": 3,
        "rang_Tq_MTN": 2,
        "rang_Tq_MOOV": 1
      },
      "id": 28
    },
    {
      "type": "Feature",
      "geometry": {
        "coordinates": [
          -6.04477,
          6.93719
        ],
        "type": "Point"
      },
      "properties": {
        "ADM0_FR": "SASSANDRA-MARAHOUE",
        "ADM0_PCODE": "CI10",
        "ADM1_FR": "MARAHOUE",
        "ADM1_PCODE": "CI123",
        "ADM2_FR": "BOUAFLE",
        "ADM2_PCODE": "CI2301",
        "ADM3_FR": "BONON",
        "ADM3_PCODE": "CI230102",
        "ADM4_FR": "BONON",
        "ADM4_PCODE": "C1450",
        "centerLat": 6.92719,
        "centerLng": -6.04477,
        "pop": 92523,
        "Te_MOOV": 1.7500000000000002,
        "Tbd_MOOV": 2.68,
        "Tc_MOOV": 0.0,
        "Tq_MOOV": 0.0,
        "Te_MTN": 0.0,
        "Tbd_MTN": 69.3,
        "Tc_MTN": 13.16,
        "Tq_MTN": 0.0,
        "Te_ORANGE": 4.55,
        "Tbd_ORANGE": 63.81,
        "Tc_ORANGE": 26.669999999999998,
        "Tq_ORANGE": 0.0,
        "rang_Te_ORANGE": 3,
        "rang_Te_MTN": 1,
        "rang_Te_MOOV": 2,
        "rang_Tc_ORANGE": 3,
        "rang_Tc_MTN": 2,
        "rang_Tc_MOOV": 1,
        "rang_Tbd_ORANGE": 2,
        "rang_Tbd_MTN": 1,
        "rang_Tbd_MOOV": 3,
        "rang_Tq_ORANGE": 1,
        "rang_Tq_MTN": 1,
        "rang_Tq_MOOV": 1
      },
      "id": 29
    },
    {
      "type": "Feature",
      "geometry": {
        "coordinates": [
          -5.75132,
          6.99414
        ],
        "type": "Point"
      },
      "properties": {
        "ADM0_FR": "SASSANDRA-MARAHOUE",
        "ADM0_PCODE": "CI10",
        "ADM1_FR": "MARAHOUE",
        "ADM1_PCODE": "CI123",
        "ADM2_FR": "BOUAFLE",
        "ADM2_PCODE": "CI2301",
        "ADM3_FR": "BOUAFLE",
        "ADM3_PCODE": "CI230103",
        "ADM4_FR": "BOUAFLÉ",
        "ADM4_PCODE": "C1503",
        "centerLat": 6.98414,
        "centerLng": -5.75132,
        "pop": 80389,
        "Te_MOOV": 5.84,
        "Tbd_MOOV": 3.1,
        "Tc_MOOV": 4.65,
        "Tq_MOOV": 5.93,
        "Te_MTN": 0.73,
        "Tbd_MTN": 55.879999999999995,
        "Tc_MTN": 0.0,
        "Tq_MTN": 2.34,
        "Te_ORANGE": 9.49,
        "Tbd_ORANGE": 58.06,
        "Tc_ORANGE": 33.06,
        "Tq_ORANGE": 9.28,
        "rang_Te_ORANGE": 3,
        "rang_Te_MTN": 1,
        "rang_Te_MOOV": 2,
        "rang_Tc_ORANGE": 3,
        "rang_Tc_MTN": 1,
        "rang_Tc_MOOV": 2,
        "rang_Tbd_ORANGE": 1,
        "rang_Tbd_MTN": 2,
        "rang_Tbd_MOOV": 3,
        "rang_Tq_ORANGE": 3,
        "rang_Tq_MTN": 1,
        "rang_Tq_MOOV": 2
      },
      "id": 30
    },
    {
      "type": "Feature",
      "geometry": {
        "coordinates": [
          -5.02961,
          7.697909999999999
        ],
        "type": "Point"
      },
      "properties": {
        "ADM0_FR": "VALLEE DU BANDAMA",
        "ADM0_PCODE": "CI12",
        "ADM1_FR": "GBEKE",
        "ADM1_PCODE": "CI111",
        "ADM2_FR": "BOUAKE",
        "ADM2_PCODE": "CI1103",
        "ADM3_FR": "BOUAKE",
        "ADM3_PCODE": "CI110301",
        "ADM4_FR": "BOUAKÉ",
        "ADM4_PCODE": "C1507",
        "centerLat": 7.68791,
        "centerLng": -5.02961,
        "pop": 536719,
        "Te_MOOV": 31.65,
        "Tbd_MOOV": 2.0500000000000003,
        "Tc_MOOV": 4.1000000000000005,
        "Tq_MOOV": 4.42,
        "Te_MTN": 20.849999999999998,
        "Tbd_MTN": 48.04,
        "Tc_MTN": 0.7100000000000001,
        "Tq_MTN": 3.01,
        "Te_ORANGE": 27.27,
        "Tbd_ORANGE": 44.32,
        "Tc_ORANGE": 35.23,
        "Tq_ORANGE": 3.4099999999999997,
        "rang_Te_ORANGE": 2,
        "rang_Te_MTN": 1,
        "rang_Te_MOOV": 3,
        "rang_Tc_ORANGE": 3,
        "rang_Tc_MTN": 1,
        "rang_Tc_MOOV": 2,
        "rang_Tbd_ORANGE": 2,
        "rang_Tbd_MTN": 1,
        "rang_Tbd_MOOV": 3,
        "rang_Tq_ORANGE": 2,
        "rang_Tq_MTN": 1,
        "rang_Tq_MOOV": 3
      },
      "id": 31
    },
    {
      "type": "Feature",
      "geometry": {
        "coordinates": [
          -2.99909,
          9.27864
        ],
        "type": "Point"
      },
      "properties": {
        "ADM0_FR": "ZANZAN",
        "ADM0_PCODE": "CI14",
        "ADM1_FR": "BOUNKANI",
        "ADM1_PCODE": "CI108",
        "ADM2_FR": "BOUNA",
        "ADM2_PCODE": "CI0801",
        "ADM3_FR": "BOUNA",
        "ADM3_PCODE": "CI080102",
        "ADM4_FR": "BOUNA",
        "ADM4_PCODE": "C1550",
        "centerLat": 9.26864,
        "centerLng": -2.99909,
        "pop": 18755,
        "Te_MOOV": 30.990000000000002,
        "Tbd_MOOV": 6.12,
        "Tc_MOOV": 6.12,
        "Tq_MOOV": 94.37,
        "Te_MTN": 7.249999999999999,
        "Tbd_MTN": 52.339999999999996,
        "Tc_MTN": 0.0,
        "Tq_MTN": 41.510000000000005,
        "Te_ORANGE": 5.76,
        "Tbd_ORANGE": 61.07,
        "Tc_ORANGE": 7.630000000000001,
        "Tq_ORANGE": 0.0,
        "rang_Te_ORANGE": 1,
        "rang_Te_MTN": 2,
        "rang_Te_MOOV": 3,
        "rang_Tc_ORANGE": 3,
        "rang_Tc_MTN": 1,
        "rang_Tc_MOOV": 2,
        "rang_Tbd_ORANGE": 1,
        "rang_Tbd_MTN": 2,
        "rang_Tbd_MOOV": 3,
        "rang_Tq_ORANGE": 1,
        "rang_Tq_MTN": 2,
        "rang_Tq_MOOV": 3
      },
      "id": 32
    },
    {
      "type": "Feature",
      "geometry": {
        "coordinates": [
          -4.42938,
          8.37405
        ],
        "type": "Point"
      },
      "properties": {
        "ADM0_FR": "VALLEE DU BANDAMA",
        "ADM0_PCODE": "CI12",
        "ADM1_FR": "HAMBOL",
        "ADM1_PCODE": "CI117",
        "ADM2_FR": "DABAKALA",
        "ADM2_PCODE": "CI1701",
        "ADM3_FR": "DABAKALA",
        "ADM3_PCODE": "CI170103",
        "ADM4_FR": "DABAKALA",
        "ADM4_PCODE": "C1689",
        "centerLat": 8.36405,
        "centerLng": -4.42938,
        "pop": 14134,
        "Te_MOOV": 35.5,
        "Tbd_MOOV": 15.6,
        "Tc_MOOV": 6.419999999999999,
        "Tq_MOOV": 2.1999999999999997,
        "Te_MTN": 13.13,
        "Tbd_MTN": 51.800000000000004,
        "Tc_MTN": 8.63,
        "Tq_MTN": 4.24,
        "Te_ORANGE": 30.36,
        "Tbd_ORANGE": 56.410000000000004,
        "Tc_ORANGE": 14.530000000000001,
        "Tq_ORANGE": 4.55,
        "rang_Te_ORANGE": 2,
        "rang_Te_MTN": 1,
        "rang_Te_MOOV": 3,
        "rang_Tc_ORANGE": 3,
        "rang_Tc_MTN": 2,
        "rang_Tc_MOOV": 1,
        "rang_Tbd_ORANGE": 1,
        "rang_Tbd_MTN": 2,
        "rang_Tbd_MOOV": 3,
        "rang_Tq_ORANGE": 3,
        "rang_Tq_MTN": 2,
        "rang_Tq_MOOV": 1
      },
      "id": 33
    },
    {
      "type": "Feature",
      "geometry": {
        "coordinates": [
          -4.38208,
          5.33271
        ],
        "type": "Point"
      },
      "properties": {
        "ADM0_FR": "LAGUNES",
        "ADM0_PCODE": "CI08",
        "ADM1_FR": "GRANDS-PONTS",
        "ADM1_PCODE": "CI115",
        "ADM2_FR": "DABOU",
        "ADM2_PCODE": "CI1501",
        "ADM3_FR": "DABOU",
        "ADM3_PCODE": "CI150101",
        "ADM4_FR": "DABOU",
        "ADM4_PCODE": "C1708",
        "centerLat": 5.32271,
        "centerLng": -4.38208,
        "pop": 61942,
        "Te_MOOV": 23.380000000000003,
        "Tbd_MOOV": 33.12,
        "Tc_MOOV": 16.88,
        "Tq_MOOV": 0.0,
        "Te_MTN": 7.920000000000001,
        "Tbd_MTN": 48.39,
        "Tc_MTN": 0.0,
        "Tq_MTN": 2.16,
        "Te_ORANGE": 10.89,
        "Tbd_ORANGE": 66.11,
        "Tc_ORANGE": 29.439999999999998,
        "Tq_ORANGE": 1.28,
        "rang_Te_ORANGE": 2,
        "rang_Te_MTN": 1,
        "rang_Te_MOOV": 3,
        "rang_Tc_ORANGE": 3,
        "rang_Tc_MTN": 1,
        "rang_Tc_MOOV": 2,
        "rang_Tbd_ORANGE": 1,
        "rang_Tbd_MTN": 2,
        "rang_Tbd_MOOV": 3,
        "rang_Tq_ORANGE": 2,
        "rang_Tq_MTN": 3,
        "rang_Tq_MOOV": 1
      },
      "id": 34
    },
    {
      "type": "Feature",
      "geometry": {
        "coordinates": [
          -5.69451,
          5.89642
        ],
        "type": "Point"
      },
      "properties": {
        "ADM0_FR": "GOH-DJIBOUA",
        "ADM0_PCODE": "CI06",
        "ADM1_FR": "LOH-DJIBOUA",
        "ADM1_PCODE": "CI122",
        "ADM2_FR": "LAKOTA",
        "ADM2_PCODE": "CI2203",
        "ADM3_FR": "LAKOTA",
        "ADM3_PCODE": "CI220301",
        "ADM4_FR": "DAHIRI",
        "ADM4_PCODE": "C1747",
        "centerLat": 5.88642,
        "centerLng": -5.69451,
        "pop": 1949,
        "Te_MOOV": 29.94,
        "Tbd_MOOV": 61.29,
        "Tc_MOOV": 3.2300000000000004,
        "Tq_MOOV": 4.24,
        "Te_MTN": 18.64,
        "Tbd_MTN": 54.86,
        "Tc_MTN": 4.17,
        "Tq_MTN": 0.7799999999999999,
        "Te_ORANGE": 21.91,
        "Tbd_ORANGE": 74.1,
        "Tc_ORANGE": 20.14,
        "Tq_ORANGE": 1.77,
        "rang_Te_ORANGE": 2,
        "rang_Te_MTN": 1,
        "rang_Te_MOOV": 3,
        "rang_Tc_ORANGE": 3,
        "rang_Tc_MTN": 2,
        "rang_Tc_MOOV": 1,
        "rang_Tbd_ORANGE": 1,
        "rang_Tbd_MTN": 3,
        "rang_Tbd_MOOV": 2,
        "rang_Tq_ORANGE": 2,
        "rang_Tq_MTN": 1,
        "rang_Tq_MOOV": 3
      },
      "id": 35
    },
    {
      "type": "Feature",
      "geometry": {
        "coordinates": [
          -6.4486,
          6.89815
        ],
        "type": "Point"
      },
      "properties": {
        "ADM0_FR": "SASSANDRA-MARAHOUE",
        "ADM0_PCODE": "CI10",
        "ADM1_FR": "HAUT-SASSANDRA",
        "ADM1_PCODE": "CI118",
        "ADM2_FR": "DALOA",
        "ADM2_PCODE": "CI1801",
        "ADM3_FR": "DALOA",
        "ADM3_PCODE": "CI180102",
        "ADM4_FR": "DALOA",
        "ADM4_PCODE": "C1779",
        "centerLat": 6.88815,
        "centerLng": -6.4486,
        "pop": 245360,
        "Te_MOOV": 15.939999999999998,
        "Tbd_MOOV": 4.6,
        "Tc_MOOV": 1.15,
        "Tq_MOOV": 10.56,
        "Te_MTN": 1.94,
        "Tbd_MTN": 58.91,
        "Tc_MTN": 31.19,
        "Tq_MTN": 0.0,
        "Te_ORANGE": 24.15,
        "Tbd_ORANGE": 81.53,
        "Tc_ORANGE": 28.03,
        "Tq_ORANGE": 1.6500000000000001,
        "rang_Te_ORANGE": 3,
        "rang_Te_MTN": 1,
        "rang_Te_MOOV": 2,
        "rang_Tc_ORANGE": 2,
        "rang_Tc_MTN": 3,
        "rang_Tc_MOOV": 1,
        "rang_Tbd_ORANGE": 1,
        "rang_Tbd_MTN": 2,
        "rang_Tbd_MOOV": 3,
        "rang_Tq_ORANGE": 2,
        "rang_Tq_MTN": 1,
        "rang_Tq_MOOV": 3
      },
      "id": 36
    },
    {
      "type": "Feature",
      "geometry": {
        "coordinates": [
          -5.77662,
          9.07715
        ],
        "type": "Point"
      },
      "properties": {
        "ADM0_FR": "SAVANES",
        "ADM0_PCODE": "CI11",
        "ADM1_FR": "PORO",
        "ADM1_PCODE": "CI128",
        "ADM2_FR": "DIKODOUGOU",
        "ADM2_PCODE": "CI2801",
        "ADM3_FR": "DIKODOUGOU",
        "ADM3_PCODE": "CI280102",
        "ADM4_FR": "DIKODOUGOU",
        "ADM4_PCODE": "C2061",
        "centerLat": 9.06715,
        "centerLng": -5.77662,
        "pop": 13953,
        "Te_MOOV": 12.839999999999998,
        "Tbd_MOOV": 11.58,
        "Tc_MOOV": 2.11,
        "Tq_MOOV": 5.62,
        "Te_MTN": 2.83,
        "Tbd_MTN": 73.79,
        "Tc_MTN": 0.0,
        "Tq_MTN": 1.94,
        "Te_ORANGE": 8.33,
        "Tbd_ORANGE": 70.71,
        "Tc_ORANGE": 10.100000000000001,
        "Tq_ORANGE": 2.13,
        "rang_Te_ORANGE": 2,
        "rang_Te_MTN": 1,
        "rang_Te_MOOV": 3,
        "rang_Tc_ORANGE": 3,
        "rang_Tc_MTN": 1,
        "rang_Tc_MOOV": 2,
        "rang_Tbd_ORANGE": 2,
        "rang_Tbd_MTN": 1,
        "rang_Tbd_MOOV": 3,
        "rang_Tq_ORANGE": 2,
        "rang_Tq_MTN": 1,
        "rang_Tq_MOOV": 3
      },
      "id": 37
    },
    {
      "type": "Feature",
      "geometry": {
        "coordinates": [
          -4.70461,
          6.6554
        ],
        "type": "Point"
      },
      "properties": {
        "ADM0_FR": "LACS",
        "ADM0_PCODE": "CI07",
        "ADM1_FR": "N'ZI",
        "ADM1_PCODE": "CI127",
        "ADM2_FR": "DIMBOKRO",
        "ADM2_PCODE": "CI2702",
        "ADM3_FR": "DIMBOKRO",
        "ADM3_PCODE": "CI270203",
        "ADM4_FR": "DIMBOKRO",
        "ADM4_PCODE": "C2073",
        "centerLat": 6.6454,
        "centerLng": -4.70461,
        "pop": 48860,
        "Te_MOOV": 9.030000000000001,
        "Tbd_MOOV": 5.34,
        "Tc_MOOV": 8.4,
        "Tq_MOOV": 1.94,
        "Te_MTN": 0.0,
        "Tbd_MTN": 52.449999999999996,
        "Tc_MTN": 2.8000000000000003,
        "Tq_MTN": 1.7500000000000002,
        "Te_ORANGE": 5.48,
        "Tbd_ORANGE": 56.52,
        "Tc_ORANGE": 21.740000000000002,
        "Tq_ORANGE": 0.0,
        "rang_Te_ORANGE": 2,
        "rang_Te_MTN": 1,
        "rang_Te_MOOV": 3,
        "rang_Tc_ORANGE": 3,
        "rang_Tc_MTN": 1,
        "rang_Tc_MOOV": 2,
        "rang_Tbd_ORANGE": 1,
        "rang_Tbd_MTN": 2,
        "rang_Tbd_MOOV": 3,
        "rang_Tq_ORANGE": 1,
        "rang_Tq_MTN": 2,
        "rang_Tq_MOOV": 3
      },
      "id": 38
    },
    {
      "type": "Feature",
      "geometry": {
        "coordinates": [
          -5.35702,
          5.84833
        ],
        "type": "Point"
      },
      "properties": {
        "ADM0_FR": "GOH-DJIBOUA",
        "ADM0_PCODE": "CI06",
        "ADM1_FR": "LOH-DJIBOUA",
        "ADM1_PCODE": "CI122",
        "ADM2_FR": "DIVO",
        "ADM2_PCODE": "CI2201",
        "ADM3_FR": "DIVO",
        "ADM3_PCODE": "CI220103",
        "ADM4_FR": "DIVO",
        "ADM4_PCODE": "C2117",
        "centerLat": 5.83833,
        "centerLng": -5.35702,
        "pop": 105397,
        "Te_MOOV": 5.0,
        "Tbd_MOOV": 53.290000000000006,
        "Tc_MOOV": 17.11,
        "Tq_MOOV": 0.76,
        "Te_MTN": 1.95,
        "Tbd_MTN": 54.97,
        "Tc_MTN": 38.41,
        "Tq_MTN": 0.8500000000000001,
        "Te_ORANGE": 7.59,
        "Tbd_ORANGE": 52.05,
        "Tc_ORANGE": 32.879999999999995,
        "Tq_ORANGE": 3.36,
        "rang_Te_ORANGE": 3,
        "rang_Te_MTN": 1,
        "rang_Te_MOOV": 2,
        "rang_Tc_ORANGE": 2,
        "rang_Tc_MTN": 3,
        "rang_Tc_MOOV": 1,
        "rang_Tbd_ORANGE": 3,
        "rang_Tbd_MTN": 1,
        "rang_Tbd_MOOV": 2,
        "rang_Tq_ORANGE": 3,
        "rang_Tq_MTN": 2,
        "rang_Tq_MOOV": 1
      },
      "id": 39
    },
    {
      "type": "Feature",
      "geometry": {
        "coordinates": [
          -7.34262,
          6.75496
        ],
        "type": "Point"
      },
      "properties": {
        "ADM0_FR": "MONTAGNES",
        "ADM0_PCODE": "CI09",
        "ADM1_FR": "GUEMON",
        "ADM1_PCODE": "CI116",
        "ADM2_FR": "DUEKOUE",
        "ADM2_PCODE": "CI1602",
        "ADM3_FR": "DUEKOUE",
        "ADM3_PCODE": "CI160202",
        "ADM4_FR": "DUEKOUE",
        "ADM4_PCODE": "C2425",
        "centerLat": 6.74496,
        "centerLng": -7.34262,
        "pop": 90274,
        "Te_MOOV": 24.0,
        "Tbd_MOOV": 1.7500000000000002,
        "Tc_MOOV": 5.26,
        "Tq_MOOV": 6.25,
        "Te_MTN": 1.52,
        "Tbd_MTN": 62.31,
        "Tc_MTN": 36.15,
        "Tq_MTN": 0.0,
        "Te_ORANGE": 15.540000000000001,
        "Tbd_ORANGE": 52.800000000000004,
        "Tc_ORANGE": 24.0,
        "Tq_ORANGE": 2.94,
        "rang_Te_ORANGE": 2,
        "rang_Te_MTN": 1,
        "rang_Te_MOOV": 3,
        "rang_Tc_ORANGE": 2,
        "rang_Tc_MTN": 3,
        "rang_Tc_MOOV": 1,
        "rang_Tbd_ORANGE": 2,
        "rang_Tbd_MTN": 1,
        "rang_Tbd_MOOV": 3,
        "rang_Tq_ORANGE": 2,
        "rang_Tq_MTN": 1,
        "rang_Tq_MOOV": 3
      },
      "id": 40
    },
    {
      "type": "Feature",
      "geometry": {
        "coordinates": [
          -5.19762,
          9.60226
        ],
        "type": "Point"
      },
      "properties": {
        "ADM0_FR": "SAVANES",
        "ADM0_PCODE": "CI11",
        "ADM1_FR": "TCHOLOGO",
        "ADM1_PCODE": "CI131",
        "ADM2_FR": "FERKESSEDOUGOU",
        "ADM2_PCODE": "CI3101",
        "ADM3_FR": "FERKESSEDOUGOU",
        "ADM3_PCODE": "CI310101",
        "ADM4_FR": "FERKESSÉDOUGOU",
        "ADM4_PCODE": "C2603",
        "centerLat": 9.59226,
        "centerLng": -5.19762,
        "pop": 55910,
        "Te_MOOV": 4.6899999999999995,
        "Tbd_MOOV": 4.17,
        "Tc_MOOV": 2.65,
        "Tq_MOOV": 1.9300000000000002,
        "Te_MTN": 4.1000000000000005,
        "Tbd_MTN": 46.69,
        "Tc_MTN": 0.0,
        "Tq_MTN": 3.29,
        "Te_ORANGE": 6.94,
        "Tbd_ORANGE": 44.4,
        "Tc_ORANGE": 15.67,
        "Tq_ORANGE": 2.7199999999999998,
        "rang_Te_ORANGE": 3,
        "rang_Te_MTN": 1,
        "rang_Te_MOOV": 2,
        "rang_Tc_ORANGE": 3,
        "rang_Tc_MTN": 1,
        "rang_Tc_MOOV": 2,
        "rang_Tbd_ORANGE": 2,
        "rang_Tbd_MTN": 1,
        "rang_Tbd_MOOV": 3,
        "rang_Tq_ORANGE": 2,
        "rang_Tq_MTN": 3,
        "rang_Tq_MOOV": 1
      },
      "id": 41
    },
    {
      "type": "Feature",
      "geometry": {
        "coordinates": [
          -5.94436,
          6.13836
        ],
        "type": "Point"
      },
      "properties": {
        "ADM0_FR": "GOH-DJIBOUA",
        "ADM0_PCODE": "CI06",
        "ADM1_FR": "GOH",
        "ADM1_PCODE": "CI113",
        "ADM2_FR": "GAGNOA",
        "ADM2_PCODE": "CI1301",
        "ADM3_FR": "GAGNOA",
        "ADM3_PCODE": "CI130106",
        "ADM4_FR": "GAGNOA",
        "ADM4_PCODE": "C2707",
        "centerLat": 6.12836,
        "centerLng": -5.94436,
        "pop": 160465,
        "Te_MOOV": 9.520000000000001,
        "Tbd_MOOV": 8.27,
        "Tc_MOOV": 3.01,
        "Tq_MOOV": 4.62,
        "Te_MTN": 5.7,
        "Tbd_MTN": 55.03,
        "Tc_MTN": 42.28,
        "Tq_MTN": 2.44,
        "Te_ORANGE": 10.76,
        "Tbd_ORANGE": 71.63000000000001,
        "Tc_ORANGE": 41.13,
        "Tq_ORANGE": 1.72,
        "rang_Te_ORANGE": 3,
        "rang_Te_MTN": 1,
        "rang_Te_MOOV": 2,
        "rang_Tc_ORANGE": 2,
        "rang_Tc_MTN": 3,
        "rang_Tc_MOOV": 1,
        "rang_Tbd_ORANGE": 1,
        "rang_Tbd_MTN": 2,
        "rang_Tbd_MOOV": 3,
        "rang_Tq_ORANGE": 1,
        "rang_Tq_MTN": 2,
        "rang_Tq_MOOV": 3
      },
      "id": 42
    },
    {
      "type": "Feature",
      "geometry": {
        "coordinates": [
          -8.13242,
          9.59468
        ],
        "type": "Point"
      },
      "properties": {
        "ADM0_FR": "DENGUELE",
        "ADM0_PCODE": "CI03",
        "ADM1_FR": "KABADOUGOU",
        "ADM1_PCODE": "CI121",
        "ADM2_FR": "GBELEBAN",
        "ADM2_PCODE": "CI2101",
        "ADM3_FR": "GBELEBAN",
        "ADM3_PCODE": "CI210101",
        "ADM4_FR": "GBÉLÉBAN",
        "ADM4_PCODE": "C2909",
        "centerLat": 9.58468,
        "centerLng": -8.13242,
        "pop": 2317,
        "Te_MOOV": "null",
        "Tbd_MOOV": "null",
        "Tc_MOOV": "null",
        "Tq_MOOV": "null",
        "Te_MTN": 0.0,
        "Tbd_MTN": 71.58,
        "Tc_MTN": 5.26,
        "Tq_MTN": 0.0,
        "Te_ORANGE": 16.3,
        "Tbd_ORANGE": 57.14,
        "Tc_ORANGE": 24.68,
        "Tq_ORANGE": 2.9899999999999998,
        "rang_Te_ORANGE": 2,
        "rang_Te_MTN": 1,
        "rang_Te_MOOV": "null",
        "rang_Tc_ORANGE": 2,
        "rang_Tc_MTN": 1,
        "rang_Tc_MOOV": "null",
        "rang_Tbd_ORANGE": 2,
        "rang_Tbd_MTN": 1,
        "rang_Tbd_MOOV": "null",
        "rang_Tq_ORANGE": 2,
        "rang_Tq_MTN": 1,
        "rang_Tq_MOOV": "null"
      },
      "id": 43
    },
    {
      "type": "Feature",
      "geometry": {
        "coordinates": [
          -6.44827,
          9.8441
        ],
        "type": "Point"
      },
      "properties": {
        "ADM0_FR": "SAVANES",
        "ADM0_PCODE": "CI11",
        "ADM1_FR": "BAGOUE",
        "ADM1_PCODE": "CI105",
        "ADM2_FR": "KOUTO",
        "ADM2_PCODE": "CI0502",
        "ADM3_FR": "GBON",
        "ADM3_PCODE": "CI050203",
        "ADM4_FR": "GBON",
        "ADM4_PCODE": "C2986",
        "centerLat": 9.8341,
        "centerLng": -6.44827,
        "pop": 9615,
        "Te_MOOV": 3.2300000000000004,
        "Tbd_MOOV": 11.110000000000001,
        "Tc_MOOV": 3.3300000000000005,
        "Tq_MOOV": 1.0999999999999999,
        "Te_MTN": 2.15,
        "Tbd_MTN": 56.04,
        "Tc_MTN": 1.0999999999999999,
        "Tq_MTN": 0.0,
        "Te_ORANGE": 8.51,
        "Tbd_ORANGE": 68.60000000000001,
        "Tc_ORANGE": 9.3,
        "Tq_ORANGE": 6.329999999999999,
        "rang_Te_ORANGE": 3,
        "rang_Te_MTN": 1,
        "rang_Te_MOOV": 2,
        "rang_Tc_ORANGE": 3,
        "rang_Tc_MTN": 1,
        "rang_Tc_MOOV": 2,
        "rang_Tbd_ORANGE": 1,
        "rang_Tbd_MTN": 2,
        "rang_Tbd_MOOV": 3,
        "rang_Tq_ORANGE": 3,
        "rang_Tq_MTN": 1,
        "rang_Tq_MOOV": 2
      },
      "id": 44
    },
    {
      "type": "Feature",
      "geometry": {
        "coordinates": [
          -5.00208,
          5.259189999999999
        ],
        "type": "Point"
      },
      "properties": {
        "ADM0_FR": "LAGUNES",
        "ADM0_PCODE": "CI08",
        "ADM1_FR": "GRANDS-PONTS",
        "ADM1_PCODE": "CI115",
        "ADM2_FR": "GRAND-LAHOU",
        "ADM2_PCODE": "CI1502",
        "ADM3_FR": "GRAND-LAHOU",
        "ADM3_PCODE": "CI150204",
        "ADM4_FR": "GRAND-LAHOU",
        "ADM4_PCODE": "C3376",
        "centerLat": 5.24919,
        "centerLng": -5.00208,
        "pop": 28470,
        "Te_MOOV": 17.169999999999998,
        "Tbd_MOOV": 12.2,
        "Tc_MOOV": 13.41,
        "Tq_MOOV": 1.97,
        "Te_MTN": 17.26,
        "Tbd_MTN": 39.26,
        "Tc_MTN": 0.0,
        "Tq_MTN": 1.94,
        "Te_ORANGE": 16.669999999999998,
        "Tbd_ORANGE": 52.12,
        "Tc_ORANGE": 20.61,
        "Tq_ORANGE": 0.74,
        "rang_Te_ORANGE": 1,
        "rang_Te_MTN": 3,
        "rang_Te_MOOV": 2,
        "rang_Tc_ORANGE": 3,
        "rang_Tc_MTN": 1,
        "rang_Tc_MOOV": 2,
        "rang_Tbd_ORANGE": 1,
        "rang_Tbd_MTN": 2,
        "rang_Tbd_MOOV": 3,
        "rang_Tq_ORANGE": 1,
        "rang_Tq_MTN": 2,
        "rang_Tq_MOOV": 3
      },
      "id": 45
    },
    {
      "type": "Feature",
      "geometry": {
        "coordinates": [
          -4.1552,
          5.83504
        ],
        "type": "Point"
      },
      "properties": {
        "ADM0_FR": "LAGUNES",
        "ADM0_PCODE": "CI08",
        "ADM1_FR": "AGNEBY-TIASSA",
        "ADM1_PCODE": "CI103",
        "ADM2_FR": "AGBOVILLE",
        "ADM2_PCODE": "CI0301",
        "ADM3_FR": "AGBOVILLE",
        "ADM3_PCODE": "CI030102",
        "ADM4_FR": "GRAND-YAPO",
        "ADM4_PCODE": "C3379",
        "centerLat": 5.82504,
        "centerLng": -4.1552,
        "pop": 4428,
        "Te_MOOV": 4.62,
        "Tbd_MOOV": 70.97,
        "Tc_MOOV": 0.0,
        "Tq_MOOV": 4.0,
        "Te_MTN": 0.0,
        "Tbd_MTN": 59.38,
        "Tc_MTN": 0.0,
        "Tq_MTN": 1.92,
        "Te_ORANGE": 0.0,
        "Tbd_ORANGE": 61.53999999999999,
        "Tc_ORANGE": 10.77,
        "Tq_ORANGE": 0.0,
        "rang_Te_ORANGE": 1,
        "rang_Te_MTN": 1,
        "rang_Te_MOOV": 3,
        "rang_Tc_ORANGE": 3,
        "rang_Tc_MTN": 1,
        "rang_Tc_MOOV": 1,
        "rang_Tbd_ORANGE": 2,
        "rang_Tbd_MTN": 3,
        "rang_Tbd_MOOV": 1,
        "rang_Tq_ORANGE": 1,
        "rang_Tq_MTN": 2,
        "rang_Tq_MOOV": 3
      },
      "id": 46
    },
    {
      "type": "Feature",
      "geometry": {
        "coordinates": [
          -5.70737,
          6.48414
        ],
        "type": "Point"
      },
      "properties": {
        "ADM0_FR": "GOH-DJIBOUA",
        "ADM0_PCODE": "CI06",
        "ADM1_FR": "GOH",
        "ADM1_PCODE": "CI113",
        "ADM2_FR": "OUME",
        "ADM2_PCODE": "CI1302",
        "ADM3_FR": "GUEPAHOUO",
        "ADM3_PCODE": "CI130203",
        "ADM4_FR": "GUÉPAHOUO",
        "ADM4_PCODE": "C3445",
        "centerLat": 6.47414,
        "centerLng": -5.70737,
        "pop": 20143,
        "Te_MOOV": 14.610000000000001,
        "Tbd_MOOV": 2.63,
        "Tc_MOOV": 0.0,
        "Tq_MOOV": 1.3299999999999998,
        "Te_MTN": 12.22,
        "Tbd_MTN": 30.380000000000003,
        "Tc_MTN": 2.53,
        "Tq_MTN": 0.0,
        "Te_ORANGE": 3.3000000000000003,
        "Tbd_ORANGE": 71.59,
        "Tc_ORANGE": 21.59,
        "Tq_ORANGE": 0.0,
        "rang_Te_ORANGE": 1,
        "rang_Te_MTN": 2,
        "rang_Te_MOOV": 3,
        "rang_Tc_ORANGE": 3,
        "rang_Tc_MTN": 2,
        "rang_Tc_MOOV": 1,
        "rang_Tbd_ORANGE": 1,
        "rang_Tbd_MTN": 2,
        "rang_Tbd_MOOV": 3,
        "rang_Tq_ORANGE": 1,
        "rang_Tq_MTN": 1,
        "rang_Tq_MOOV": 3
      },
      "id": 47
    },
    {
      "type": "Feature",
      "geometry": {
        "coordinates": [
          -7.48625,
          6.55472
        ],
        "type": "Point"
      },
      "properties": {
        "ADM0_FR": "MONTAGNES",
        "ADM0_PCODE": "CI09",
        "ADM1_FR": "CAVALLY",
        "ADM1_PCODE": "CI109",
        "ADM2_FR": "GUIGLO",
        "ADM2_PCODE": "CI0902",
        "ADM3_FR": "GUIGLO",
        "ADM3_PCODE": "CI090201",
        "ADM4_FR": "GUIGLO",
        "ADM4_PCODE": "C3495",
        "centerLat": 6.54472,
        "centerLng": -7.48625,
        "pop": 52544,
        "Te_MOOV": 20.0,
        "Tbd_MOOV": 0.7799999999999999,
        "Tc_MOOV": 1.5599999999999998,
        "Tq_MOOV": 1.63,
        "Te_MTN": 0.65,
        "Tbd_MTN": 66.23,
        "Tc_MTN": 38.96,
        "Tq_MTN": 0.0,
        "Te_ORANGE": 27.389999999999997,
        "Tbd_ORANGE": 55.26,
        "Tc_ORANGE": 26.32,
        "Tq_ORANGE": 3.3000000000000003,
        "rang_Te_ORANGE": 3,
        "rang_Te_MTN": 1,
        "rang_Te_MOOV": 2,
        "rang_Tc_ORANGE": 2,
        "rang_Tc_MTN": 3,
        "rang_Tc_MOOV": 1,
        "rang_Tbd_ORANGE": 2,
        "rang_Tbd_MTN": 1,
        "rang_Tbd_MOOV": 3,
        "rang_Tq_ORANGE": 3,
        "rang_Tq_MTN": 1,
        "rang_Tq_MOOV": 2
      },
      "id": 48
    },
    {
      "type": "Feature",
      "geometry": {
        "coordinates": [
          -5.24131,
          5.52964
        ],
        "type": "Point"
      },
      "properties": {
        "ADM0_FR": "GOH-DJIBOUA",
        "ADM0_PCODE": "CI06",
        "ADM1_FR": "LOH-DJIBOUA",
        "ADM1_PCODE": "CI122",
        "ADM2_FR": "GUITRY",
        "ADM2_PCODE": "CI2202",
        "ADM3_FR": "GUITRY",
        "ADM3_PCODE": "CI220201",
        "ADM4_FR": "GUITRY",
        "ADM4_PCODE": "C3525",
        "centerLat": 5.51964,
        "centerLng": -5.24131,
        "pop": 11445,
        "Te_MOOV": 2.25,
        "Tbd_MOOV": 22.99,
        "Tc_MOOV": 12.64,
        "Tq_MOOV": 1.1199999999999999,
        "Te_MTN": 3.37,
        "Tbd_MTN": 63.949999999999996,
        "Tc_MTN": 44.190000000000005,
        "Tq_MTN": 1.39,
        "Te_ORANGE": 10.23,
        "Tbd_ORANGE": 54.43,
        "Tc_ORANGE": 26.58,
        "Tq_ORANGE": 4.0,
        "rang_Te_ORANGE": 3,
        "rang_Te_MTN": 2,
        "rang_Te_MOOV": 1,
        "rang_Tc_ORANGE": 2,
        "rang_Tc_MTN": 3,
        "rang_Tc_MOOV": 1,
        "rang_Tbd_ORANGE": 2,
        "rang_Tbd_MTN": 1,
        "rang_Tbd_MOOV": 3,
        "rang_Tq_ORANGE": 3,
        "rang_Tq_MTN": 2,
        "rang_Tq_MOOV": 1
      },
      "id": 49
    },
    {
      "type": "Feature",
      "geometry": {
        "coordinates": [
          -6.58904,
          6.4976199999999995
        ],
        "type": "Point"
      },
      "properties": {
        "ADM0_FR": "SASSANDRA-MARAHOUE",
        "ADM0_PCODE": "CI10",
        "ADM1_FR": "HAUT-SASSANDRA",
        "ADM1_PCODE": "CI118",
        "ADM2_FR": "ISSIA",
        "ADM2_PCODE": "CI1802",
        "ADM3_FR": "ISSIA",
        "ADM3_PCODE": "CI180201",
        "ADM4_FR": "ISSIA",
        "ADM4_PCODE": "C3598",
        "centerLat": 6.48762,
        "centerLng": -6.58904,
        "pop": 52660,
        "Te_MOOV": 2.17,
        "Tbd_MOOV": 7.41,
        "Tc_MOOV": 1.48,
        "Tq_MOOV": 3.85,
        "Te_MTN": 0.69,
        "Tbd_MTN": 54.169999999999995,
        "Tc_MTN": 43.75,
        "Tq_MTN": 0.0,
        "Te_ORANGE": 4.32,
        "Tbd_ORANGE": 82.71,
        "Tc_ORANGE": 28.57,
        "Tq_ORANGE": 0.0,
        "rang_Te_ORANGE": 3,
        "rang_Te_MTN": 1,
        "rang_Te_MOOV": 2,
        "rang_Tc_ORANGE": 2,
        "rang_Tc_MTN": 3,
        "rang_Tc_MOOV": 1,
        "rang_Tbd_ORANGE": 1,
        "rang_Tbd_MTN": 2,
        "rang_Tbd_MOOV": 3,
        "rang_Tq_ORANGE": 1,
        "rang_Tq_MTN": 1,
        "rang_Tq_MOOV": 3
      },
      "id": 50
    },
    {
      "type": "Feature",
      "geometry": {
        "coordinates": [
          -4.61251,
          9.16113
        ],
        "type": "Point"
      },
      "properties": {
        "ADM0_FR": "SAVANES",
        "ADM0_PCODE": "CI11",
        "ADM1_FR": "TCHOLOGO",
        "ADM1_PCODE": "CI131",
        "ADM2_FR": "KONG",
        "ADM2_PCODE": "CI3102",
        "ADM3_FR": "KONG",
        "ADM3_PCODE": "CI310201",
        "ADM4_FR": "KONG",
        "ADM4_PCODE": "C4324",
        "centerLat": 9.15113,
        "centerLng": -4.61251,
        "pop": 11774,
        "Te_MOOV": 11.18,
        "Tbd_MOOV": 9.27,
        "Tc_MOOV": 0.66,
        "Tq_MOOV": 4.26,
        "Te_MTN": 12.280000000000001,
        "Tbd_MTN": 48.67,
        "Tc_MTN": 0.0,
        "Tq_MTN": 1.38,
        "Te_ORANGE": 22.67,
        "Tbd_ORANGE": 33.83,
        "Tc_ORANGE": 15.040000000000001,
        "Tq_ORANGE": 1.69,
        "rang_Te_ORANGE": 3,
        "rang_Te_MTN": 2,
        "rang_Te_MOOV": 1,
        "rang_Tc_ORANGE": 3,
        "rang_Tc_MTN": 1,
        "rang_Tc_MOOV": 2,
        "rang_Tbd_ORANGE": 2,
        "rang_Tbd_MTN": 1,
        "rang_Tbd_MOOV": 3,
        "rang_Tq_ORANGE": 2,
        "rang_Tq_MTN": 1,
        "rang_Tq_MOOV": 3
      },
      "id": 51
    },
    {
      "type": "Feature",
      "geometry": {
        "coordinates": [
          -5.6375,
          9.46799
        ],
        "type": "Point"
      },
      "properties": {
        "ADM0_FR": "SAVANES",
        "ADM0_PCODE": "CI11",
        "ADM1_FR": "PORO",
        "ADM1_PCODE": "CI128",
        "ADM2_FR": "KORHOGO",
        "ADM2_PCODE": "CI2802",
        "ADM3_FR": "KORHOGO",
        "ADM3_PCODE": "CI280201",
        "ADM4_FR": "KORHOGO",
        "ADM4_PCODE": "C4410",
        "centerLat": 9.45799,
        "centerLng": -5.6375,
        "pop": 243048,
        "Te_MOOV": 10.51,
        "Tbd_MOOV": 1.7399999999999998,
        "Tc_MOOV": 5.220000000000001,
        "Tq_MOOV": 4.43,
        "Te_MTN": 0.8099999999999999,
        "Tbd_MTN": 39.43,
        "Tc_MTN": 0.8099999999999999,
        "Tq_MTN": 8.94,
        "Te_ORANGE": 7.39,
        "Tbd_ORANGE": 48.32,
        "Tc_ORANGE": 26.889999999999997,
        "Tq_ORANGE": 6.529999999999999,
        "rang_Te_ORANGE": 2,
        "rang_Te_MTN": 1,
        "rang_Te_MOOV": 3,
        "rang_Tc_ORANGE": 3,
        "rang_Tc_MTN": 1,
        "rang_Tc_MOOV": 2,
        "rang_Tbd_ORANGE": 1,
        "rang_Tbd_MTN": 2,
        "rang_Tbd_MOOV": 3,
        "rang_Tq_ORANGE": 2,
        "rang_Tq_MTN": 3,
        "rang_Tq_MOOV": 1
      },
      "id": 52
    },
    {
      "type": "Feature",
      "geometry": {
        "coordinates": [
          -5.68383,
          5.85907
        ],
        "type": "Point"
      },
      "properties": {
        "ADM0_FR": "GOH-DJIBOUA",
        "ADM0_PCODE": "CI06",
        "ADM1_FR": "LOH-DJIBOUA",
        "ADM1_PCODE": "CI122",
        "ADM2_FR": "LAKOTA",
        "ADM2_PCODE": "CI2203",
        "ADM3_FR": "LAKOTA",
        "ADM3_PCODE": "CI220301",
        "ADM4_FR": "LAKOTA",
        "ADM4_PCODE": "C4974",
        "centerLat": 5.84907,
        "centerLng": -5.68383,
        "pop": 24976,
        "Te_MOOV": 8.260000000000002,
        "Tbd_MOOV": 27.0,
        "Tc_MOOV": 9.0,
        "Tq_MOOV": 2.27,
        "Te_MTN": 0.9299999999999999,
        "Tbd_MTN": 54.21,
        "Tc_MTN": 36.449999999999996,
        "Tq_MTN": 1.18,
        "Te_ORANGE": 3.6999999999999997,
        "Tbd_ORANGE": 71.15,
        "Tc_ORANGE": 25.0,
        "Tq_ORANGE": 4.6,
        "rang_Te_ORANGE": 2,
        "rang_Te_MTN": 1,
        "rang_Te_MOOV": 3,
        "rang_Tc_ORANGE": 2,
        "rang_Tc_MTN": 3,
        "rang_Tc_MOOV": 1,
        "rang_Tbd_ORANGE": 1,
        "rang_Tbd_MTN": 2,
        "rang_Tbd_MOOV": 3,
        "rang_Tq_ORANGE": 3,
        "rang_Tq_MTN": 1,
        "rang_Tq_MOOV": 2
      },
      "id": 53
    },
    {
      "type": "Feature",
      "geometry": {
        "coordinates": [
          -5.25,
          8.07
        ],
        "type": "Point"
      },
      "properties": {
        "ADM0_FR": "VALLEE DU BANDAMA",
        "ADM0_PCODE": "CI12",
        "ADM1_FR": "HAMBOL",
        "ADM1_PCODE": "CI117",
        "ADM2_FR": "KATIOLA",
        "ADM2_PCODE": "CI1702",
        "ADM3_FR": "KATIOLA",
        "ADM3_PCODE": "CI170201",
        "ADM4_FR": "LOGBONOU",
        "ADM4_PCODE": "C5145",
        "centerLat": 8.06,
        "centerLng": -5.25,
        "pop": 7545,
        "Te_MOOV": "null",
        "Tbd_MOOV": "null",
        "Tc_MOOV": "null",
        "Tq_MOOV": "null",
        "Te_MTN": 0.0,
        "Tbd_MTN": 74.63,
        "Tc_MTN": 0.0,
        "Tq_MTN": 0.0,
        "Te_ORANGE": 10.14,
        "Tbd_ORANGE": 29.03,
        "Tc_ORANGE": 17.740000000000002,
        "Tq_ORANGE": 1.8900000000000001,
        "rang_Te_ORANGE": 2,
        "rang_Te_MTN": 1,
        "rang_Te_MOOV": "null",
        "rang_Tc_ORANGE": 2,
        "rang_Tc_MTN": 1,
        "rang_Tc_MOOV": "null",
        "rang_Tbd_ORANGE": 2,
        "rang_Tbd_MTN": 1,
        "rang_Tbd_MOOV": "null",
        "rang_Tq_ORANGE": 2,
        "rang_Tq_MTN": 1,
        "rang_Tq_MOOV": "null"
      },
      "id": 54
    },
    {
      "type": "Feature",
      "geometry": {
        "coordinates": [
          -7.55442,
          7.41545
        ],
        "type": "Point"
      },
      "properties": {
        "ADM0_FR": "MONTAGNES",
        "ADM0_PCODE": "CI09",
        "ADM1_FR": "TONKPI",
        "ADM1_PCODE": "CI132",
        "ADM2_FR": "MAN",
        "ADM2_PCODE": "CI3203",
        "ADM3_FR": "MAN",
        "ADM3_PCODE": "CI320301",
        "ADM4_FR": "MAN",
        "ADM4_PCODE": "C5323",
        "centerLat": 7.40545,
        "centerLng": -7.55442,
        "pop": 149041,
        "Te_MOOV": 9.82,
        "Tbd_MOOV": 6.12,
        "Tc_MOOV": 5.4399999999999995,
        "Tq_MOOV": 7.249999999999999,
        "Te_MTN": 0.61,
        "Tbd_MTN": 72.22,
        "Tc_MTN": 28.4,
        "Tq_MTN": 0.0,
        "Te_ORANGE": 13.13,
        "Tbd_ORANGE": 54.67999999999999,
        "Tc_ORANGE": 33.09,
        "Tq_ORANGE": 1.92,
        "rang_Te_ORANGE": 3,
        "rang_Te_MTN": 1,
        "rang_Te_MOOV": 2,
        "rang_Tc_ORANGE": 3,
        "rang_Tc_MTN": 2,
        "rang_Tc_MOOV": 1,
        "rang_Tbd_ORANGE": 2,
        "rang_Tbd_MTN": 1,
        "rang_Tbd_MOOV": 3,
        "rang_Tq_ORANGE": 2,
        "rang_Tq_MTN": 1,
        "rang_Tq_MOOV": 3
      },
      "id": 55
    },
    {
      "type": "Feature",
      "geometry": {
        "coordinates": [
          -6.64906,
          6.9424399999999995
        ],
        "type": "Point"
      },
      "properties": {
        "ADM0_FR": "WOROBA",
        "ADM0_PCODE": "CI13",
        "ADM1_FR": "WORODOUGOU",
        "ADM1_PCODE": "CI133",
        "ADM2_FR": "SEGUELA",
        "ADM2_PCODE": "CI3302",
        "ADM3_FR": "WOROFLA",
        "ADM3_PCODE": "CI330207",
        "ADM4_FR": "MANKONO",
        "ADM4_PCODE": "C5355",
        "centerLat": 6.93244,
        "centerLng": -6.64906,
        "pop": 1576,
        "Te_MOOV": 2.83,
        "Tbd_MOOV": 9.71,
        "Tc_MOOV": 4.8500000000000005,
        "Tq_MOOV": 5.1499999999999995,
        "Te_MTN": 1.8900000000000001,
        "Tbd_MTN": 60.58,
        "Tc_MTN": 0.96,
        "Tq_MTN": 0.97,
        "Te_ORANGE": 0.9400000000000001,
        "Tbd_ORANGE": 77.14,
        "Tc_ORANGE": 17.14,
        "Tq_ORANGE": 1.01,
        "rang_Te_ORANGE": 1,
        "rang_Te_MTN": 2,
        "rang_Te_MOOV": 3,
        "rang_Tc_ORANGE": 3,
        "rang_Tc_MTN": 1,
        "rang_Tc_MOOV": 2,
        "rang_Tbd_ORANGE": 1,
        "rang_Tbd_MTN": 2,
        "rang_Tbd_MOOV": 3,
        "rang_Tq_ORANGE": 2,
        "rang_Tq_MTN": 1,
        "rang_Tq_MOOV": 3
      },
      "id": 56
    },
    {
      "type": "Feature",
      "geometry": {
        "coordinates": [
          -4.34,
          7.47
        ],
        "type": "Point"
      },
      "properties": {
        "ADM0_FR": "LACS",
        "ADM0_PCODE": "CI07",
        "ADM1_FR": "IFFOU",
        "ADM1_PCODE": "CI119",
        "ADM2_FR": "M'BAHIAKRO",
        "ADM2_PCODE": "CI1902",
        "ADM3_FR": "M'BAHIAKRO",
        "ADM3_PCODE": "CI190201",
        "ADM4_FR": "M'BAHIAKRO",
        "ADM4_PCODE": "C5412",
        "centerLat": 7.46,
        "centerLng": -4.34,
        "pop": 14894,
        "Te_MOOV": 6.140000000000001,
        "Tbd_MOOV": 10.280000000000001,
        "Tc_MOOV": 0.0,
        "Tq_MOOV": 12.64,
        "Te_MTN": 16.36,
        "Tbd_MTN": 52.17,
        "Tc_MTN": 4.35,
        "Tq_MTN": 0.0,
        "Te_ORANGE": 4.590000000000001,
        "Tbd_ORANGE": 66.35,
        "Tc_ORANGE": 19.23,
        "Tq_ORANGE": 5.949999999999999,
        "rang_Te_ORANGE": 1,
        "rang_Te_MTN": 3,
        "rang_Te_MOOV": 2,
        "rang_Tc_ORANGE": 3,
        "rang_Tc_MTN": 2,
        "rang_Tc_MOOV": 1,
        "rang_Tbd_ORANGE": 1,
        "rang_Tbd_MTN": 2,
        "rang_Tbd_MOOV": 3,
        "rang_Tq_ORANGE": 2,
        "rang_Tq_MTN": 1,
        "rang_Tq_MOOV": 3
      },
      "id": 57
    },
    {
      "type": "Feature",
      "geometry": {
        "coordinates": [
          -6.55634,
          5.41618
        ],
        "type": "Point"
      },
      "properties": {
        "ADM0_FR": "BAS-SASSANDRA",
        "ADM0_PCODE": "CI01",
        "ADM1_FR": "NAWA",
        "ADM1_PCODE": "CI126",
        "ADM2_FR": "MEAGUI",
        "ADM2_PCODE": "CI2603",
        "ADM3_FR": "MEAGUI",
        "ADM3_PCODE": "CI260301",
        "ADM4_FR": "MÉAGUI",
        "ADM4_PCODE": "C5452",
        "centerLat": 5.40618,
        "centerLng": -6.55634,
        "pop": 57367,
        "Te_MOOV": 3.6799999999999997,
        "Tbd_MOOV": 1.91,
        "Tc_MOOV": 0.64,
        "Tq_MOOV": 0.65,
        "Te_MTN": 1.21,
        "Tbd_MTN": 46.63,
        "Tc_MTN": 39.879999999999995,
        "Tq_MTN": 2.11,
        "Te_ORANGE": 1.82,
        "Tbd_ORANGE": 82.72,
        "Tc_ORANGE": 33.33,
        "Tq_ORANGE": 0.0,
        "rang_Te_ORANGE": 2,
        "rang_Te_MTN": 1,
        "rang_Te_MOOV": 3,
        "rang_Tc_ORANGE": 2,
        "rang_Tc_MTN": 3,
        "rang_Tc_MOOV": 1,
        "rang_Tbd_ORANGE": 1,
        "rang_Tbd_MTN": 2,
        "rang_Tbd_MOOV": 3,
        "rang_Tq_ORANGE": 1,
        "rang_Tq_MTN": 3,
        "rang_Tq_MOOV": 2
      },
      "id": 58
    },
    {
      "type": "Feature",
      "geometry": {
        "coordinates": [
          -7.56213,
          9.516869999999999
        ],
        "type": "Point"
      },
      "properties": {
        "ADM0_FR": "DENGUELE",
        "ADM0_PCODE": "CI03",
        "ADM1_FR": "KABADOUGOU",
        "ADM1_PCODE": "CI121",
        "ADM2_FR": "ODIENNE",
        "ADM2_PCODE": "CI2103",
        "ADM3_FR": "ODIENNE",
        "ADM3_PCODE": "CI210301",
        "ADM4_FR": "ODIENNE",
        "ADM4_PCODE": "C6210",
        "centerLat": 9.50687,
        "centerLng": -7.56213,
        "pop": 42173,
        "Te_MOOV": 1.39,
        "Tbd_MOOV": 7.75,
        "Tc_MOOV": 0.0,
        "Tq_MOOV": 0.0,
        "Te_MTN": 0.0,
        "Tbd_MTN": 61.809999999999995,
        "Tc_MTN": 35.42,
        "Tq_MTN": 0.0,
        "Te_ORANGE": 16.669999999999998,
        "Tbd_ORANGE": 65.83,
        "Tc_ORANGE": 41.67,
        "Tq_ORANGE": 0.0,
        "rang_Te_ORANGE": 3,
        "rang_Te_MTN": 1,
        "rang_Te_MOOV": 2,
        "rang_Tc_ORANGE": 3,
        "rang_Tc_MTN": 2,
        "rang_Tc_MOOV": 1,
        "rang_Tbd_ORANGE": 1,
        "rang_Tbd_MTN": 2,
        "rang_Tbd_MOOV": 3,
        "rang_Tq_ORANGE": 1,
        "rang_Tq_MTN": 1,
        "rang_Tq_MOOV": 1
      },
      "id": 59
    },
    {
      "type": "Feature",
      "geometry": {
        "coordinates": [
          -5.15419,
          9.97711
        ],
        "type": "Point"
      },
      "properties": {
        "ADM0_FR": "SAVANES",
        "ADM0_PCODE": "CI11",
        "ADM1_FR": "TCHOLOGO",
        "ADM1_PCODE": "CI131",
        "ADM2_FR": "OUANGOLODOUGOU",
        "ADM2_PCODE": "CI3103",
        "ADM3_FR": "OUANGOLODOUGOU",
        "ADM3_PCODE": "CI310301",
        "ADM4_FR": "OUANGOLODOUGOU",
        "ADM4_PCODE": "C6291",
        "centerLat": 9.96711,
        "centerLng": -5.15419,
        "pop": 37991,
        "Te_MOOV": 15.52,
        "Tbd_MOOV": 1.3599999999999999,
        "Tc_MOOV": 2.04,
        "Tq_MOOV": 0.8099999999999999,
        "Te_MTN": 5.75,
        "Tbd_MTN": 46.339999999999996,
        "Tc_MTN": 0.0,
        "Tq_MTN": 7.19,
        "Te_ORANGE": 5.65,
        "Tbd_ORANGE": 47.9,
        "Tc_ORANGE": 18.56,
        "Tq_ORANGE": 11.81,
        "rang_Te_ORANGE": 1,
        "rang_Te_MTN": 2,
        "rang_Te_MOOV": 3,
        "rang_Tc_ORANGE": 3,
        "rang_Tc_MTN": 1,
        "rang_Tc_MOOV": 2,
        "rang_Tbd_ORANGE": 1,
        "rang_Tbd_MTN": 2,
        "rang_Tbd_MOOV": 3,
        "rang_Tq_ORANGE": 3,
        "rang_Tq_MTN": 2,
        "rang_Tq_MOOV": 1
      },
      "id": 60
    },
    {
      "type": "Feature",
      "geometry": {
        "coordinates": [
          -6.3233,
          9.53571
        ],
        "type": "Point"
      },
      "properties": {
        "ADM0_FR": "SAVANES",
        "ADM0_PCODE": "CI11",
        "ADM1_FR": "BAGOUE",
        "ADM1_PCODE": "CI105",
        "ADM2_FR": "BOUNDIALI",
        "ADM2_PCODE": "CI0501",
        "ADM3_FR": "SIEMPURGO",
        "ADM3_PCODE": "CI050105",
        "ADM4_FR": "PONONDOUGOU",
        "ADM4_PCODE": "C6608",
        "centerLat": 9.52571,
        "centerLng": -6.3233,
        "pop": 2085,
        "Te_MOOV": "null",
        "Tbd_MOOV": "null",
        "Tc_MOOV": "null",
        "Tq_MOOV": "null",
        "Te_MTN": 1.43,
        "Tbd_MTN": 69.57,
        "Tc_MTN": 0.0,
        "Tq_MTN": 0.0,
        "Te_ORANGE": 18.57,
        "Tbd_ORANGE": 43.86,
        "Tc_ORANGE": 5.26,
        "Tq_ORANGE": 5.45,
        "rang_Te_ORANGE": 2,
        "rang_Te_MTN": 1,
        "rang_Te_MOOV": "null",
        "rang_Tc_ORANGE": 2,
        "rang_Tc_MTN": 1,
        "rang_Tc_MOOV": "null",
        "rang_Tbd_ORANGE": 2,
        "rang_Tbd_MTN": 1,
        "rang_Tbd_MOOV": "null",
        "rang_Tq_ORANGE": 2,
        "rang_Tq_MTN": 1,
        "rang_Tq_MOOV": "null"
      },
      "id": 61
    },
    {
      "type": "Feature",
      "geometry": {
        "coordinates": [
          -4.8892,
          7.41157
        ],
        "type": "Point"
      },
      "properties": {
        "ADM0_FR": "LACS",
        "ADM0_PCODE": "CI07",
        "ADM1_FR": "BELIER",
        "ADM1_PCODE": "CI106",
        "ADM2_FR": "DIDIEVI",
        "ADM2_PCODE": "CI0601",
        "ADM3_FR": "RAVIART",
        "ADM3_PCODE": "CI060104",
        "ADM4_FR": "RAVIART",
        "ADM4_PCODE": "C6662",
        "centerLat": 7.40157,
        "centerLng": -4.8892,
        "pop": 6047,
        "Te_MOOV": "null",
        "Tbd_MOOV": "null",
        "Tc_MOOV": "null",
        "Tq_MOOV": "null",
        "Te_MTN": 6.98,
        "Tbd_MTN": 60.0,
        "Tc_MTN": 0.0,
        "Tq_MTN": 0.0,
        "Te_ORANGE": 36.36,
        "Tbd_ORANGE": 50.0,
        "Tc_ORANGE": 3.5700000000000003,
        "Tq_ORANGE": 0.0,
        "rang_Te_ORANGE": 2,
        "rang_Te_MTN": 1,
        "rang_Te_MOOV": "null",
        "rang_Tc_ORANGE": 2,
        "rang_Tc_MTN": 1,
        "rang_Tc_MOOV": "null",
        "rang_Tbd_ORANGE": 2,
        "rang_Tbd_MTN": 1,
        "rang_Tbd_MOOV": "null",
        "rang_Tq_ORANGE": 1,
        "rang_Tq_MTN": 1,
        "rang_Tq_MOOV": "null"
      },
      "id": 62
    },
    {
      "type": "Feature",
      "geometry": {
        "coordinates": [
          -6.61973,
          4.7480899999999995
        ],
        "type": "Point"
      },
      "properties": {
        "ADM0_FR": "BAS-SASSANDRA",
        "ADM0_PCODE": "CI01",
        "ADM1_FR": "SAN-PEDRO",
        "ADM1_PCODE": "CI129",
        "ADM2_FR": "SAN-PEDRO",
        "ADM2_PCODE": "CI2901",
        "ADM3_FR": "SAN-PEDRO",
        "ADM3_PCODE": "CI290101",
        "ADM4_FR": "SAN-PEDRO",
        "ADM4_PCODE": "C6807",
        "centerLat": 4.73809,
        "centerLng": -6.61973,
        "pop": 164944,
        "Te_MOOV": 13.68,
        "Tbd_MOOV": 21.45,
        "Tc_MOOV": 25.080000000000002,
        "Tq_MOOV": 4.81,
        "Te_MTN": 14.41,
        "Tbd_MTN": 39.6,
        "Tc_MTN": 30.36,
        "Tq_MTN": 4.9799999999999995,
        "Te_ORANGE": 19.89,
        "Tbd_ORANGE": 72.52,
        "Tc_ORANGE": 22.85,
        "Tq_ORANGE": 3.09,
        "rang_Te_ORANGE": 3,
        "rang_Te_MTN": 2,
        "rang_Te_MOOV": 1,
        "rang_Tc_ORANGE": 1,
        "rang_Tc_MTN": 3,
        "rang_Tc_MOOV": 2,
        "rang_Tbd_ORANGE": 1,
        "rang_Tbd_MTN": 2,
        "rang_Tbd_MOOV": 3,
        "rang_Tq_ORANGE": 1,
        "rang_Tq_MTN": 3,
        "rang_Tq_MOOV": 2
      },
      "id": 63
    },
    {
      "type": "Feature",
      "geometry": {
        "coordinates": [
          -6.67313,
          7.97253
        ],
        "type": "Point"
      },
      "properties": {
        "ADM0_FR": "WOROBA",
        "ADM0_PCODE": "CI13",
        "ADM1_FR": "WORODOUGOU",
        "ADM1_PCODE": "CI133",
        "ADM2_FR": "SEGUELA",
        "ADM2_PCODE": "CI3302",
        "ADM3_FR": "SEGUELA",
        "ADM3_PCODE": "CI330201",
        "ADM4_FR": "SÉGUÉLA",
        "ADM4_PCODE": "C6882",
        "centerLat": 7.96253,
        "centerLng": -6.67313,
        "pop": 46189,
        "Te_MOOV": 5.92,
        "Tbd_MOOV": 9.790000000000001,
        "Tc_MOOV": 5.59,
        "Tq_MOOV": 9.29,
        "Te_MTN": 3.95,
        "Tbd_MTN": 47.260000000000005,
        "Tc_MTN": 36.99,
        "Tq_MTN": 26.150000000000002,
        "Te_ORANGE": 9.87,
        "Tbd_ORANGE": 71.53,
        "Tc_ORANGE": 29.2,
        "Tq_ORANGE": 3.2300000000000004,
        "rang_Te_ORANGE": 3,
        "rang_Te_MTN": 1,
        "rang_Te_MOOV": 2,
        "rang_Tc_ORANGE": 2,
        "rang_Tc_MTN": 3,
        "rang_Tc_MOOV": 1,
        "rang_Tbd_ORANGE": 1,
        "rang_Tbd_MTN": 2,
        "rang_Tbd_MOOV": 3,
        "rang_Tq_ORANGE": 1,
        "rang_Tq_MTN": 3,
        "rang_Tq_MOOV": 2
      },
      "id": 64
    },
    {
      "type": "Feature",
      "geometry": {
        "coordinates": [
          -4.71605,
          9.45204
        ],
        "type": "Point"
      },
      "properties": {
        "ADM0_FR": "SAVANES",
        "ADM0_PCODE": "CI11",
        "ADM1_FR": "TCHOLOGO",
        "ADM1_PCODE": "CI131",
        "ADM2_FR": "KONG",
        "ADM2_PCODE": "CI3102",
        "ADM3_FR": "SIKOLO",
        "ADM3_PCODE": "CI310204",
        "ADM4_FR": "SIKOLO",
        "ADM4_PCODE": "C7023",
        "centerLat": 9.44204,
        "centerLng": -4.71605,
        "pop": 3384,
        "Te_MOOV": "null",
        "Tbd_MOOV": "null",
        "Tc_MOOV": "null",
        "Tq_MOOV": "null",
        "Te_MTN": 0.0,
        "Tbd_MTN": 48.72,
        "Tc_MTN": 0.0,
        "Tq_MTN": 1.77,
        "Te_ORANGE": 1.71,
        "Tbd_ORANGE": 51.300000000000004,
        "Tc_ORANGE": 10.43,
        "Tq_ORANGE": 6.0,
        "rang_Te_ORANGE": 2,
        "rang_Te_MTN": 1,
        "rang_Te_MOOV": "null",
        "rang_Tc_ORANGE": 2,
        "rang_Tc_MTN": 1,
        "rang_Tc_MOOV": "null",
        "rang_Tbd_ORANGE": 1,
        "rang_Tbd_MTN": 2,
        "rang_Tbd_MOOV": "null",
        "rang_Tq_ORANGE": 2,
        "rang_Tq_MTN": 1,
        "rang_Tq_MOOV": "null"
      },
      "id": 65
    },
    {
      "type": "Feature",
      "geometry": {
        "coordinates": [
          -5.91517,
          6.63035
        ],
        "type": "Point"
      },
      "properties": {
        "ADM0_FR": "SASSANDRA-MARAHOUE",
        "ADM0_PCODE": "CI10",
        "ADM1_FR": "MARAHOUE",
        "ADM1_PCODE": "CI123",
        "ADM2_FR": "SINFRA",
        "ADM2_PCODE": "CI2302",
        "ADM3_FR": "SINFRA",
        "ADM3_PCODE": "CI230201",
        "ADM4_FR": "SINFRA",
        "ADM4_PCODE": "C7045",
        "centerLat": 6.62035,
        "centerLng": -5.91517,
        "pop": 80658,
        "Te_MOOV": 41.18,
        "Tbd_MOOV": 2.86,
        "Tc_MOOV": 0.0,
        "Tq_MOOV": 1.4500000000000002,
        "Te_MTN": 8.4,
        "Tbd_MTN": 55.05,
        "Tc_MTN": 0.9199999999999999,
        "Tq_MTN": 0.0,
        "Te_ORANGE": 8.89,
        "Tbd_ORANGE": 75.61,
        "Tc_ORANGE": 25.61,
        "Tq_ORANGE": 1.47,
        "rang_Te_ORANGE": 2,
        "rang_Te_MTN": 1,
        "rang_Te_MOOV": 3,
        "rang_Tc_ORANGE": 3,
        "rang_Tc_MTN": 2,
        "rang_Tc_MOOV": 1,
        "rang_Tbd_ORANGE": 1,
        "rang_Tbd_MTN": 2,
        "rang_Tbd_MOOV": 3,
        "rang_Tq_ORANGE": 3,
        "rang_Tq_MTN": 1,
        "rang_Tq_MOOV": 2
      },
      "id": 66
    },
    {
      "type": "Feature",
      "geometry": {
        "coordinates": [
          -6.59,
          5.79
        ],
        "type": "Point"
      },
      "properties": {
        "ADM0_FR": "COMOE",
        "ADM0_PCODE": "CI02",
        "ADM1_FR": "SUD-COMOE",
        "ADM1_PCODE": "CI130",
        "ADM2_FR": "ABOISSO",
        "ADM2_PCODE": "CI3001",
        "ADM3_FR": "BIANOUAN",
        "ADM3_PCODE": "CI300105",
        "ADM4_FR": "SOUBRÉ",
        "ADM4_PCODE": "C7241",
        "centerLat": 5.78,
        "centerLng": -6.59,
        "pop": 1421,
        "Te_MOOV": 11.33,
        "Tbd_MOOV": 6.02,
        "Tc_MOOV": 0.75,
        "Tq_MOOV": 3.82,
        "Te_MTN": 0.0,
        "Tbd_MTN": 53.949999999999996,
        "Tc_MTN": 29.609999999999996,
        "Tq_MTN": 0.76,
        "Te_ORANGE": 8.67,
        "Tbd_ORANGE": 73.72,
        "Tc_ORANGE": 33.58,
        "Tq_ORANGE": 1.69,
        "rang_Te_ORANGE": 2,
        "rang_Te_MTN": 1,
        "rang_Te_MOOV": 3,
        "rang_Tc_ORANGE": 3,
        "rang_Tc_MTN": 2,
        "rang_Tc_MOOV": 1,
        "rang_Tbd_ORANGE": 1,
        "rang_Tbd_MTN": 2,
        "rang_Tbd_MOOV": 3,
        "rang_Tq_ORANGE": 2,
        "rang_Tq_MTN": 1,
        "rang_Tq_MOOV": 3
      },
      "id": 67
    },
    {
      "type": "Feature",
      "geometry": {
        "coordinates": [
          -5.16212,
          9.08022
        ],
        "type": "Point"
      },
      "properties": {
        "ADM0_FR": "VALLEE DU BANDAMA",
        "ADM0_PCODE": "CI12",
        "ADM1_FR": "HAMBOL",
        "ADM1_PCODE": "CI117",
        "ADM2_FR": "NIAKARAMADOUGOU",
        "ADM2_PCODE": "CI1703",
        "ADM3_FR": "TAFIRE",
        "ADM3_PCODE": "CI170305",
        "ADM4_FR": "TAFIRE",
        "ADM4_PCODE": "C7314",
        "centerLat": 9.07022,
        "centerLng": -5.16212,
        "pop": 17191,
        "Te_MOOV": 3.09,
        "Tbd_MOOV": 3.82,
        "Tc_MOOV": 0.0,
        "Tq_MOOV": 1.35,
        "Te_MTN": 1.23,
        "Tbd_MTN": 51.55,
        "Tc_MTN": 0.62,
        "Tq_MTN": 2.58,
        "Te_ORANGE": 6.75,
        "Tbd_ORANGE": 50.0,
        "Tc_ORANGE": 7.24,
        "Tq_ORANGE": 1.52,
        "rang_Te_ORANGE": 3,
        "rang_Te_MTN": 1,
        "rang_Te_MOOV": 2,
        "rang_Tc_ORANGE": 3,
        "rang_Tc_MTN": 2,
        "rang_Tc_MOOV": 1,
        "rang_Tbd_ORANGE": 2,
        "rang_Tbd_MTN": 1,
        "rang_Tbd_MOOV": 3,
        "rang_Tq_ORANGE": 2,
        "rang_Tq_MTN": 3,
        "rang_Tq_MOOV": 1
      },
      "id": 68
    },
    {
      "type": "Feature",
      "geometry": {
        "coordinates": [
          -3.16789,
          7.81253
        ],
        "type": "Point"
      },
      "properties": {
        "ADM0_FR": "ZANZAN",
        "ADM0_PCODE": "CI14",
        "ADM1_FR": "GONTOUGO",
        "ADM1_PCODE": "CI114",
        "ADM2_FR": "TANDA",
        "ADM2_PCODE": "CI1404",
        "ADM3_FR": "TANDA",
        "ADM3_PCODE": "CI140401",
        "ADM4_FR": "TANDA",
        "ADM4_PCODE": "C7386",
        "centerLat": 7.80253,
        "centerLng": -3.16789,
        "pop": 27659,
        "Te_MOOV": 3.2300000000000004,
        "Tbd_MOOV": 15.83,
        "Tc_MOOV": 11.67,
        "Tq_MOOV": 1.03,
        "Te_MTN": 0.0,
        "Tbd_MTN": 61.6,
        "Tc_MTN": 0.8,
        "Tq_MTN": 2.86,
        "Te_ORANGE": 5.510000000000001,
        "Tbd_ORANGE": 65.0,
        "Tc_ORANGE": 26.669999999999998,
        "Tq_ORANGE": 4.35,
        "rang_Te_ORANGE": 3,
        "rang_Te_MTN": 1,
        "rang_Te_MOOV": 2,
        "rang_Tc_ORANGE": 3,
        "rang_Tc_MTN": 1,
        "rang_Tc_MOOV": 2,
        "rang_Tbd_ORANGE": 1,
        "rang_Tbd_MTN": 2,
        "rang_Tbd_MOOV": 3,
        "rang_Tq_ORANGE": 3,
        "rang_Tq_MTN": 2,
        "rang_Tq_MOOV": 1
      },
      "id": 69
    },
    {
      "type": "Feature",
      "geometry": {
        "coordinates": [
          -6.41061,
          10.499
        ],
        "type": "Point"
      },
      "properties": {
        "ADM0_FR": "SAVANES",
        "ADM0_PCODE": "CI11",
        "ADM1_FR": "BAGOUE",
        "ADM1_PCODE": "CI105",
        "ADM2_FR": "TENGRELA",
        "ADM2_PCODE": "CI0503",
        "ADM3_FR": "TENGRELA",
        "ADM3_PCODE": "CI050301",
        "ADM4_FR": "TENGRELA",
        "ADM4_PCODE": "C7513",
        "centerLat": 10.489,
        "centerLng": -6.41061,
        "pop": 40323,
        "Te_MOOV": 2.33,
        "Tbd_MOOV": 7.9399999999999995,
        "Tc_MOOV": 0.79,
        "Tq_MOOV": 3.2,
        "Te_MTN": 24.43,
        "Tbd_MTN": 45.45,
        "Tc_MTN": 1.01,
        "Tq_MTN": 3.09,
        "Te_ORANGE": 0.77,
        "Tbd_ORANGE": 59.69,
        "Tc_ORANGE": 17.83,
        "Tq_ORANGE": 0.88,
        "rang_Te_ORANGE": 1,
        "rang_Te_MTN": 3,
        "rang_Te_MOOV": 2,
        "rang_Tc_ORANGE": 3,
        "rang_Tc_MTN": 2,
        "rang_Tc_MOOV": 1,
        "rang_Tbd_ORANGE": 1,
        "rang_Tbd_MTN": 2,
        "rang_Tbd_MOOV": 3,
        "rang_Tq_ORANGE": 1,
        "rang_Tq_MTN": 2,
        "rang_Tq_MOOV": 3
      },
      "id": 70
    },
    {
      "type": "Feature",
      "geometry": {
        "coordinates": [
          -4.66225,
          7.72436
        ],
        "type": "Point"
      },
      "properties": {
        "ADM0_FR": "LACS",
        "ADM0_PCODE": "CI07",
        "ADM1_FR": "BELIER",
        "ADM1_PCODE": "CI106",
        "ADM2_FR": "TIEBISSOU",
        "ADM2_PCODE": "CI0603",
        "ADM3_FR": "TIEBISSOU",
        "ADM3_PCODE": "CI060301",
        "ADM4_FR": "TIÉBISSOU",
        "ADM4_PCODE": "C7574",
        "centerLat": 7.71436,
        "centerLng": -4.66225,
        "pop": 18832,
        "Te_MOOV": 20.990000000000002,
        "Tbd_MOOV": 4.9,
        "Tc_MOOV": 18.18,
        "Tq_MOOV": 8.0,
        "Te_MTN": 17.299999999999997,
        "Tbd_MTN": 58.81999999999999,
        "Tc_MTN": 0.0,
        "Tq_MTN": 0.0,
        "Te_ORANGE": 22.46,
        "Tbd_ORANGE": 76.55,
        "Tc_ORANGE": 12.41,
        "Tq_ORANGE": 0.89,
        "rang_Te_ORANGE": 3,
        "rang_Te_MTN": 1,
        "rang_Te_MOOV": 2,
        "rang_Tc_ORANGE": 2,
        "rang_Tc_MTN": 1,
        "rang_Tc_MOOV": 3,
        "rang_Tbd_ORANGE": 1,
        "rang_Tbd_MTN": 2,
        "rang_Tbd_MOOV": 3,
        "rang_Tq_ORANGE": 2,
        "rang_Tq_MTN": 1,
        "rang_Tq_MOOV": 3
      },
      "id": 71
    },
    {
      "type": "Feature",
      "geometry": {
        "coordinates": [
          -7.31834,
          9.55501
        ],
        "type": "Point"
      },
      "properties": {
        "ADM0_FR": "DENGUELE",
        "ADM0_PCODE": "CI03",
        "ADM1_FR": "KABADOUGOU",
        "ADM1_PCODE": "CI121",
        "ADM2_FR": "ODIENNE",
        "ADM2_PCODE": "CI2103",
        "ADM3_FR": "TIEME",
        "ADM3_PCODE": "CI210305",
        "ADM4_FR": "TIEME",
        "ADM4_PCODE": "C7613",
        "centerLat": 9.54501,
        "centerLng": -7.31834,
        "pop": 6267,
        "Te_MOOV": 0.0,
        "Tbd_MOOV": 15.89,
        "Tc_MOOV": 1.87,
        "Tq_MOOV": 0.95,
        "Te_MTN": 1.8499999999999999,
        "Tbd_MTN": 62.260000000000005,
        "Tc_MTN": 33.96,
        "Tq_MTN": 1.0999999999999999,
        "Te_ORANGE": 19.439999999999998,
        "Tbd_ORANGE": 62.07,
        "Tc_ORANGE": 1.15,
        "Tq_ORANGE": 0.0,
        "rang_Te_ORANGE": 3,
        "rang_Te_MTN": 2,
        "rang_Te_MOOV": 1,
        "rang_Tc_ORANGE": 1,
        "rang_Tc_MTN": 3,
        "rang_Tc_MOOV": 2,
        "rang_Tbd_ORANGE": 2,
        "rang_Tbd_MTN": 1,
        "rang_Tbd_MOOV": 3,
        "rang_Tq_ORANGE": 1,
        "rang_Tq_MTN": 3,
        "rang_Tq_MOOV": 2
      },
      "id": 72
    },
    {
      "type": "Feature",
      "geometry": {
        "coordinates": [
          -5.67854,
          8.7752
        ],
        "type": "Point"
      },
      "properties": {
        "ADM0_FR": "VALLEE DU BANDAMA",
        "ADM0_PCODE": "CI12",
        "ADM1_FR": "HAMBOL",
        "ADM1_PCODE": "CI117",
        "ADM2_FR": "NIAKARAMADOUGOU",
        "ADM2_PCODE": "CI1703",
        "ADM3_FR": "TORTIYA",
        "ADM3_PCODE": "CI170306",
        "ADM4_FR": "TORTIYA",
        "ADM4_PCODE": "C7808",
        "centerLat": 8.7652,
        "centerLng": -5.67854,
        "pop": 15998,
        "Te_MOOV": 6.25,
        "Tbd_MOOV": 7.5,
        "Tc_MOOV": 1.67,
        "Tq_MOOV": 27.27,
        "Te_MTN": 10.24,
        "Tbd_MTN": 55.26,
        "Tc_MTN": 0.0,
        "Tq_MTN": 0.9400000000000001,
        "Te_ORANGE": 8.53,
        "Tbd_ORANGE": 68.64,
        "Tc_ORANGE": 23.73,
        "Tq_ORANGE": 2.17,
        "rang_Te_ORANGE": 2,
        "rang_Te_MTN": 3,
        "rang_Te_MOOV": 1,
        "rang_Tc_ORANGE": 3,
        "rang_Tc_MTN": 1,
        "rang_Tc_MOOV": 2,
        "rang_Tbd_ORANGE": 1,
        "rang_Tbd_MTN": 2,
        "rang_Tbd_MOOV": 3,
        "rang_Tq_ORANGE": 2,
        "rang_Tq_MTN": 1,
        "rang_Tq_MOOV": 3
      },
      "id": 73
    },
    {
      "type": "Feature",
      "geometry": {
        "coordinates": [
          -7.68063,
          8.29504
        ],
        "type": "Point"
      },
      "properties": {
        "ADM0_FR": "WOROBA",
        "ADM0_PCODE": "CI13",
        "ADM1_FR": "BAFING",
        "ADM1_PCODE": "CI104",
        "ADM2_FR": "TOUBA",
        "ADM2_PCODE": "CI0403",
        "ADM3_FR": "TOUBA",
        "ADM3_PCODE": "CI040301",
        "ADM4_FR": "TOUBA",
        "ADM4_PCODE": "C7832",
        "centerLat": 8.28504,
        "centerLng": -7.68063,
        "pop": 22361,
        "Te_MOOV": 6.84,
        "Tbd_MOOV": 6.419999999999999,
        "Tc_MOOV": 3.6700000000000004,
        "Tq_MOOV": 0.97,
        "Te_MTN": 0.8500000000000001,
        "Tbd_MTN": 67.24,
        "Tc_MTN": 26.72,
        "Tq_MTN": 2.94,
        "Te_ORANGE": 13.450000000000001,
        "Tbd_ORANGE": 49.51,
        "Tc_ORANGE": 31.069999999999997,
        "Tq_ORANGE": 7.41,
        "rang_Te_ORANGE": 3,
        "rang_Te_MTN": 1,
        "rang_Te_MOOV": 2,
        "rang_Tc_ORANGE": 3,
        "rang_Tc_MTN": 2,
        "rang_Tc_MOOV": 1,
        "rang_Tbd_ORANGE": 2,
        "rang_Tbd_MTN": 1,
        "rang_Tbd_MOOV": 3,
        "rang_Tq_ORANGE": 3,
        "rang_Tq_MTN": 2,
        "rang_Tq_MOOV": 1
      },
      "id": 74
    },
    {
      "type": "Feature",
      "geometry": {
        "coordinates": [
          -6.48051,
          7.38748
        ],
        "type": "Point"
      },
      "properties": {
        "ADM0_FR": "SASSANDRA-MARAHOUE",
        "ADM0_PCODE": "CI10",
        "ADM1_FR": "HAUT-SASSANDRA",
        "ADM1_PCODE": "CI118",
        "ADM2_FR": "VAVOUA",
        "ADM2_PCODE": "CI1803",
        "ADM3_FR": "VAVOUA",
        "ADM3_PCODE": "CI180301",
        "ADM4_FR": "VAVOUA",
        "ADM4_PCODE": "C7965",
        "centerLat": 7.37748,
        "centerLng": -6.48051,
        "pop": 67096,
        "Te_MOOV": 0.79,
        "Tbd_MOOV": 4.760000000000001,
        "Tc_MOOV": 3.17,
        "Tq_MOOV": 5.9799999999999995,
        "Te_MTN": 7.6899999999999995,
        "Tbd_MTN": 51.67,
        "Tc_MTN": 35.83,
        "Tq_MTN": 16.669999999999998,
        "Te_ORANGE": 7.580000000000001,
        "Tbd_ORANGE": 60.660000000000004,
        "Tc_ORANGE": 22.95,
        "Tq_ORANGE": 0.0,
        "rang_Te_ORANGE": 2,
        "rang_Te_MTN": 3,
        "rang_Te_MOOV": 1,
        "rang_Tc_ORANGE": 2,
        "rang_Tc_MTN": 3,
        "rang_Tc_MOOV": 1,
        "rang_Tbd_ORANGE": 1,
        "rang_Tbd_MTN": 2,
        "rang_Tbd_MOOV": 3,
        "rang_Tq_ORANGE": 1,
        "rang_Tq_MTN": 3,
        "rang_Tq_MOOV": 2
      },
      "id": 75
    },
    {
      "type": "Feature",
      "geometry": {
        "coordinates": [
          -5.27786,
          6.82819
        ],
        "type": "Point"
      },
      "properties": {
        "ADM0_FR": "DISTRICT AUTONOME DE YAMOUSSOUKRO",
        "ADM0_PCODE": "CI05",
        "ADM1_FR": "DISTRICT AUTONOME DE YAMOUSSOUKRO",
        "ADM1_PCODE": "CI102",
        "ADM2_FR": "YAMOUSSOUKRO",
        "ADM2_PCODE": "CI0202",
        "ADM3_FR": "YAMOUSSOUKRO",
        "ADM3_PCODE": "CI020201",
        "ADM4_FR": "YAMOUSSOUKRO",
        "ADM4_PCODE": "C8092",
        "centerLat": 6.81819,
        "centerLng": -5.27786,
        "pop": 212670,
        "Te_MOOV": 5.86,
        "Tbd_MOOV": 2.1999999999999997,
        "Tc_MOOV": 1.83,
        "Tq_MOOV": 0.0,
        "Te_MTN": 3.7199999999999998,
        "Tbd_MTN": 45.96,
        "Tc_MTN": 0.35000000000000003,
        "Tq_MTN": 0.37,
        "Te_ORANGE": 11.86,
        "Tbd_ORANGE": 59.64,
        "Tc_ORANGE": 22.91,
        "Tq_ORANGE": 3.5700000000000003,
        "rang_Te_ORANGE": 3,
        "rang_Te_MTN": 1,
        "rang_Te_MOOV": 2,
        "rang_Tc_ORANGE": 3,
        "rang_Tc_MTN": 1,
        "rang_Tc_MOOV": 2,
        "rang_Tbd_ORANGE": 1,
        "rang_Tbd_MTN": 2,
        "rang_Tbd_MOOV": 3,
        "rang_Tq_ORANGE": 3,
        "rang_Tq_MTN": 2,
        "rang_Tq_MOOV": 1
      },
      "id": 76
    },
    {
      "type": "Feature",
      "geometry": {
        "coordinates": [
          -7.48543,
          6.22155
        ],
        "type": "Point"
      },
      "properties": {
        "ADM0_FR": "MONTAGNES",
        "ADM0_PCODE": "CI09",
        "ADM1_FR": "CAVALLY",
        "ADM1_PCODE": "CI109",
        "ADM2_FR": "TAÏ",
        "ADM2_PCODE": "CI0903",
        "ADM3_FR": "ZAGNE",
        "ADM3_PCODE": "CI090302",
        "ADM4_FR": "ZAGNE",
        "ADM4_PCODE": "C8263",
        "centerLat": 6.21155,
        "centerLng": -7.48543,
        "pop": 48863,
        "Te_MOOV": 6.67,
        "Tbd_MOOV": 7.140000000000001,
        "Tc_MOOV": 0.0,
        "Tq_MOOV": 0.0,
        "Te_MTN": 0.0,
        "Tbd_MTN": 66.28,
        "Tc_MTN": 38.37,
        "Tq_MTN": 9.379999999999999,
        "Te_ORANGE": 42.22,
        "Tbd_ORANGE": 59.62,
        "Tc_ORANGE": 30.769999999999996,
        "Tq_ORANGE": 4.65,
        "rang_Te_ORANGE": 3,
        "rang_Te_MTN": 1,
        "rang_Te_MOOV": 2,
        "rang_Tc_ORANGE": 2,
        "rang_Tc_MTN": 3,
        "rang_Tc_MOOV": 1,
        "rang_Tbd_ORANGE": 2,
        "rang_Tbd_MTN": 1,
        "rang_Tbd_MOOV": 3,
        "rang_Tq_ORANGE": 2,
        "rang_Tq_MTN": 3,
        "rang_Tq_MOOV": 1
      },
      "id": 77
    }
  ]
}