{
  "type": "FeatureCollection",
  "features": [
    {
      "type": "Feature",
      "geometry": {
        "coordinates": [
          -4.01585,
          5.44515
        ],
        "type": "Point"
      },
      "properties": {
        "ADM0_FR": "DISTRICT AUTONOME D'ABIDJAN",
        "ADM0_PCODE": "CI04",
        "ADM1_FR": "DISTRICT AUTONOME D'ABIDJAN",
        "ADM1_PCODE": "CI101",
        "ADM2_FR": "ABIDJAN",
        "ADM2_PCODE": "CI0101",
        "ADM3_FR": "ABIDJAN",
        "ADM3_PCODE": "CI010101",
        "ADM4_FR": "ABOBO",
        "ADM4_PCODE": "C0029",
        "centerLat": 5.43515,
        "centerLng": -4.01585,
        "pop": 1030658,
        "Te_MOOV": 0.27999999999999997,
        "Tbd_MOOV": 36.97,
        "Tc_MOOV": 0.5599999999999999,
        "Tq_MOOV": 1.4000000000000001,
        "Te_MTN": 0.53,
        "Tbd_MTN": 77.07000000000001,
        "Tc_MTN": 0.53,
        "Tq_MTN": 0.27,
        "Te_ORANGE": 0.0,
        "Tbd_ORANGE": 94.95,
        "Tc_ORANGE": 1.06,
        "Tq_ORANGE": 5.319999999999999,
        "rang_Te_ORANGE": 1,
        "rang_Te_MTN": 3,
        "rang_Te_MOOV": 2,
        "rang_Tc_ORANGE": 3,
        "rang_Tc_MTN": 1,
        "rang_Tc_MOOV": 2,
        "rang_Tbd_ORANGE": 1,
        "rang_Tbd_MTN": 2,
        "rang_Tbd_MOOV": 3,
        "rang_Tq_ORANGE": 3,
        "rang_Tq_MTN": 1,
        "rang_Tq_MOOV": 2
      },
      "id": 1
    },
    {
      "type": "Feature",
      "geometry": {
        "coordinates": [
          -4.01988,
          5.38187
        ],
        "type": "Point"
      },
      "properties": {
        "ADM0_FR": "DISTRICT AUTONOME D'ABIDJAN",
        "ADM0_PCODE": "CI04",
        "ADM1_FR": "DISTRICT AUTONOME D'ABIDJAN",
        "ADM1_PCODE": "CI101",
        "ADM2_FR": "ABIDJAN",
        "ADM2_PCODE": "CI0101",
        "ADM3_FR": "ABIDJAN",
        "ADM3_PCODE": "CI010101",
        "ADM4_FR": "ADJAME",
        "ADM4_PCODE": "C0133",
        "centerLat": 5.37187,
        "centerLng": -4.01988,
        "pop": 372978,
        "Te_MOOV": 0.0,
        "Tbd_MOOV": 40.89,
        "Tc_MOOV": 0.89,
        "Tq_MOOV": 4.89,
        "Te_MTN": 0.0,
        "Tbd_MTN": 91.86,
        "Tc_MTN": 0.0,
        "Tq_MTN": 0.0,
        "Te_ORANGE": 0.44999999999999996,
        "Tbd_ORANGE": 83.86,
        "Tc_ORANGE": 0.44999999999999996,
        "Tq_ORANGE": 0.0,
        "rang_Te_ORANGE": 3,
        "rang_Te_MTN": 1,
        "rang_Te_MOOV": 1,
        "rang_Tc_ORANGE": 2,
        "rang_Tc_MTN": 1,
        "rang_Tc_MOOV": 3,
        "rang_Tbd_ORANGE": 2,
        "rang_Tbd_MTN": 1,
        "rang_Tbd_MOOV": 3,
        "rang_Tq_ORANGE": 1,
        "rang_Tq_MTN": 1,
        "rang_Tq_MOOV": 3
      },
      "id": 2
    },
    {
      "type": "Feature",
      "geometry": {
        "coordinates": [
          -4.05488,
          5.504659999999999
        ],
        "type": "Point"
      },
      "properties": {
        "ADM0_FR": "DISTRICT AUTONOME D'ABIDJAN",
        "ADM0_PCODE": "CI04",
        "ADM1_FR": "DISTRICT AUTONOME D'ABIDJAN",
        "ADM1_PCODE": "CI101",
        "ADM2_FR": "ABIDJAN",
        "ADM2_PCODE": "CI0101",
        "ADM3_FR": "ANYAMA",
        "ADM3_PCODE": "CI010102",
        "ADM4_FR": "ANYAMA",
        "ADM4_PCODE": "C0570",
        "centerLat": 5.49466,
        "centerLng": -4.05488,
        "pop": 103297,
        "Te_MOOV": 9.45,
        "Tbd_MOOV": 53.410000000000004,
        "Tc_MOOV": 0.0,
        "Tq_MOOV": 0.0,
        "Te_MTN": 0.36,
        "Tbd_MTN": 82.5,
        "Tc_MTN": 0.36,
        "Tq_MTN": 0.36,
        "Te_ORANGE": 0.36,
        "Tbd_ORANGE": 98.17,
        "Tc_ORANGE": 0.73,
        "Tq_ORANGE": 0.0,
        "rang_Te_ORANGE": 1,
        "rang_Te_MTN": 1,
        "rang_Te_MOOV": 3,
        "rang_Tc_ORANGE": 3,
        "rang_Tc_MTN": 2,
        "rang_Tc_MOOV": 1,
        "rang_Tbd_ORANGE": 1,
        "rang_Tbd_MTN": 2,
        "rang_Tbd_MOOV": 3,
        "rang_Tq_ORANGE": 1,
        "rang_Tq_MTN": 3,
        "rang_Tq_MOOV": 1
      },
      "id": 3
    },
    {
      "type": "Feature",
      "geometry": {
        "coordinates": [
          -4.05198,
          5.392189999999999
        ],
        "type": "Point"
      },
      "properties": {
        "ADM0_FR": "DISTRICT AUTONOME D'ABIDJAN",
        "ADM0_PCODE": "CI04",
        "ADM1_FR": "DISTRICT AUTONOME D'ABIDJAN",
        "ADM1_PCODE": "CI101",
        "ADM2_FR": "ABIDJAN",
        "ADM2_PCODE": "CI0101",
        "ADM3_FR": "ABIDJAN",
        "ADM3_PCODE": "CI010101",
        "ADM4_FR": "ATTECOUBE",
        "ADM4_PCODE": "C0734",
        "centerLat": 5.38219,
        "centerLng": -4.05198,
        "pop": 260911,
        "Te_MOOV": 0.0,
        "Tbd_MOOV": 45.660000000000004,
        "Tc_MOOV": 1.37,
        "Tq_MOOV": 8.68,
        "Te_MTN": 0.45999999999999996,
        "Tbd_MTN": 86.18,
        "Tc_MTN": 0.9199999999999999,
        "Tq_MTN": 0.45999999999999996,
        "Te_ORANGE": 0.0,
        "Tbd_ORANGE": 91.74,
        "Tc_ORANGE": 0.45999999999999996,
        "Tq_ORANGE": 0.9199999999999999,
        "rang_Te_ORANGE": 1,
        "rang_Te_MTN": 3,
        "rang_Te_MOOV": 1,
        "rang_Tc_ORANGE": 1,
        "rang_Tc_MTN": 2,
        "rang_Tc_MOOV": 3,
        "rang_Tbd_ORANGE": 1,
        "rang_Tbd_MTN": 2,
        "rang_Tbd_MOOV": 3,
        "rang_Tq_ORANGE": 2,
        "rang_Tq_MTN": 1,
        "rang_Tq_MOOV": 3
      },
      "id": 4
    },
    {
      "type": "Feature",
      "geometry": {
        "coordinates": [
          -3.89704,
          5.369
        ],
        "type": "Point"
      },
      "properties": {
        "ADM0_FR": "DISTRICT AUTONOME D'ABIDJAN",
        "ADM0_PCODE": "CI04",
        "ADM1_FR": "DISTRICT AUTONOME D'ABIDJAN",
        "ADM1_PCODE": "CI101",
        "ADM2_FR": "ABIDJAN",
        "ADM2_PCODE": "CI0101",
        "ADM3_FR": "BINGERVILLE",
        "ADM3_PCODE": "CI010103",
        "ADM4_FR": "BINGERVILLE",
        "ADM4_PCODE": "C1214",
        "centerLat": 5.359,
        "centerLng": -3.89704,
        "pop": 64015,
        "Te_MOOV": 4.9799999999999995,
        "Tbd_MOOV": 27.750000000000004,
        "Tc_MOOV": 5.24,
        "Tq_MOOV": 2.16,
        "Te_MTN": 1.0,
        "Tbd_MTN": 80.9,
        "Tc_MTN": 0.0,
        "Tq_MTN": 0.51,
        "Te_ORANGE": 0.0,
        "Tbd_ORANGE": 96.57,
        "Tc_ORANGE": 0.98,
        "Tq_ORANGE": 4.88,
        "rang_Te_ORANGE": 1,
        "rang_Te_MTN": 2,
        "rang_Te_MOOV": 3,
        "rang_Tc_ORANGE": 2,
        "rang_Tc_MTN": 1,
        "rang_Tc_MOOV": 3,
        "rang_Tbd_ORANGE": 1,
        "rang_Tbd_MTN": 2,
        "rang_Tbd_MOOV": 3,
        "rang_Tq_ORANGE": 3,
        "rang_Tq_MTN": 1,
        "rang_Tq_MOOV": 2
      },
      "id": 5
    },
    {
      "type": "Feature",
      "geometry": {
        "coordinates": [
          -3.96089,
          5.383
        ],
        "type": "Point"
      },
      "properties": {
        "ADM0_FR": "DISTRICT AUTONOME D'ABIDJAN",
        "ADM0_PCODE": "CI04",
        "ADM1_FR": "DISTRICT AUTONOME D'ABIDJAN",
        "ADM1_PCODE": "CI101",
        "ADM2_FR": "ABIDJAN",
        "ADM2_PCODE": "CI0101",
        "ADM3_FR": "ABIDJAN",
        "ADM3_PCODE": "CI010101",
        "ADM4_FR": "COCODY",
        "ADM4_PCODE": "C1672",
        "centerLat": 5.373,
        "centerLng": -3.96089,
        "pop": 447055,
        "Te_MOOV": 2.21,
        "Tbd_MOOV": 37.34,
        "Tc_MOOV": 0.5,
        "Tq_MOOV": 0.5,
        "Te_MTN": 0.5,
        "Tbd_MTN": 92.25,
        "Tc_MTN": 0.0,
        "Tq_MTN": 0.5,
        "Te_ORANGE": 0.98,
        "Tbd_ORANGE": 98.50999999999999,
        "Tc_ORANGE": 0.0,
        "Tq_ORANGE": 0.0,
        "rang_Te_ORANGE": 2,
        "rang_Te_MTN": 1,
        "rang_Te_MOOV": 3,
        "rang_Tc_ORANGE": 1,
        "rang_Tc_MTN": 1,
        "rang_Tc_MOOV": 3,
        "rang_Tbd_ORANGE": 1,
        "rang_Tbd_MTN": 2,
        "rang_Tbd_MOOV": 3,
        "rang_Tq_ORANGE": 1,
        "rang_Tq_MTN": 2,
        "rang_Tq_MOOV": 2
      },
      "id": 6
    },
    {
      "type": "Feature",
      "geometry": {
        "coordinates": [
          -3.72689,
          5.20266
        ],
        "type": "Point"
      },
      "properties": {
        "ADM0_FR": "COMOE",
        "ADM0_PCODE": "CI02",
        "ADM1_FR": "SUD-COMOE",
        "ADM1_PCODE": "CI130",
        "ADM2_FR": "GRAND-BASSAM",
        "ADM2_PCODE": "CI3003",
        "ADM3_FR": "GRAND-BASSAM",
        "ADM3_PCODE": "CI300303",
        "ADM4_FR": "GRAND-BASSAM",
        "ADM4_PCODE": "C3367",
        "centerLat": 5.19266,
        "centerLng": -3.72689,
        "pop": 74671,
        "Te_MOOV": 0.0,
        "Tbd_MOOV": 43.63,
        "Tc_MOOV": 0.0,
        "Tq_MOOV": 1.96,
        "Te_MTN": 0.0,
        "Tbd_MTN": 91.0,
        "Tc_MTN": 0.0,
        "Tq_MTN": 0.0,
        "Te_ORANGE": 3.92,
        "Tbd_ORANGE": 96.43,
        "Tc_ORANGE": 0.51,
        "Tq_ORANGE": 0.0,
        "rang_Te_ORANGE": 3,
        "rang_Te_MTN": 1,
        "rang_Te_MOOV": 1,
        "rang_Tc_ORANGE": 3,
        "rang_Tc_MTN": 1,
        "rang_Tc_MOOV": 1,
        "rang_Tbd_ORANGE": 1,
        "rang_Tbd_MTN": 2,
        "rang_Tbd_MOOV": 3,
        "rang_Tq_ORANGE": 1,
        "rang_Tq_MTN": 1,
        "rang_Tq_MOOV": 3
      },
      "id": 7
    },
    {
      "type": "Feature",
      "geometry": {
        "coordinates": [
          -3.94836,
          5.3124899999999995
        ],
        "type": "Point"
      },
      "properties": {
        "ADM0_FR": "DISTRICT AUTONOME D'ABIDJAN",
        "ADM0_PCODE": "CI04",
        "ADM1_FR": "DISTRICT AUTONOME D'ABIDJAN",
        "ADM1_PCODE": "CI101",
        "ADM2_FR": "ABIDJAN",
        "ADM2_PCODE": "CI0101",
        "ADM3_FR": "ABIDJAN",
        "ADM3_PCODE": "CI010101",
        "ADM4_FR": "KOUMASSI",
        "ADM4_PCODE": "C4694",
        "centerLat": 5.30249,
        "centerLng": -3.94836,
        "pop": 433139,
        "Te_MOOV": 3.5900000000000003,
        "Tbd_MOOV": 37.230000000000004,
        "Tc_MOOV": 0.53,
        "Tq_MOOV": 1.06,
        "Te_MTN": 0.0,
        "Tbd_MTN": 89.33,
        "Tc_MTN": 0.5599999999999999,
        "Tq_MTN": 0.5599999999999999,
        "Te_ORANGE": 0.0,
        "Tbd_ORANGE": 98.45,
        "Tc_ORANGE": 1.03,
        "Tq_ORANGE": 0.0,
        "rang_Te_ORANGE": 1,
        "rang_Te_MTN": 1,
        "rang_Te_MOOV": 3,
        "rang_Tc_ORANGE": 3,
        "rang_Tc_MTN": 2,
        "rang_Tc_MOOV": 1,
        "rang_Tbd_ORANGE": 1,
        "rang_Tbd_MTN": 2,
        "rang_Tbd_MOOV": 3,
        "rang_Tq_ORANGE": 1,
        "rang_Tq_MTN": 2,
        "rang_Tq_MOOV": 3
      },
      "id": 8
    },
    {
      "type": "Feature",
      "geometry": {
        "coordinates": [
          -3.98251,
          5.30932
        ],
        "type": "Point"
      },
      "properties": {
        "ADM0_FR": "DISTRICT AUTONOME D'ABIDJAN",
        "ADM0_PCODE": "CI04",
        "ADM1_FR": "DISTRICT AUTONOME D'ABIDJAN",
        "ADM1_PCODE": "CI101",
        "ADM2_FR": "ABIDJAN",
        "ADM2_PCODE": "CI0101",
        "ADM3_FR": "ABIDJAN",
        "ADM3_PCODE": "CI010101",
        "ADM4_FR": "MARCORY",
        "ADM4_PCODE": "C5375",
        "centerLat": 5.29932,
        "centerLng": -3.98251,
        "pop": 249858,
        "Te_MOOV": 0.8099999999999999,
        "Tbd_MOOV": 40.57,
        "Tc_MOOV": 0.0,
        "Tq_MOOV": 3.2800000000000002,
        "Te_MTN": 0.0,
        "Tbd_MTN": 95.50999999999999,
        "Tc_MTN": 0.0,
        "Tq_MTN": 0.8200000000000001,
        "Te_ORANGE": 0.0,
        "Tbd_ORANGE": 95.08,
        "Tc_ORANGE": 0.41000000000000003,
        "Tq_ORANGE": 0.0,
        "rang_Te_ORANGE": 1,
        "rang_Te_MTN": 1,
        "rang_Te_MOOV": 3,
        "rang_Tc_ORANGE": 3,
        "rang_Tc_MTN": 1,
        "rang_Tc_MOOV": 1,
        "rang_Tbd_ORANGE": 2,
        "rang_Tbd_MTN": 1,
        "rang_Tbd_MOOV": 3,
        "rang_Tq_ORANGE": 1,
        "rang_Tq_MTN": 2,
        "rang_Tq_MOOV": 3
      },
      "id": 9
    },
    {
      "type": "Feature",
      "geometry": {
        "coordinates": [
          -4.02164,
          5.33517
        ],
        "type": "Point"
      },
      "properties": {
        "ADM0_FR": "DISTRICT AUTONOME D'ABIDJAN",
        "ADM0_PCODE": "CI04",
        "ADM1_FR": "DISTRICT AUTONOME D'ABIDJAN",
        "ADM1_PCODE": "CI101",
        "ADM2_FR": "ABIDJAN",
        "ADM2_PCODE": "CI0101",
        "ADM3_FR": "ABIDJAN",
        "ADM3_PCODE": "CI010101",
        "ADM4_FR": "PLATEAU",
        "ADM4_PCODE": "C6556",
        "centerLat": 5.32517,
        "centerLng": -4.02164,
        "pop": 7488,
        "Te_MOOV": 2.03,
        "Tbd_MOOV": 21.240000000000002,
        "Tc_MOOV": 0.0,
        "Tq_MOOV": 0.0,
        "Te_MTN": 0.5,
        "Tbd_MTN": 96.46000000000001,
        "Tc_MTN": 0.51,
        "Tq_MTN": 0.0,
        "Te_ORANGE": 0.5,
        "Tbd_ORANGE": 98.48,
        "Tc_ORANGE": 0.0,
        "Tq_ORANGE": 0.51,
        "rang_Te_ORANGE": 1,
        "rang_Te_MTN": 1,
        "rang_Te_MOOV": 3,
        "rang_Tc_ORANGE": 1,
        "rang_Tc_MTN": 3,
        "rang_Tc_MOOV": 1,
        "rang_Tbd_ORANGE": 1,
        "rang_Tbd_MTN": 2,
        "rang_Tbd_MOOV": 3,
        "rang_Tq_ORANGE": 3,
        "rang_Tq_MTN": 1,
        "rang_Tq_MOOV": 1
      },
      "id": 10
    },
    {
      "type": "Feature",
      "geometry": {
        "coordinates": [
          -3.958626,
          5.266881
        ],
        "type": "Point"
      },
      "properties": {
        "ADM0_FR": "DISTRICT AUTONOME D'ABIDJAN",
        "ADM0_PCODE": "CI04",
        "ADM1_FR": "DISTRICT AUTONOME D'ABIDJAN",
        "ADM1_PCODE": "CI101",
        "ADM2_FR": "ABIDJAN",
        "ADM2_PCODE": "CI0101",
        "ADM3_FR": "ABIDJAN",
        "ADM3_PCODE": "CI010101",
        "ADM4_FR": "PORT-BOUET",
        "ADM4_PCODE": "C6619",
        "centerLat": 5.256881,
        "centerLng": -3.958626,
        "pop": 419033,
        "Te_MOOV": 4.81,
        "Tbd_MOOV": 71.57,
        "Tc_MOOV": 0.51,
        "Tq_MOOV": 3.54,
        "Te_MTN": 0.0,
        "Tbd_MTN": 83.33,
        "Tc_MTN": 0.95,
        "Tq_MTN": 0.49,
        "Te_ORANGE": 0.0,
        "Tbd_ORANGE": 98.1,
        "Tc_ORANGE": 0.48,
        "Tq_ORANGE": 1.9,
        "rang_Te_ORANGE": 1,
        "rang_Te_MTN": 1,
        "rang_Te_MOOV": 3,
        "rang_Tc_ORANGE": 1,
        "rang_Tc_MTN": 3,
        "rang_Tc_MOOV": 2,
        "rang_Tbd_ORANGE": 1,
        "rang_Tbd_MTN": 2,
        "rang_Tbd_MOOV": 3,
        "rang_Tq_ORANGE": 2,
        "rang_Tq_MTN": 1,
        "rang_Tq_MOOV": 3
      },
      "id": 11
    },
    {
      "type": "Feature",
      "geometry": {
        "coordinates": [
          -4.01044,
          5.30098
        ],
        "type": "Point"
      },
      "properties": {
        "ADM0_FR": "DISTRICT AUTONOME D'ABIDJAN",
        "ADM0_PCODE": "CI04",
        "ADM1_FR": "DISTRICT AUTONOME D'ABIDJAN",
        "ADM1_PCODE": "CI101",
        "ADM2_FR": "ABIDJAN",
        "ADM2_PCODE": "CI0101",
        "ADM3_FR": "ABIDJAN",
        "ADM3_PCODE": "CI010101",
        "ADM4_FR": "TREICHVILLE",
        "ADM4_PCODE": "C7913",
        "centerLat": 5.29098,
        "centerLng": -4.01044,
        "pop": 102580,
        "Te_MOOV": 0.0,
        "Tbd_MOOV": 50.0,
        "Tc_MOOV": 0.0,
        "Tq_MOOV": 3.37,
        "Te_MTN": 0.48,
        "Tbd_MTN": 94.17,
        "Tc_MTN": 0.97,
        "Tq_MTN": 0.0,
        "Te_ORANGE": 0.0,
        "Tbd_ORANGE": 92.75,
        "Tc_ORANGE": 0.48,
        "Tq_ORANGE": 0.0,
        "rang_Te_ORANGE": 1,
        "rang_Te_MTN": 3,
        "rang_Te_MOOV": 1,
        "rang_Tc_ORANGE": 2,
        "rang_Tc_MTN": 3,
        "rang_Tc_MOOV": 1,
        "rang_Tbd_ORANGE": 2,
        "rang_Tbd_MTN": 1,
        "rang_Tbd_MOOV": 3,
        "rang_Tq_ORANGE": 1,
        "rang_Tq_MTN": 1,
        "rang_Tq_MOOV": 3
      },
      "id": 12
    },
    {
      "type": "Feature",
      "geometry": {
        "coordinates": [
          -4.09015,
          5.31848
        ],
        "type": "Point"
      },
      "properties": {
        "ADM0_FR": "DISTRICT AUTONOME D'ABIDJAN",
        "ADM0_PCODE": "CI04",
        "ADM1_FR": "DISTRICT AUTONOME D'ABIDJAN",
        "ADM1_PCODE": "CI101",
        "ADM2_FR": "ABIDJAN",
        "ADM2_PCODE": "CI0101",
        "ADM3_FR": "ABIDJAN",
        "ADM3_PCODE": "CI010101",
        "ADM4_FR": "YOPOUGON",
        "ADM4_PCODE": "C8230",
        "centerLat": 5.30848,
        "centerLng": -4.09015,
        "pop": 1071543,
        "Te_MOOV": 0.49,
        "Tbd_MOOV": 67.47999999999999,
        "Tc_MOOV": 0.0,
        "Tq_MOOV": 2.69,
        "Te_MTN": 0.73,
        "Tbd_MTN": 90.89,
        "Tc_MTN": 0.74,
        "Tq_MTN": 0.25,
        "Te_ORANGE": 0.25,
        "Tbd_ORANGE": 94.59,
        "Tc_ORANGE": 0.0,
        "Tq_ORANGE": 0.25,
        "rang_Te_ORANGE": 1,
        "rang_Te_MTN": 3,
        "rang_Te_MOOV": 2,
        "rang_Tc_ORANGE": 1,
        "rang_Tc_MTN": 3,
        "rang_Tc_MOOV": 1,
        "rang_Tbd_ORANGE": 1,
        "rang_Tbd_MTN": 2,
        "rang_Tbd_MOOV": 3,
        "rang_Tq_ORANGE": 1,
        "rang_Tq_MTN": 1,
        "rang_Tq_MOOV": 3
      },
      "id": 13
    },
    {
      "type": "Feature",
      "geometry": {
        "coordinates": [
          -3.49676,
          6.73836
        ],
        "type": "Point"
      },
      "properties": {
        "ADM0_FR": "COMOE",
        "ADM0_PCODE": "CI02",
        "ADM1_FR": "INDENIE-DJUABLIN",
        "ADM1_PCODE": "CI120",
        "ADM2_FR": "ABENGOUROU",
        "ADM2_PCODE": "CI2001",
        "ADM3_FR": "ABENGOUROU",
        "ADM3_PCODE": "CI200101",
        "ADM4_FR": "ABENGOUROU",
        "ADM4_PCODE": "C0014",
        "centerLat": 6.72836,
        "centerLng": -3.49676,
        "pop": 100910,
        "Te_MOOV": 1.52,
        "Tbd_MOOV": 38.46,
        "Tc_MOOV": 0.0,
        "Tq_MOOV": 0.51,
        "Te_MTN": 0.0,
        "Tbd_MTN": 89.0,
        "Tc_MTN": 0.0,
        "Tq_MTN": 0.0,
        "Te_ORANGE": 0.0,
        "Tbd_ORANGE": 90.4,
        "Tc_ORANGE": 0.0,
        "Tq_ORANGE": 0.0,
        "rang_Te_ORANGE": 1,
        "rang_Te_MTN": 1,
        "rang_Te_MOOV": 3,
        "rang_Tc_ORANGE": 1,
        "rang_Tc_MTN": 1,
        "rang_Tc_MOOV": 1,
        "rang_Tbd_ORANGE": 1,
        "rang_Tbd_MTN": 2,
        "rang_Tbd_MOOV": 3,
        "rang_Tq_ORANGE": 1,
        "rang_Tq_MTN": 1,
        "rang_Tq_MOOV": 3
      },
      "id": 14
    },
    {
      "type": "Feature",
      "geometry": {
        "coordinates": [
          -5.0,
          6.609999999999999
        ],
        "type": "Point"
      },
      "properties": {
        "ADM0_FR": "LACS",
        "ADM0_PCODE": "CI07",
        "ADM1_FR": "BELIER",
        "ADM1_PCODE": "CI106",
        "ADM2_FR": "TOUMODI",
        "ADM2_PCODE": "CI0604",
        "ADM3_FR": "TOUMODI",
        "ADM3_PCODE": "CI060401",
        "ADM4_FR": "ABLI-BONIKRO",
        "ADM4_PCODE": "C0027",
        "centerLat": 6.6,
        "centerLng": -5.0,
        "pop": 648,
        "Te_MOOV": 0.84,
        "Tbd_MOOV": 50.0,
        "Tc_MOOV": 1.69,
        "Tq_MOOV": 4.24,
        "Te_MTN": 0.8500000000000001,
        "Tbd_MTN": 67.24,
        "Tc_MTN": 4.31,
        "Tq_MTN": 3.64,
        "Te_ORANGE": 3.39,
        "Tbd_ORANGE": 88.6,
        "Tc_ORANGE": 2.63,
        "Tq_ORANGE": 0.0,
        "rang_Te_ORANGE": 3,
        "rang_Te_MTN": 2,
        "rang_Te_MOOV": 1,
        "rang_Tc_ORANGE": 2,
        "rang_Tc_MTN": 3,
        "rang_Tc_MOOV": 1,
        "rang_Tbd_ORANGE": 1,
        "rang_Tbd_MTN": 2,
        "rang_Tbd_MOOV": 3,
        "rang_Tq_ORANGE": 1,
        "rang_Tq_MTN": 2,
        "rang_Tq_MOOV": 3
      },
      "id": 15
    },
    {
      "type": "Feature",
      "geometry": {
        "coordinates": [
          -3.20677,
          5.48457
        ],
        "type": "Point"
      },
      "properties": {
        "ADM0_FR": "COMOE",
        "ADM0_PCODE": "CI02",
        "ADM1_FR": "SUD-COMOE",
        "ADM1_PCODE": "CI130",
        "ADM2_FR": "ABOISSO",
        "ADM2_PCODE": "CI3001",
        "ADM3_FR": "ABOISSO",
        "ADM3_PCODE": "CI300101",
        "ADM4_FR": "ABOISSO",
        "ADM4_PCODE": "C0033",
        "centerLat": 5.47457,
        "centerLng": -3.20677,
        "pop": 45688,
        "Te_MOOV": 0.0,
        "Tbd_MOOV": 87.98,
        "Tc_MOOV": 0.0,
        "Tq_MOOV": 0.0,
        "Te_MTN": 1.6199999999999999,
        "Tbd_MTN": 98.89,
        "Tc_MTN": 0.0,
        "Tq_MTN": 0.0,
        "Te_ORANGE": 0.0,
        "Tbd_ORANGE": 92.82000000000001,
        "Tc_ORANGE": 0.0,
        "Tq_ORANGE": 0.0,
        "rang_Te_ORANGE": 1,
        "rang_Te_MTN": 3,
        "rang_Te_MOOV": 1,
        "rang_Tc_ORANGE": 1,
        "rang_Tc_MTN": 1,
        "rang_Tc_MOOV": 1,
        "rang_Tbd_ORANGE": 2,
        "rang_Tbd_MTN": 1,
        "rang_Tbd_MOOV": 3,
        "rang_Tq_ORANGE": 1,
        "rang_Tq_MTN": 1,
        "rang_Tq_MOOV": 1
      },
      "id": 16
    },
    {
      "type": "Feature",
      "geometry": {
        "coordinates": [
          -3.15,
          5.319999999999999
        ],
        "type": "Point"
      },
      "properties": {
        "ADM0_FR": "COMOE",
        "ADM0_PCODE": "CI02",
        "ADM1_FR": "SUD-COMOE",
        "ADM1_PCODE": "CI130",
        "ADM2_FR": "ABOISSO",
        "ADM2_PCODE": "CI3001",
        "ADM3_FR": "ADJOUAN",
        "ADM3_PCODE": "CI300103",
        "ADM4_FR": "ADJOUAN",
        "ADM4_PCODE": "C0150",
        "centerLat": 5.31,
        "centerLng": -3.15,
        "pop": 3297,
        "Te_MOOV": 1.31,
        "Tbd_MOOV": 83.44,
        "Tc_MOOV": 0.0,
        "Tq_MOOV": 6.619999999999999,
        "Te_MTN": 0.65,
        "Tbd_MTN": 96.73,
        "Tc_MTN": 0.0,
        "Tq_MTN": 0.66,
        "Te_ORANGE": 7.33,
        "Tbd_ORANGE": 87.77000000000001,
        "Tc_ORANGE": 0.0,
        "Tq_ORANGE": 0.0,
        "rang_Te_ORANGE": 3,
        "rang_Te_MTN": 1,
        "rang_Te_MOOV": 2,
        "rang_Tc_ORANGE": 1,
        "rang_Tc_MTN": 1,
        "rang_Tc_MOOV": 1,
        "rang_Tbd_ORANGE": 2,
        "rang_Tbd_MTN": 1,
        "rang_Tbd_MOOV": 3,
        "rang_Tq_ORANGE": 1,
        "rang_Tq_MTN": 2,
        "rang_Tq_MOOV": 3
      },
      "id": 17
    },
    {
      "type": "Feature",
      "geometry": {
        "coordinates": [
          -3.8542,
          6.35116
        ],
        "type": "Point"
      },
      "properties": {
        "ADM0_FR": "LAGUNES",
        "ADM0_PCODE": "CI08",
        "ADM1_FR": "LA ME",
        "ADM1_PCODE": "CI124",
        "ADM2_FR": "AKOUPE",
        "ADM2_PCODE": "CI2402",
        "ADM3_FR": "AKOUPE",
        "ADM3_PCODE": "CI240202",
        "ADM4_FR": "AGBAOU",
        "ADM4_PCODE": "C0209",
        "centerLat": 6.34116,
        "centerLng": -3.8542,
        "pop": 8012,
        "Te_MOOV": 9.8,
        "Tbd_MOOV": 30.43,
        "Tc_MOOV": 0.72,
        "Tq_MOOV": 5.800000000000001,
        "Te_MTN": 6.0,
        "Tbd_MTN": 86.52,
        "Tc_MTN": 1.4200000000000002,
        "Tq_MTN": 1.47,
        "Te_ORANGE": 5.3,
        "Tbd_ORANGE": 81.12,
        "Tc_ORANGE": 0.0,
        "Tq_ORANGE": 0.7000000000000001,
        "rang_Te_ORANGE": 1,
        "rang_Te_MTN": 2,
        "rang_Te_MOOV": 3,
        "rang_Tc_ORANGE": 1,
        "rang_Tc_MTN": 3,
        "rang_Tc_MOOV": 2,
        "rang_Tbd_ORANGE": 2,
        "rang_Tbd_MTN": 1,
        "rang_Tbd_MOOV": 3,
        "rang_Tq_ORANGE": 1,
        "rang_Tq_MTN": 2,
        "rang_Tq_MOOV": 3
      },
      "id": 18
    },
    {
      "type": "Feature",
      "geometry": {
        "coordinates": [
          -4.21523,
          5.93964
        ],
        "type": "Point"
      },
      "properties": {
        "ADM0_FR": "LAGUNES",
        "ADM0_PCODE": "CI08",
        "ADM1_FR": "AGNEBY-TIASSA",
        "ADM1_PCODE": "CI103",
        "ADM2_FR": "AGBOVILLE",
        "ADM2_PCODE": "CI0301",
        "ADM3_FR": "AGBOVILLE",
        "ADM3_PCODE": "CI030102",
        "ADM4_FR": "AGBOVILLE",
        "ADM4_PCODE": "C0215",
        "centerLat": 5.92964,
        "centerLng": -4.21523,
        "pop": 50873,
        "Te_MOOV": 0.48,
        "Tbd_MOOV": 32.04,
        "Tc_MOOV": 0.0,
        "Tq_MOOV": 3.4000000000000004,
        "Te_MTN": 0.0,
        "Tbd_MTN": 95.65,
        "Tc_MTN": 0.0,
        "Tq_MTN": 0.0,
        "Te_ORANGE": 1.9300000000000002,
        "Tbd_ORANGE": 77.34,
        "Tc_ORANGE": 1.48,
        "Tq_ORANGE": 0.0,
        "rang_Te_ORANGE": 3,
        "rang_Te_MTN": 1,
        "rang_Te_MOOV": 2,
        "rang_Tc_ORANGE": 3,
        "rang_Tc_MTN": 1,
        "rang_Tc_MOOV": 1,
        "rang_Tbd_ORANGE": 2,
        "rang_Tbd_MTN": 1,
        "rang_Tbd_MOOV": 3,
        "rang_Tq_ORANGE": 1,
        "rang_Tq_MTN": 1,
        "rang_Tq_MOOV": 3
      },
      "id": 19
    },
    {
      "type": "Feature",
      "geometry": {
        "coordinates": [
          -3.20278,
          7.13987
        ],
        "type": "Point"
      },
      "properties": {
        "ADM0_FR": "COMOE",
        "ADM0_PCODE": "CI02",
        "ADM1_FR": "INDENIE-DJUABLIN",
        "ADM1_PCODE": "CI120",
        "ADM2_FR": "AGNIBILEKROU",
        "ADM2_PCODE": "CI2002",
        "ADM3_FR": "AGNIBILEKROU",
        "ADM3_PCODE": "CI200201",
        "ADM4_FR": "AGNIBILEKROU",
        "ADM4_PCODE": "C0224",
        "centerLat": 7.12987,
        "centerLng": -3.20278,
        "pop": 48611,
        "Te_MOOV": 0.52,
        "Tbd_MOOV": 32.46,
        "Tc_MOOV": 0.0,
        "Tq_MOOV": 0.0,
        "Te_MTN": 0.0,
        "Tbd_MTN": 94.27,
        "Tc_MTN": 0.52,
        "Tq_MTN": 0.54,
        "Te_ORANGE": 0.0,
        "Tbd_ORANGE": 94.24,
        "Tc_ORANGE": 0.0,
        "Tq_ORANGE": 0.0,
        "rang_Te_ORANGE": 1,
        "rang_Te_MTN": 1,
        "rang_Te_MOOV": 3,
        "rang_Tc_ORANGE": 1,
        "rang_Tc_MTN": 3,
        "rang_Tc_MOOV": 1,
        "rang_Tbd_ORANGE": 2,
        "rang_Tbd_MTN": 1,
        "rang_Tbd_MOOV": 3,
        "rang_Tq_ORANGE": 1,
        "rang_Tq_MTN": 3,
        "rang_Tq_MOOV": 1
      },
      "id": 20
    },
    {
      "type": "Feature",
      "geometry": {
        "coordinates": [
          -3.95379,
          7.10237
        ],
        "type": "Point"
      },
      "properties": {
        "ADM0_FR": "LACS",
        "ADM0_PCODE": "CI07",
        "ADM1_FR": "IFFOU",
        "ADM1_PCODE": "CI119",
        "ADM2_FR": "DAOUKRO",
        "ADM2_PCODE": "CI1901",
        "ADM3_FR": "DAOUKRO",
        "ADM3_PCODE": "CI190103",
        "ADM4_FR": "ANOUMABO",
        "ADM4_PCODE": "C0565",
        "centerLat": 7.09237,
        "centerLng": -3.95379,
        "pop": 2323,
        "Te_MOOV": 5.220000000000001,
        "Tbd_MOOV": 49.54,
        "Tc_MOOV": 2.75,
        "Tq_MOOV": 4.67,
        "Te_MTN": 21.21,
        "Tbd_MTN": 58.440000000000005,
        "Tc_MTN": 11.540000000000001,
        "Tq_MTN": 33.78,
        "Te_ORANGE": 22.61,
        "Tbd_ORANGE": 65.16999999999999,
        "Tc_ORANGE": 4.49,
        "Tq_ORANGE": 1.1400000000000001,
        "rang_Te_ORANGE": 3,
        "rang_Te_MTN": 2,
        "rang_Te_MOOV": 1,
        "rang_Tc_ORANGE": 2,
        "rang_Tc_MTN": 3,
        "rang_Tc_MOOV": 1,
        "rang_Tbd_ORANGE": 1,
        "rang_Tbd_MTN": 2,
        "rang_Tbd_MOOV": 3,
        "rang_Tq_ORANGE": 1,
        "rang_Tq_MTN": 3,
        "rang_Tq_MOOV": 2
      },
      "id": 21
    },
    {
      "type": "Feature",
      "geometry": {
        "coordinates": [
          -3.96954,
          6.682589999999999
        ],
        "type": "Point"
      },
      "properties": {
        "ADM0_FR": "LACS",
        "ADM0_PCODE": "CI07",
        "ADM1_FR": "MORONOU",
        "ADM1_PCODE": "CI125",
        "ADM2_FR": "ARRAH",
        "ADM2_PCODE": "CI2501",
        "ADM3_FR": "ARRAH",
        "ADM3_PCODE": "CI250101",
        "ADM4_FR": "ARRAH",
        "ADM4_PCODE": "C0600",
        "centerLat": 6.67259,
        "centerLng": -3.96954,
        "pop": 24122,
        "Te_MOOV": 0.5499999999999999,
        "Tbd_MOOV": 48.9,
        "Tc_MOOV": 0.5499999999999999,
        "Tq_MOOV": 4.3999999999999995,
        "Te_MTN": 0.0,
        "Tbd_MTN": 88.94999999999999,
        "Tc_MTN": 0.5499999999999999,
        "Tq_MTN": 0.0,
        "Te_ORANGE": 0.0,
        "Tbd_ORANGE": 92.39,
        "Tc_ORANGE": 0.0,
        "Tq_ORANGE": 0.0,
        "rang_Te_ORANGE": 1,
        "rang_Te_MTN": 1,
        "rang_Te_MOOV": 3,
        "rang_Tc_ORANGE": 1,
        "rang_Tc_MTN": 2,
        "rang_Tc_MOOV": 2,
        "rang_Tbd_ORANGE": 1,
        "rang_Tbd_MTN": 2,
        "rang_Tbd_MOOV": 3,
        "rang_Tq_ORANGE": 1,
        "rang_Tq_MTN": 1,
        "rang_Tq_MOOV": 3
      },
      "id": 22
    },
    {
      "type": "Feature",
      "geometry": {
        "coordinates": [
          -5.45996,
          7.704289999999999
        ],
        "type": "Point"
      },
      "properties": {
        "ADM0_FR": "VALLEE DU BANDAMA",
        "ADM0_PCODE": "CI12",
        "ADM1_FR": "GBEKE",
        "ADM1_PCODE": "CI111",
        "ADM2_FR": "BEOUMI",
        "ADM2_PCODE": "CI1101",
        "ADM3_FR": "BEOUMI",
        "ADM3_PCODE": "CI110102",
        "ADM4_FR": "ASSAKRA",
        "ADM4_PCODE": "C0615",
        "centerLat": 7.69429,
        "centerLng": -5.45996,
        "pop": 1281,
        "Te_MOOV": 0.73,
        "Tbd_MOOV": 71.85000000000001,
        "Tc_MOOV": 2.94,
        "Tq_MOOV": 0.0,
        "Te_MTN": 2.2399999999999998,
        "Tbd_MTN": 90.08,
        "Tc_MTN": 0.0,
        "Tq_MTN": 0.8,
        "Te_ORANGE": 3.6799999999999997,
        "Tbd_ORANGE": 88.55,
        "Tc_ORANGE": 1.53,
        "Tq_ORANGE": 0.7799999999999999,
        "rang_Te_ORANGE": 3,
        "rang_Te_MTN": 2,
        "rang_Te_MOOV": 1,
        "rang_Tc_ORANGE": 2,
        "rang_Tc_MTN": 1,
        "rang_Tc_MOOV": 3,
        "rang_Tbd_ORANGE": 2,
        "rang_Tbd_MTN": 1,
        "rang_Tbd_MOOV": 3,
        "rang_Tq_ORANGE": 2,
        "rang_Tq_MTN": 3,
        "rang_Tq_MOOV": 1
      },
      "id": 23
    },
    {
      "type": "Feature",
      "geometry": {
        "coordinates": [
          -2.97986,
          7.71073
        ],
        "type": "Point"
      },
      "properties": {
        "ADM0_FR": "ZANZAN",
        "ADM0_PCODE": "CI14",
        "ADM1_FR": "GONTOUGO",
        "ADM1_PCODE": "CI114",
        "ADM2_FR": "TRANSUA",
        "ADM2_PCODE": "CI1405",
        "ADM3_FR": "ASSUEFRY",
        "ADM3_PCODE": "CI140502",
        "ADM4_FR": "ASSUÉFRY",
        "ADM4_PCODE": "C0722",
        "centerLat": 7.70073,
        "centerLng": -2.97986,
        "pop": 9759,
        "Te_MOOV": 0.98,
        "Tbd_MOOV": 43.56,
        "Tc_MOOV": 0.0,
        "Tq_MOOV": 0.0,
        "Te_MTN": 3.9600000000000004,
        "Tbd_MTN": 94.85,
        "Tc_MTN": 1.03,
        "Tq_MTN": 0.0,
        "Te_ORANGE": 0.98,
        "Tbd_ORANGE": 97.03,
        "Tc_ORANGE": 0.0,
        "Tq_ORANGE": 0.0,
        "rang_Te_ORANGE": 1,
        "rang_Te_MTN": 3,
        "rang_Te_MOOV": 1,
        "rang_Tc_ORANGE": 1,
        "rang_Tc_MTN": 3,
        "rang_Tc_MOOV": 1,
        "rang_Tbd_ORANGE": 1,
        "rang_Tbd_MTN": 2,
        "rang_Tbd_MOOV": 3,
        "rang_Tq_ORANGE": 1,
        "rang_Tq_MTN": 1,
        "rang_Tq_MOOV": 1
      },
      "id": 24
    },
    {
      "type": "Feature",
      "geometry": {
        "coordinates": [
          -5.96288,
          6.45555
        ],
        "type": "Point"
      },
      "properties": {
        "ADM0_FR": "GOH-DJIBOUA",
        "ADM0_PCODE": "CI06",
        "ADM1_FR": "GOH",
        "ADM1_PCODE": "CI113",
        "ADM2_FR": "GAGNOA",
        "ADM2_PCODE": "CI1301",
        "ADM3_FR": "BAYOTA",
        "ADM3_PCODE": "CI130101",
        "ADM4_FR": "BLOUZON",
        "ADM4_PCODE": "C1296",
        "centerLat": 6.44555,
        "centerLng": -5.96288,
        "pop": 391,
        "Te_MOOV": 7.75,
        "Tbd_MOOV": 19.33,
        "Tc_MOOV": 4.2,
        "Tq_MOOV": 15.129999999999999,
        "Te_MTN": 0.76,
        "Tbd_MTN": 63.849999999999994,
        "Tc_MTN": 0.77,
        "Tq_MTN": 34.65,
        "Te_ORANGE": 3.05,
        "Tbd_ORANGE": 88.98,
        "Tc_ORANGE": 0.0,
        "Tq_ORANGE": 0.0,
        "rang_Te_ORANGE": 2,
        "rang_Te_MTN": 1,
        "rang_Te_MOOV": 3,
        "rang_Tc_ORANGE": 1,
        "rang_Tc_MTN": 2,
        "rang_Tc_MOOV": 3,
        "rang_Tbd_ORANGE": 1,
        "rang_Tbd_MTN": 2,
        "rang_Tbd_MOOV": 3,
        "rang_Tq_ORANGE": 1,
        "rang_Tq_MTN": 3,
        "rang_Tq_MOOV": 2
      },
      "id": 25
    },
    {
      "type": "Feature",
      "geometry": {
        "coordinates": [
          -4.49751,
          7.07267
        ],
        "type": "Point"
      },
      "properties": {
        "ADM0_FR": "LACS",
        "ADM0_PCODE": "CI07",
        "ADM1_FR": "N'ZI",
        "ADM1_PCODE": "CI127",
        "ADM2_FR": "BOCANDA",
        "ADM2_PCODE": "CI2701",
        "ADM3_FR": "BOCANDA",
        "ADM3_PCODE": "CI270102",
        "ADM4_FR": "BOCANDA",
        "ADM4_PCODE": "C1317",
        "centerLat": 7.06267,
        "centerLng": -4.49751,
        "pop": 10684,
        "Te_MOOV": 4.19,
        "Tbd_MOOV": 58.13,
        "Tc_MOOV": 0.0,
        "Tq_MOOV": 1.25,
        "Te_MTN": 0.0,
        "Tbd_MTN": 96.43,
        "Tc_MTN": 0.0,
        "Tq_MTN": 0.0,
        "Te_ORANGE": 0.6,
        "Tbd_ORANGE": 86.14,
        "Tc_ORANGE": 0.0,
        "Tq_ORANGE": 0.0,
        "rang_Te_ORANGE": 2,
        "rang_Te_MTN": 1,
        "rang_Te_MOOV": 3,
        "rang_Tc_ORANGE": 1,
        "rang_Tc_MTN": 1,
        "rang_Tc_MOOV": 1,
        "rang_Tbd_ORANGE": 2,
        "rang_Tbd_MTN": 1,
        "rang_Tbd_MOOV": 3,
        "rang_Tq_ORANGE": 1,
        "rang_Tq_MTN": 1,
        "rang_Tq_MOOV": 3
      },
      "id": 26
    },
    {
      "type": "Feature",
      "geometry": {
        "coordinates": [
          -2.8,
          8.049999999999999
        ],
        "type": "Point"
      },
      "properties": {
        "ADM0_FR": "COMOE",
        "ADM0_PCODE": "CI02",
        "ADM1_FR": "SUD-COMOE",
        "ADM1_PCODE": "CI130",
        "ADM2_FR": "ADIAKE",
        "ADM2_PCODE": "CI3002",
        "ADM3_FR": "ADIAKE",
        "ADM3_PCODE": "CI300201",
        "ADM4_FR": "BONDOUKOU",
        "ADM4_PCODE": "C1424",
        "centerLat": 8.04,
        "centerLng": -2.8,
        "pop": 1837,
        "Te_MOOV": 0.0,
        "Tbd_MOOV": 14.62,
        "Tc_MOOV": 0.58,
        "Tq_MOOV": 1.76,
        "Te_MTN": 3.49,
        "Tbd_MTN": 85.54,
        "Tc_MTN": 0.6,
        "Tq_MTN": 6.83,
        "Te_ORANGE": 2.92,
        "Tbd_ORANGE": 90.36,
        "Tc_ORANGE": 0.0,
        "Tq_ORANGE": 0.0,
        "rang_Te_ORANGE": 2,
        "rang_Te_MTN": 3,
        "rang_Te_MOOV": 1,
        "rang_Tc_ORANGE": 1,
        "rang_Tc_MTN": 3,
        "rang_Tc_MOOV": 2,
        "rang_Tbd_ORANGE": 1,
        "rang_Tbd_MTN": 2,
        "rang_Tbd_MOOV": 3,
        "rang_Tq_ORANGE": 1,
        "rang_Tq_MTN": 3,
        "rang_Tq_MOOV": 2
      },
      "id": 27
    },
    {
      "type": "Feature",
      "geometry": {
        "coordinates": [
          -3.52,
          5.52
        ],
        "type": "Point"
      },
      "properties": {
        "ADM0_FR": "COMOE",
        "ADM0_PCODE": "CI02",
        "ADM1_FR": "SUD-COMOE",
        "ADM1_PCODE": "CI130",
        "ADM2_FR": "GRAND-BASSAM",
        "ADM2_PCODE": "CI3003",
        "ADM3_FR": "BONGO",
        "ADM3_PCODE": "CI300301",
        "ADM4_FR": "BONGO",
        "ADM4_PCODE": "C1432",
        "centerLat": 5.51,
        "centerLng": -3.52,
        "pop": 4033,
        "Te_MOOV": 0.0,
        "Tbd_MOOV": 91.55,
        "Tc_MOOV": 0.0,
        "Tq_MOOV": 0.0,
        "Te_MTN": 0.7100000000000001,
        "Tbd_MTN": 97.14,
        "Tc_MTN": 0.7100000000000001,
        "Tq_MTN": 2.17,
        "Te_ORANGE": 0.0,
        "Tbd_ORANGE": 97.89,
        "Tc_ORANGE": 0.0,
        "Tq_ORANGE": 0.0,
        "rang_Te_ORANGE": 1,
        "rang_Te_MTN": 3,
        "rang_Te_MOOV": 1,
        "rang_Tc_ORANGE": 1,
        "rang_Tc_MTN": 3,
        "rang_Tc_MOOV": 1,
        "rang_Tbd_ORANGE": 1,
        "rang_Tbd_MTN": 2,
        "rang_Tbd_MOOV": 3,
        "rang_Tq_ORANGE": 1,
        "rang_Tq_MTN": 3,
        "rang_Tq_MOOV": 1
      },
      "id": 28
    },
    {
      "type": "Feature",
      "geometry": {
        "coordinates": [
          -5.75132,
          6.99414
        ],
        "type": "Point"
      },
      "properties": {
        "ADM0_FR": "SASSANDRA-MARAHOUE",
        "ADM0_PCODE": "CI10",
        "ADM1_FR": "MARAHOUE",
        "ADM1_PCODE": "CI123",
        "ADM2_FR": "BOUAFLE",
        "ADM2_PCODE": "CI2301",
        "ADM3_FR": "BOUAFLE",
        "ADM3_PCODE": "CI230103",
        "ADM4_FR": "BOUAFLÉ",
        "ADM4_PCODE": "C1503",
        "centerLat": 6.98414,
        "centerLng": -5.75132,
        "pop": 80389,
        "Te_MOOV": 6.569999999999999,
        "Tbd_MOOV": 39.46,
        "Tc_MOOV": 0.0,
        "Tq_MOOV": 0.54,
        "Te_MTN": 1.49,
        "Tbd_MTN": 90.45,
        "Tc_MTN": 1.01,
        "Tq_MTN": 3.05,
        "Te_ORANGE": 0.0,
        "Tbd_ORANGE": 93.5,
        "Tc_ORANGE": 0.5,
        "Tq_ORANGE": 11.559999999999999,
        "rang_Te_ORANGE": 1,
        "rang_Te_MTN": 2,
        "rang_Te_MOOV": 3,
        "rang_Tc_ORANGE": 2,
        "rang_Tc_MTN": 3,
        "rang_Tc_MOOV": 1,
        "rang_Tbd_ORANGE": 1,
        "rang_Tbd_MTN": 2,
        "rang_Tbd_MOOV": 3,
        "rang_Tq_ORANGE": 3,
        "rang_Tq_MTN": 2,
        "rang_Tq_MOOV": 1
      },
      "id": 29
    },
    {
      "type": "Feature",
      "geometry": {
        "coordinates": [
          -5.02961,
          7.697909999999999
        ],
        "type": "Point"
      },
      "properties": {
        "ADM0_FR": "VALLEE DU BANDAMA",
        "ADM0_PCODE": "CI12",
        "ADM1_FR": "GBEKE",
        "ADM1_PCODE": "CI111",
        "ADM2_FR": "BOUAKE",
        "ADM2_PCODE": "CI1103",
        "ADM3_FR": "BOUAKE",
        "ADM3_PCODE": "CI110301",
        "ADM4_FR": "BOUAKÉ",
        "ADM4_PCODE": "C1507",
        "centerLat": 7.68791,
        "centerLng": -5.02961,
        "pop": 536719,
        "Te_MOOV": 1.67,
        "Tbd_MOOV": 29.59,
        "Tc_MOOV": 0.33999999999999997,
        "Tq_MOOV": 1.7000000000000002,
        "Te_MTN": 3.34,
        "Tbd_MTN": 83.74000000000001,
        "Tc_MTN": 0.35000000000000003,
        "Tq_MTN": 0.72,
        "Te_ORANGE": 0.67,
        "Tbd_ORANGE": 89.56,
        "Tc_ORANGE": 0.67,
        "Tq_ORANGE": 2.36,
        "rang_Te_ORANGE": 1,
        "rang_Te_MTN": 3,
        "rang_Te_MOOV": 2,
        "rang_Tc_ORANGE": 3,
        "rang_Tc_MTN": 2,
        "rang_Tc_MOOV": 1,
        "rang_Tbd_ORANGE": 1,
        "rang_Tbd_MTN": 2,
        "rang_Tbd_MOOV": 3,
        "rang_Tq_ORANGE": 3,
        "rang_Tq_MTN": 1,
        "rang_Tq_MOOV": 2
      },
      "id": 30
    },
    {
      "type": "Feature",
      "geometry": {
        "coordinates": [
          -2.99909,
          9.27864
        ],
        "type": "Point"
      },
      "properties": {
        "ADM0_FR": "ZANZAN",
        "ADM0_PCODE": "CI14",
        "ADM1_FR": "BOUNKANI",
        "ADM1_PCODE": "CI108",
        "ADM2_FR": "BOUNA",
        "ADM2_PCODE": "CI0801",
        "ADM3_FR": "BOUNA",
        "ADM3_PCODE": "CI080102",
        "ADM4_FR": "BOUNA",
        "ADM4_PCODE": "C1550",
        "centerLat": 9.26864,
        "centerLng": -2.99909,
        "pop": 18755,
        "Te_MOOV": 2.08,
        "Tbd_MOOV": 11.35,
        "Tc_MOOV": 0.0,
        "Tq_MOOV": 0.0,
        "Te_MTN": 1.37,
        "Tbd_MTN": 93.75,
        "Tc_MTN": 0.0,
        "Tq_MTN": 0.0,
        "Te_ORANGE": 0.7000000000000001,
        "Tbd_ORANGE": 95.77,
        "Tc_ORANGE": 0.7000000000000001,
        "Tq_ORANGE": 0.0,
        "rang_Te_ORANGE": 1,
        "rang_Te_MTN": 2,
        "rang_Te_MOOV": 3,
        "rang_Tc_ORANGE": 3,
        "rang_Tc_MTN": 1,
        "rang_Tc_MOOV": 1,
        "rang_Tbd_ORANGE": 1,
        "rang_Tbd_MTN": 2,
        "rang_Tbd_MOOV": 3,
        "rang_Tq_ORANGE": 1,
        "rang_Tq_MTN": 1,
        "rang_Tq_MOOV": 1
      },
      "id": 31
    },
    {
      "type": "Feature",
      "geometry": {
        "coordinates": [
          -6.48411,
          9.53143
        ],
        "type": "Point"
      },
      "properties": {
        "ADM0_FR": "SAVANES",
        "ADM0_PCODE": "CI11",
        "ADM1_FR": "BAGOUE",
        "ADM1_PCODE": "CI105",
        "ADM2_FR": "BOUNDIALI",
        "ADM2_PCODE": "CI0501",
        "ADM3_FR": "BOUNDIALI",
        "ADM3_PCODE": "CI050102",
        "ADM4_FR": "BOUNDIALI",
        "ADM4_PCODE": "C1557",
        "centerLat": 9.52143,
        "centerLng": -6.48411,
        "pop": 39962,
        "Te_MOOV": 5.029999999999999,
        "Tbd_MOOV": 23.810000000000002,
        "Tc_MOOV": 0.53,
        "Tq_MOOV": 10.11,
        "Te_MTN": 0.0,
        "Tbd_MTN": 87.56,
        "Tc_MTN": 0.0,
        "Tq_MTN": 0.0,
        "Te_ORANGE": 2.0,
        "Tbd_ORANGE": 87.69,
        "Tc_ORANGE": 1.02,
        "Tq_ORANGE": 0.51,
        "rang_Te_ORANGE": 2,
        "rang_Te_MTN": 1,
        "rang_Te_MOOV": 3,
        "rang_Tc_ORANGE": 3,
        "rang_Tc_MTN": 1,
        "rang_Tc_MOOV": 2,
        "rang_Tbd_ORANGE": 1,
        "rang_Tbd_MTN": 2,
        "rang_Tbd_MOOV": 3,
        "rang_Tq_ORANGE": 2,
        "rang_Tq_MTN": 1,
        "rang_Tq_MOOV": 3
      },
      "id": 32
    },
    {
      "type": "Feature",
      "geometry": {
        "coordinates": [
          -4.42938,
          8.37405
        ],
        "type": "Point"
      },
      "properties": {
        "ADM0_FR": "VALLEE DU BANDAMA",
        "ADM0_PCODE": "CI12",
        "ADM1_FR": "HAMBOL",
        "ADM1_PCODE": "CI117",
        "ADM2_FR": "DABAKALA",
        "ADM2_PCODE": "CI1701",
        "ADM3_FR": "DABAKALA",
        "ADM3_PCODE": "CI170103",
        "ADM4_FR": "DABAKALA",
        "ADM4_PCODE": "C1689",
        "centerLat": 8.36405,
        "centerLng": -4.42938,
        "pop": 14134,
        "Te_MOOV": 7.64,
        "Tbd_MOOV": 54.89000000000001,
        "Tc_MOOV": 0.75,
        "Tq_MOOV": 3.01,
        "Te_MTN": 0.6799999999999999,
        "Tbd_MTN": 85.61999999999999,
        "Tc_MTN": 0.6799999999999999,
        "Tq_MTN": 2.1,
        "Te_ORANGE": 2.31,
        "Tbd_ORANGE": 91.34,
        "Tc_ORANGE": 0.79,
        "Tq_ORANGE": 2.36,
        "rang_Te_ORANGE": 2,
        "rang_Te_MTN": 1,
        "rang_Te_MOOV": 3,
        "rang_Tc_ORANGE": 3,
        "rang_Tc_MTN": 1,
        "rang_Tc_MOOV": 2,
        "rang_Tbd_ORANGE": 1,
        "rang_Tbd_MTN": 2,
        "rang_Tbd_MOOV": 3,
        "rang_Tq_ORANGE": 2,
        "rang_Tq_MTN": 1,
        "rang_Tq_MOOV": 3
      },
      "id": 33
    },
    {
      "type": "Feature",
      "geometry": {
        "coordinates": [
          -4.38208,
          5.33271
        ],
        "type": "Point"
      },
      "properties": {
        "ADM0_FR": "LAGUNES",
        "ADM0_PCODE": "CI08",
        "ADM1_FR": "GRANDS-PONTS",
        "ADM1_PCODE": "CI115",
        "ADM2_FR": "DABOU",
        "ADM2_PCODE": "CI1501",
        "ADM3_FR": "DABOU",
        "ADM3_PCODE": "CI150101",
        "ADM4_FR": "DABOU",
        "ADM4_PCODE": "C1708",
        "centerLat": 5.32271,
        "centerLng": -4.38208,
        "pop": 61942,
        "Te_MOOV": 3.7600000000000002,
        "Tbd_MOOV": 14.149999999999999,
        "Tc_MOOV": 0.0,
        "Tq_MOOV": 0.98,
        "Te_MTN": 1.4200000000000002,
        "Tbd_MTN": 90.38000000000001,
        "Tc_MTN": 0.48,
        "Tq_MTN": 0.0,
        "Te_ORANGE": 4.8500000000000005,
        "Tbd_ORANGE": 85.71,
        "Tc_ORANGE": 0.51,
        "Tq_ORANGE": 0.0,
        "rang_Te_ORANGE": 3,
        "rang_Te_MTN": 1,
        "rang_Te_MOOV": 2,
        "rang_Tc_ORANGE": 3,
        "rang_Tc_MTN": 2,
        "rang_Tc_MOOV": 1,
        "rang_Tbd_ORANGE": 2,
        "rang_Tbd_MTN": 1,
        "rang_Tbd_MOOV": 3,
        "rang_Tq_ORANGE": 1,
        "rang_Tq_MTN": 1,
        "rang_Tq_MOOV": 3
      },
      "id": 34
    },
    {
      "type": "Feature",
      "geometry": {
        "coordinates": [
          -6.4486,
          6.89815
        ],
        "type": "Point"
      },
      "properties": {
        "ADM0_FR": "SASSANDRA-MARAHOUE",
        "ADM0_PCODE": "CI10",
        "ADM1_FR": "HAUT-SASSANDRA",
        "ADM1_PCODE": "CI118",
        "ADM2_FR": "DALOA",
        "ADM2_PCODE": "CI1801",
        "ADM3_FR": "DALOA",
        "ADM3_PCODE": "CI180102",
        "ADM4_FR": "DALOA",
        "ADM4_PCODE": "C1779",
        "centerLat": 6.88815,
        "centerLng": -6.4486,
        "pop": 245360,
        "Te_MOOV": 1.54,
        "Tbd_MOOV": 34.38,
        "Tc_MOOV": 0.0,
        "Tq_MOOV": 9.9,
        "Te_MTN": 0.0,
        "Tbd_MTN": 88.94,
        "Tc_MTN": 0.0,
        "Tq_MTN": 0.0,
        "Te_ORANGE": 0.9900000000000001,
        "Tbd_ORANGE": 84.5,
        "Tc_ORANGE": 0.5,
        "Tq_ORANGE": 0.0,
        "rang_Te_ORANGE": 2,
        "rang_Te_MTN": 1,
        "rang_Te_MOOV": 3,
        "rang_Tc_ORANGE": 3,
        "rang_Tc_MTN": 1,
        "rang_Tc_MOOV": 1,
        "rang_Tbd_ORANGE": 2,
        "rang_Tbd_MTN": 1,
        "rang_Tbd_MOOV": 3,
        "rang_Tq_ORANGE": 1,
        "rang_Tq_MTN": 1,
        "rang_Tq_MOOV": 3
      },
      "id": 35
    },
    {
      "type": "Feature",
      "geometry": {
        "coordinates": [
          -6.3623,
          7.62088
        ],
        "type": "Point"
      },
      "properties": {
        "ADM0_FR": "SASSANDRA-MARAHOUE",
        "ADM0_PCODE": "CI10",
        "ADM1_FR": "HAUT-SASSANDRA",
        "ADM1_PCODE": "CI118",
        "ADM2_FR": "VAVOUA",
        "ADM2_PCODE": "CI1803",
        "ADM3_FR": "DANANON",
        "ADM3_PCODE": "CI180303",
        "ADM4_FR": "DANANON",
        "ADM4_PCODE": "C1794",
        "centerLat": 7.61088,
        "centerLng": -6.3623,
        "pop": 3911,
        "Te_MOOV": 3.05,
        "Tbd_MOOV": 59.06,
        "Tc_MOOV": 1.5699999999999998,
        "Tq_MOOV": 0.0,
        "Te_MTN": 1.5,
        "Tbd_MTN": 73.28,
        "Tc_MTN": 0.0,
        "Tq_MTN": 2.36,
        "Te_ORANGE": 2.29,
        "Tbd_ORANGE": 98.44000000000001,
        "Tc_ORANGE": 0.0,
        "Tq_ORANGE": 0.0,
        "rang_Te_ORANGE": 2,
        "rang_Te_MTN": 1,
        "rang_Te_MOOV": 3,
        "rang_Tc_ORANGE": 1,
        "rang_Tc_MTN": 1,
        "rang_Tc_MOOV": 3,
        "rang_Tbd_ORANGE": 1,
        "rang_Tbd_MTN": 2,
        "rang_Tbd_MOOV": 3,
        "rang_Tq_ORANGE": 1,
        "rang_Tq_MTN": 3,
        "rang_Tq_MOOV": 1
      },
      "id": 36
    },
    {
      "type": "Feature",
      "geometry": {
        "coordinates": [
          -5.16657,
          9.936069999999999
        ],
        "type": "Point"
      },
      "properties": {
        "ADM0_FR": "SAVANES",
        "ADM0_PCODE": "CI11",
        "ADM1_FR": "TCHOLOGO",
        "ADM1_PCODE": "CI131",
        "ADM2_FR": "FERKESSEDOUGOU",
        "ADM2_PCODE": "CI3101",
        "ADM3_FR": "FERKESSEDOUGOU",
        "ADM3_PCODE": "CI310101",
        "ADM4_FR": "DÉTIKAHA",
        "ADM4_PCODE": "C1902",
        "centerLat": 9.92607,
        "centerLng": -5.16657,
        "pop": 1447,
        "Te_MOOV": 7.7700000000000005,
        "Tbd_MOOV": 48.42,
        "Tc_MOOV": 2.11,
        "Tq_MOOV": 10.530000000000001,
        "Te_MTN": 9.68,
        "Tbd_MTN": 70.24000000000001,
        "Tc_MTN": 0.0,
        "Tq_MTN": 0.0,
        "Te_ORANGE": 0.0,
        "Tbd_ORANGE": 90.38000000000001,
        "Tc_ORANGE": 0.0,
        "Tq_ORANGE": 0.0,
        "rang_Te_ORANGE": 1,
        "rang_Te_MTN": 3,
        "rang_Te_MOOV": 2,
        "rang_Tc_ORANGE": 1,
        "rang_Tc_MTN": 1,
        "rang_Tc_MOOV": 3,
        "rang_Tbd_ORANGE": 1,
        "rang_Tbd_MTN": 2,
        "rang_Tbd_MOOV": 3,
        "rang_Tq_ORANGE": 1,
        "rang_Tq_MTN": 1,
        "rang_Tq_MOOV": 3
      },
      "id": 37
    },
    {
      "type": "Feature",
      "geometry": {
        "coordinates": [
          -5.35702,
          5.84833
        ],
        "type": "Point"
      },
      "properties": {
        "ADM0_FR": "GOH-DJIBOUA",
        "ADM0_PCODE": "CI06",
        "ADM1_FR": "LOH-DJIBOUA",
        "ADM1_PCODE": "CI122",
        "ADM2_FR": "DIVO",
        "ADM2_PCODE": "CI2201",
        "ADM3_FR": "DIVO",
        "ADM3_PCODE": "CI220103",
        "ADM4_FR": "DIVO",
        "ADM4_PCODE": "C2117",
        "centerLat": 5.83833,
        "centerLng": -5.35702,
        "pop": 105397,
        "Te_MOOV": 1.08,
        "Tbd_MOOV": 21.310000000000002,
        "Tc_MOOV": 0.0,
        "Tq_MOOV": 0.0,
        "Te_MTN": 0.0,
        "Tbd_MTN": 85.95,
        "Tc_MTN": 0.0,
        "Tq_MTN": 9.78,
        "Te_ORANGE": 0.0,
        "Tbd_ORANGE": 93.51,
        "Tc_ORANGE": 0.0,
        "Tq_ORANGE": 0.0,
        "rang_Te_ORANGE": 1,
        "rang_Te_MTN": 1,
        "rang_Te_MOOV": 3,
        "rang_Tc_ORANGE": 1,
        "rang_Tc_MTN": 1,
        "rang_Tc_MOOV": 1,
        "rang_Tbd_ORANGE": 1,
        "rang_Tbd_MTN": 2,
        "rang_Tbd_MOOV": 3,
        "rang_Tq_ORANGE": 1,
        "rang_Tq_MTN": 3,
        "rang_Tq_MOOV": 1
      },
      "id": 38
    },
    {
      "type": "Feature",
      "geometry": {
        "coordinates": [
          -3.34132,
          9.81814
        ],
        "type": "Point"
      },
      "properties": {
        "ADM0_FR": "ZANZAN",
        "ADM0_PCODE": "CI14",
        "ADM1_FR": "BOUNKANI",
        "ADM1_PCODE": "CI108",
        "ADM2_FR": "DOROPO",
        "ADM2_PCODE": "CI0802",
        "ADM3_FR": "DOROPO",
        "ADM3_PCODE": "CI080202",
        "ADM4_FR": "DOROPO",
        "ADM4_PCODE": "C2324",
        "centerLat": 9.80814,
        "centerLng": -3.34132,
        "pop": 14388,
        "Te_MOOV": 0.0,
        "Tbd_MOOV": 21.62,
        "Tc_MOOV": 0.0,
        "Tq_MOOV": 0.0,
        "Te_MTN": 0.0,
        "Tbd_MTN": 92.47,
        "Tc_MTN": 0.0,
        "Tq_MTN": 0.0,
        "Te_ORANGE": 0.0,
        "Tbd_ORANGE": 91.89,
        "Tc_ORANGE": 0.0,
        "Tq_ORANGE": 0.0,
        "rang_Te_ORANGE": 1,
        "rang_Te_MTN": 1,
        "rang_Te_MOOV": 1,
        "rang_Tc_ORANGE": 1,
        "rang_Tc_MTN": 1,
        "rang_Tc_MOOV": 1,
        "rang_Tbd_ORANGE": 2,
        "rang_Tbd_MTN": 1,
        "rang_Tbd_MOOV": 3,
        "rang_Tq_ORANGE": 1,
        "rang_Tq_MTN": 1,
        "rang_Tq_MOOV": 1
      },
      "id": 39
    },
    {
      "type": "Feature",
      "geometry": {
        "coordinates": [
          -7.4,
          7.46
        ],
        "type": "Point"
      },
      "properties": {
        "ADM0_FR": "MONTAGNES",
        "ADM0_PCODE": "CI09",
        "ADM1_FR": "TONKPI",
        "ADM1_PCODE": "CI132",
        "ADM2_FR": "MAN",
        "ADM2_PCODE": "CI3203",
        "ADM3_FR": "FAGNAMPLEU",
        "ADM3_PCODE": "CI320303",
        "ADM4_FR": "FAGNAMPLEU",
        "ADM4_PCODE": "C2530",
        "centerLat": 7.45,
        "centerLng": -7.4,
        "pop": 1701,
        "Te_MOOV": 12.5,
        "Tbd_MOOV": 20.169999999999998,
        "Tc_MOOV": 5.04,
        "Tq_MOOV": 25.86,
        "Te_MTN": 15.629999999999999,
        "Tbd_MTN": 53.269999999999996,
        "Tc_MTN": 10.280000000000001,
        "Tq_MTN": 36.63,
        "Te_ORANGE": 3.5700000000000003,
        "Tbd_ORANGE": 82.22,
        "Tc_ORANGE": 0.0,
        "Tq_ORANGE": 0.0,
        "rang_Te_ORANGE": 1,
        "rang_Te_MTN": 3,
        "rang_Te_MOOV": 2,
        "rang_Tc_ORANGE": 1,
        "rang_Tc_MTN": 3,
        "rang_Tc_MOOV": 2,
        "rang_Tbd_ORANGE": 1,
        "rang_Tbd_MTN": 2,
        "rang_Tbd_MOOV": 3,
        "rang_Tq_ORANGE": 1,
        "rang_Tq_MTN": 3,
        "rang_Tq_MOOV": 2
      },
      "id": 40
    },
    {
      "type": "Feature",
      "geometry": {
        "coordinates": [
          -5.94436,
          6.13836
        ],
        "type": "Point"
      },
      "properties": {
        "ADM0_FR": "GOH-DJIBOUA",
        "ADM0_PCODE": "CI06",
        "ADM1_FR": "GOH",
        "ADM1_PCODE": "CI113",
        "ADM2_FR": "GAGNOA",
        "ADM2_PCODE": "CI1301",
        "ADM3_FR": "GAGNOA",
        "ADM3_PCODE": "CI130106",
        "ADM4_FR": "GAGNOA",
        "ADM4_PCODE": "C2707",
        "centerLat": 6.12836,
        "centerLng": -5.94436,
        "pop": 160465,
        "Te_MOOV": 6.909999999999999,
        "Tbd_MOOV": 41.58,
        "Tc_MOOV": 0.9900000000000001,
        "Tq_MOOV": 2.48,
        "Te_MTN": 0.47000000000000003,
        "Tbd_MTN": 71.5,
        "Tc_MTN": 1.87,
        "Tq_MTN": 20.19,
        "Te_ORANGE": 0.91,
        "Tbd_ORANGE": 86.18,
        "Tc_ORANGE": 5.53,
        "Tq_ORANGE": 0.0,
        "rang_Te_ORANGE": 2,
        "rang_Te_MTN": 1,
        "rang_Te_MOOV": 3,
        "rang_Tc_ORANGE": 3,
        "rang_Tc_MTN": 2,
        "rang_Tc_MOOV": 1,
        "rang_Tbd_ORANGE": 1,
        "rang_Tbd_MTN": 2,
        "rang_Tbd_MOOV": 3,
        "rang_Tq_ORANGE": 1,
        "rang_Tq_MTN": 3,
        "rang_Tq_MOOV": 2
      },
      "id": 41
    },
    {
      "type": "Feature",
      "geometry": {
        "coordinates": [
          -5.00208,
          5.259189999999999
        ],
        "type": "Point"
      },
      "properties": {
        "ADM0_FR": "LAGUNES",
        "ADM0_PCODE": "CI08",
        "ADM1_FR": "GRANDS-PONTS",
        "ADM1_PCODE": "CI115",
        "ADM2_FR": "GRAND-LAHOU",
        "ADM2_PCODE": "CI1502",
        "ADM3_FR": "GRAND-LAHOU",
        "ADM3_PCODE": "CI150204",
        "ADM4_FR": "GRAND-LAHOU",
        "ADM4_PCODE": "C3376",
        "centerLat": 5.24919,
        "centerLng": -5.00208,
        "pop": 28470,
        "Te_MOOV": 0.0,
        "Tbd_MOOV": 34.160000000000004,
        "Tc_MOOV": 0.0,
        "Tq_MOOV": 1.7999999999999998,
        "Te_MTN": 0.0,
        "Tbd_MTN": 93.5,
        "Tc_MTN": 0.0,
        "Tq_MTN": 0.0,
        "Te_ORANGE": 0.0,
        "Tbd_ORANGE": 91.0,
        "Tc_ORANGE": 0.0,
        "Tq_ORANGE": 0.0,
        "rang_Te_ORANGE": 1,
        "rang_Te_MTN": 1,
        "rang_Te_MOOV": 1,
        "rang_Tc_ORANGE": 1,
        "rang_Tc_MTN": 1,
        "rang_Tc_MOOV": 1,
        "rang_Tbd_ORANGE": 2,
        "rang_Tbd_MTN": 1,
        "rang_Tbd_MOOV": 3,
        "rang_Tq_ORANGE": 1,
        "rang_Tq_MTN": 1,
        "rang_Tq_MOOV": 3
      },
      "id": 42
    },
    {
      "type": "Feature",
      "geometry": {
        "coordinates": [
          -6.63382,
          5.82573
        ],
        "type": "Point"
      },
      "properties": {
        "ADM0_FR": "BAS-SASSANDRA",
        "ADM0_PCODE": "CI01",
        "ADM1_FR": "NAWA",
        "ADM1_PCODE": "CI126",
        "ADM2_FR": "SOUBRE",
        "ADM2_PCODE": "CI2604",
        "ADM3_FR": "SOUBRE",
        "ADM3_PCODE": "CI260401",
        "ADM4_FR": "GUÉYO",
        "ADM4_PCODE": "C3469",
        "centerLat": 5.81573,
        "centerLng": -6.63382,
        "pop": 242,
        "Te_MOOV": 3.95,
        "Tbd_MOOV": 37.059999999999995,
        "Tc_MOOV": 1.76,
        "Tq_MOOV": 7.779999999999999,
        "Te_MTN": 0.5700000000000001,
        "Tbd_MTN": 58.379999999999995,
        "Tc_MTN": 2.8899999999999997,
        "Tq_MTN": 87.12,
        "Te_ORANGE": 0.0,
        "Tbd_ORANGE": 93.78999999999999,
        "Tc_ORANGE": 0.0,
        "Tq_ORANGE": 0.0,
        "rang_Te_ORANGE": 1,
        "rang_Te_MTN": 2,
        "rang_Te_MOOV": 3,
        "rang_Tc_ORANGE": 1,
        "rang_Tc_MTN": 3,
        "rang_Tc_MOOV": 2,
        "rang_Tbd_ORANGE": 1,
        "rang_Tbd_MTN": 2,
        "rang_Tbd_MOOV": 3,
        "rang_Tq_ORANGE": 1,
        "rang_Tq_MTN": 3,
        "rang_Tq_MOOV": 2
      },
      "id": 43
    },
    {
      "type": "Feature",
      "geometry": {
        "coordinates": [
          -7.48625,
          6.55472
        ],
        "type": "Point"
      },
      "properties": {
        "ADM0_FR": "MONTAGNES",
        "ADM0_PCODE": "CI09",
        "ADM1_FR": "CAVALLY",
        "ADM1_PCODE": "CI109",
        "ADM2_FR": "GUIGLO",
        "ADM2_PCODE": "CI0902",
        "ADM3_FR": "GUIGLO",
        "ADM3_PCODE": "CI090201",
        "ADM4_FR": "GUIGLO",
        "ADM4_PCODE": "C3495",
        "centerLat": 6.54472,
        "centerLng": -7.48625,
        "pop": 52544,
        "Te_MOOV": 3.1300000000000003,
        "Tbd_MOOV": 11.83,
        "Tc_MOOV": 1.08,
        "Tq_MOOV": 38.379999999999995,
        "Te_MTN": 0.5,
        "Tbd_MTN": 91.0,
        "Tc_MTN": 0.0,
        "Tq_MTN": 0.0,
        "Te_ORANGE": 0.5,
        "Tbd_ORANGE": 96.98,
        "Tc_ORANGE": 0.0,
        "Tq_ORANGE": 0.0,
        "rang_Te_ORANGE": 1,
        "rang_Te_MTN": 1,
        "rang_Te_MOOV": 3,
        "rang_Tc_ORANGE": 1,
        "rang_Tc_MTN": 1,
        "rang_Tc_MOOV": 3,
        "rang_Tbd_ORANGE": 1,
        "rang_Tbd_MTN": 2,
        "rang_Tbd_MOOV": 3,
        "rang_Tq_ORANGE": 1,
        "rang_Tq_MTN": 1,
        "rang_Tq_MOOV": 3
      },
      "id": 44
    },
    {
      "type": "Feature",
      "geometry": {
        "coordinates": [
          -5.24131,
          5.52964
        ],
        "type": "Point"
      },
      "properties": {
        "ADM0_FR": "GOH-DJIBOUA",
        "ADM0_PCODE": "CI06",
        "ADM1_FR": "LOH-DJIBOUA",
        "ADM1_PCODE": "CI122",
        "ADM2_FR": "GUITRY",
        "ADM2_PCODE": "CI2202",
        "ADM3_FR": "GUITRY",
        "ADM3_PCODE": "CI220201",
        "ADM4_FR": "GUITRY",
        "ADM4_PCODE": "C3525",
        "centerLat": 5.51964,
        "centerLng": -5.24131,
        "pop": 11445,
        "Te_MOOV": 0.9900000000000001,
        "Tbd_MOOV": 43.0,
        "Tc_MOOV": 0.0,
        "Tq_MOOV": 0.0,
        "Te_MTN": 0.0,
        "Tbd_MTN": 85.15,
        "Tc_MTN": 1.9800000000000002,
        "Tq_MTN": 12.120000000000001,
        "Te_ORANGE": 0.0,
        "Tbd_ORANGE": 97.03,
        "Tc_ORANGE": 0.0,
        "Tq_ORANGE": 0.9900000000000001,
        "rang_Te_ORANGE": 1,
        "rang_Te_MTN": 1,
        "rang_Te_MOOV": 3,
        "rang_Tc_ORANGE": 1,
        "rang_Tc_MTN": 3,
        "rang_Tc_MOOV": 1,
        "rang_Tbd_ORANGE": 1,
        "rang_Tbd_MTN": 2,
        "rang_Tbd_MOOV": 3,
        "rang_Tq_ORANGE": 2,
        "rang_Tq_MTN": 3,
        "rang_Tq_MOOV": 1
      },
      "id": 45
    },
    {
      "type": "Feature",
      "geometry": {
        "coordinates": [
          -7.71485,
          6.57927
        ],
        "type": "Point"
      },
      "properties": {
        "ADM0_FR": "MONTAGNES",
        "ADM0_PCODE": "CI09",
        "ADM1_FR": "CAVALLY",
        "ADM1_PCODE": "CI109",
        "ADM2_FR": "GUIGLO",
        "ADM2_PCODE": "CI0902",
        "ADM3_FR": "KAADE",
        "ADM3_PCODE": "CI090203",
        "ADM4_FR": "KAADE",
        "ADM4_PCODE": "C3609",
        "centerLat": 6.56927,
        "centerLng": -7.71485,
        "pop": 6853,
        "Te_MOOV": 9.09,
        "Tbd_MOOV": 16.0,
        "Tc_MOOV": 1.0,
        "Tq_MOOV": 42.42,
        "Te_MTN": 12.61,
        "Tbd_MTN": 72.92,
        "Tc_MTN": 17.53,
        "Tq_MTN": 35.63,
        "Te_ORANGE": 1.7999999999999998,
        "Tbd_ORANGE": 95.41,
        "Tc_ORANGE": 0.0,
        "Tq_ORANGE": 0.0,
        "rang_Te_ORANGE": 1,
        "rang_Te_MTN": 3,
        "rang_Te_MOOV": 2,
        "rang_Tc_ORANGE": 1,
        "rang_Tc_MTN": 3,
        "rang_Tc_MOOV": 2,
        "rang_Tbd_ORANGE": 1,
        "rang_Tbd_MTN": 2,
        "rang_Tbd_MOOV": 3,
        "rang_Tq_ORANGE": 1,
        "rang_Tq_MTN": 2,
        "rang_Tq_MOOV": 3
      },
      "id": 46
    },
    {
      "type": "Feature",
      "geometry": {
        "coordinates": [
          -7.51257,
          9.826039999999999
        ],
        "type": "Point"
      },
      "properties": {
        "ADM0_FR": "DENGUELE",
        "ADM0_PCODE": "CI03",
        "ADM1_FR": "FOLON",
        "ADM1_PCODE": "CI110",
        "ADM2_FR": "KANIASSO",
        "ADM2_PCODE": "CI1001",
        "ADM3_FR": "KANIASSO",
        "ADM3_PCODE": "CI100102",
        "ADM4_FR": "KANIASSO",
        "ADM4_PCODE": "C3788",
        "centerLat": 9.81604,
        "centerLng": -7.51257,
        "pop": 2545,
        "Te_MOOV": 5.26,
        "Tbd_MOOV": 23.46,
        "Tc_MOOV": 2.4699999999999998,
        "Tq_MOOV": 6.17,
        "Te_MTN": 0.0,
        "Tbd_MTN": 93.14,
        "Tc_MTN": 0.0,
        "Tq_MTN": 2.55,
        "Te_ORANGE": 0.58,
        "Tbd_ORANGE": 90.06,
        "Tc_ORANGE": 0.0,
        "Tq_ORANGE": 0.58,
        "rang_Te_ORANGE": 2,
        "rang_Te_MTN": 1,
        "rang_Te_MOOV": 3,
        "rang_Tc_ORANGE": 1,
        "rang_Tc_MTN": 1,
        "rang_Tc_MOOV": 3,
        "rang_Tbd_ORANGE": 2,
        "rang_Tbd_MTN": 1,
        "rang_Tbd_MOOV": 3,
        "rang_Tq_ORANGE": 1,
        "rang_Tq_MTN": 2,
        "rang_Tq_MOOV": 3
      },
      "id": 47
    },
    {
      "type": "Feature",
      "geometry": {
        "coordinates": [
          -5.1,
          8.19
        ],
        "type": "Point"
      },
      "properties": {
        "ADM0_FR": "VALLEE DU BANDAMA",
        "ADM0_PCODE": "CI12",
        "ADM1_FR": "HAMBOL",
        "ADM1_PCODE": "CI117",
        "ADM2_FR": "KATIOLA",
        "ADM2_PCODE": "CI1702",
        "ADM3_FR": "KATIOLA",
        "ADM3_PCODE": "CI170201",
        "ADM4_FR": "KATIONON2",
        "ADM4_PCODE": "C3917",
        "centerLat": 8.18,
        "centerLng": -5.1,
        "pop": 1124,
        "Te_MOOV": 1.01,
        "Tbd_MOOV": 26.529999999999998,
        "Tc_MOOV": 0.0,
        "Tq_MOOV": 2.06,
        "Te_MTN": 0.0,
        "Tbd_MTN": 70.83,
        "Tc_MTN": 1.04,
        "Tq_MTN": 3.49,
        "Te_ORANGE": 0.0,
        "Tbd_ORANGE": 92.86,
        "Tc_ORANGE": 1.02,
        "Tq_ORANGE": 0.0,
        "rang_Te_ORANGE": 1,
        "rang_Te_MTN": 1,
        "rang_Te_MOOV": 3,
        "rang_Tc_ORANGE": 2,
        "rang_Tc_MTN": 3,
        "rang_Tc_MOOV": 1,
        "rang_Tbd_ORANGE": 1,
        "rang_Tbd_MTN": 2,
        "rang_Tbd_MOOV": 3,
        "rang_Tq_ORANGE": 1,
        "rang_Tq_MTN": 3,
        "rang_Tq_MOOV": 2
      },
      "id": 48
    },
    {
      "type": "Feature",
      "geometry": {
        "coordinates": [
          -4.61251,
          9.16113
        ],
        "type": "Point"
      },
      "properties": {
        "ADM0_FR": "SAVANES",
        "ADM0_PCODE": "CI11",
        "ADM1_FR": "TCHOLOGO",
        "ADM1_PCODE": "CI131",
        "ADM2_FR": "KONG",
        "ADM2_PCODE": "CI3102",
        "ADM3_FR": "KONG",
        "ADM3_PCODE": "CI310201",
        "ADM4_FR": "KONG",
        "ADM4_PCODE": "C4324",
        "centerLat": 9.15113,
        "centerLng": -4.61251,
        "pop": 11774,
        "Te_MOOV": 2.29,
        "Tbd_MOOV": 32.81,
        "Tc_MOOV": 0.7799999999999999,
        "Tq_MOOV": 3.91,
        "Te_MTN": 0.0,
        "Tbd_MTN": 89.23,
        "Tc_MTN": 0.0,
        "Tq_MTN": 0.0,
        "Te_ORANGE": 0.0,
        "Tbd_ORANGE": 84.85000000000001,
        "Tc_ORANGE": 0.0,
        "Tq_ORANGE": 0.0,
        "rang_Te_ORANGE": 1,
        "rang_Te_MTN": 1,
        "rang_Te_MOOV": 3,
        "rang_Tc_ORANGE": 1,
        "rang_Tc_MTN": 1,
        "rang_Tc_MOOV": 3,
        "rang_Tbd_ORANGE": 2,
        "rang_Tbd_MTN": 1,
        "rang_Tbd_MOOV": 3,
        "rang_Tq_ORANGE": 1,
        "rang_Tq_MTN": 1,
        "rang_Tq_MOOV": 3
      },
      "id": 49
    },
    {
      "type": "Feature",
      "geometry": {
        "coordinates": [
          -6.07949,
          7.825889999999999
        ],
        "type": "Point"
      },
      "properties": {
        "ADM0_FR": "WOROBA",
        "ADM0_PCODE": "CI13",
        "ADM1_FR": "BERE",
        "ADM1_PCODE": "CI107",
        "ADM2_FR": "KOUNAHIRI",
        "ADM2_PCODE": "CI0702",
        "ADM3_FR": "KONGASSO",
        "ADM3_PCODE": "CI070202",
        "ADM4_FR": "KONGASSO",
        "ADM4_PCODE": "C4327",
        "centerLat": 7.81589,
        "centerLng": -6.07949,
        "pop": 4714,
        "Te_MOOV": 11.690000000000001,
        "Tbd_MOOV": 19.85,
        "Tc_MOOV": 2.21,
        "Tq_MOOV": 17.78,
        "Te_MTN": 0.0,
        "Tbd_MTN": 91.61,
        "Tc_MTN": 0.0,
        "Tq_MTN": 0.0,
        "Te_ORANGE": 0.0,
        "Tbd_ORANGE": 100.0,
        "Tc_ORANGE": 0.0,
        "Tq_ORANGE": 0.0,
        "rang_Te_ORANGE": 1,
        "rang_Te_MTN": 1,
        "rang_Te_MOOV": 3,
        "rang_Tc_ORANGE": 1,
        "rang_Tc_MTN": 1,
        "rang_Tc_MOOV": 3,
        "rang_Tbd_ORANGE": 1,
        "rang_Tbd_MTN": 2,
        "rang_Tbd_MOOV": 3,
        "rang_Tq_ORANGE": 1,
        "rang_Tq_MTN": 1,
        "rang_Tq_MOOV": 3
      },
      "id": 50
    },
    {
      "type": "Feature",
      "geometry": {
        "coordinates": [
          -5.6375,
          9.46799
        ],
        "type": "Point"
      },
      "properties": {
        "ADM0_FR": "SAVANES",
        "ADM0_PCODE": "CI11",
        "ADM1_FR": "PORO",
        "ADM1_PCODE": "CI128",
        "ADM2_FR": "KORHOGO",
        "ADM2_PCODE": "CI2802",
        "ADM3_FR": "KORHOGO",
        "ADM3_PCODE": "CI280201",
        "ADM4_FR": "KORHOGO",
        "ADM4_PCODE": "C4410",
        "centerLat": 9.45799,
        "centerLng": -5.6375,
        "pop": 243048,
        "Te_MOOV": 1.96,
        "Tbd_MOOV": 59.35,
        "Tc_MOOV": 0.4,
        "Tq_MOOV": 4.3999999999999995,
        "Te_MTN": 0.0,
        "Tbd_MTN": 90.23,
        "Tc_MTN": 0.38999999999999996,
        "Tq_MTN": 0.38999999999999996,
        "Te_ORANGE": 0.0,
        "Tbd_ORANGE": 84.65,
        "Tc_ORANGE": 0.7799999999999999,
        "Tq_ORANGE": 0.0,
        "rang_Te_ORANGE": 1,
        "rang_Te_MTN": 1,
        "rang_Te_MOOV": 3,
        "rang_Tc_ORANGE": 3,
        "rang_Tc_MTN": 1,
        "rang_Tc_MOOV": 2,
        "rang_Tbd_ORANGE": 2,
        "rang_Tbd_MTN": 1,
        "rang_Tbd_MOOV": 3,
        "rang_Tq_ORANGE": 1,
        "rang_Tq_MTN": 2,
        "rang_Tq_MOOV": 3
      },
      "id": 51
    },
    {
      "type": "Feature",
      "geometry": {
        "coordinates": [
          -7.61,
          9.629999999999999
        ],
        "type": "Point"
      },
      "properties": {
        "ADM0_FR": "DENGUELE",
        "ADM0_PCODE": "CI03",
        "ADM1_FR": "KABADOUGOU",
        "ADM1_PCODE": "CI121",
        "ADM2_FR": "SAMATIGUILA",
        "ADM2_PCODE": "CI2104",
        "ADM3_FR": "KIMBIRILA-SUD",
        "ADM3_PCODE": "CI210402",
        "ADM4_FR": "KOTOUBA",
        "ADM4_PCODE": "C4479",
        "centerLat": 9.62,
        "centerLng": -7.61,
        "pop": 554,
        "Te_MOOV": 0.0,
        "Tbd_MOOV": 7.340000000000001,
        "Tc_MOOV": 0.5599999999999999,
        "Tq_MOOV": 0.0,
        "Te_MTN": 0.5599999999999999,
        "Tbd_MTN": 93.85,
        "Tc_MTN": 0.0,
        "Tq_MTN": 0.58,
        "Te_ORANGE": 1.1199999999999999,
        "Tbd_ORANGE": 97.18,
        "Tc_ORANGE": 0.0,
        "Tq_ORANGE": 0.0,
        "rang_Te_ORANGE": 3,
        "rang_Te_MTN": 2,
        "rang_Te_MOOV": 1,
        "rang_Tc_ORANGE": 1,
        "rang_Tc_MTN": 1,
        "rang_Tc_MOOV": 3,
        "rang_Tbd_ORANGE": 1,
        "rang_Tbd_MTN": 2,
        "rang_Tbd_MOOV": 3,
        "rang_Tq_ORANGE": 1,
        "rang_Tq_MTN": 3,
        "rang_Tq_MOOV": 1
      },
      "id": 52
    },
    {
      "type": "Feature",
      "geometry": {
        "coordinates": [
          -7.55442,
          7.41545
        ],
        "type": "Point"
      },
      "properties": {
        "ADM0_FR": "MONTAGNES",
        "ADM0_PCODE": "CI09",
        "ADM1_FR": "TONKPI",
        "ADM1_PCODE": "CI132",
        "ADM2_FR": "MAN",
        "ADM2_PCODE": "CI3203",
        "ADM3_FR": "MAN",
        "ADM3_PCODE": "CI320301",
        "ADM4_FR": "MAN",
        "ADM4_PCODE": "C5323",
        "centerLat": 7.40545,
        "centerLng": -7.55442,
        "pop": 149041,
        "Te_MOOV": 2.0,
        "Tbd_MOOV": 56.120000000000005,
        "Tc_MOOV": 1.53,
        "Tq_MOOV": 2.06,
        "Te_MTN": 0.0,
        "Tbd_MTN": 90.0,
        "Tc_MTN": 0.0,
        "Tq_MTN": 3.61,
        "Te_ORANGE": 1.02,
        "Tbd_ORANGE": 76.92,
        "Tc_ORANGE": 0.0,
        "Tq_ORANGE": 0.0,
        "rang_Te_ORANGE": 2,
        "rang_Te_MTN": 1,
        "rang_Te_MOOV": 3,
        "rang_Tc_ORANGE": 1,
        "rang_Tc_MTN": 1,
        "rang_Tc_MOOV": 3,
        "rang_Tbd_ORANGE": 2,
        "rang_Tbd_MTN": 1,
        "rang_Tbd_MOOV": 3,
        "rang_Tq_ORANGE": 1,
        "rang_Tq_MTN": 3,
        "rang_Tq_MOOV": 2
      },
      "id": 53
    },
    {
      "type": "Feature",
      "geometry": {
        "coordinates": [
          -5.9,
          10.02
        ],
        "type": "Point"
      },
      "properties": {
        "ADM0_FR": "SAVANES",
        "ADM0_PCODE": "CI11",
        "ADM1_FR": "PORO",
        "ADM1_PCODE": "CI128",
        "ADM2_FR": "M'BENGUE",
        "ADM2_PCODE": "CI2803",
        "ADM3_FR": "M'BENGUE",
        "ADM3_PCODE": "CI280301",
        "ADM4_FR": "M'BENGUE",
        "ADM4_PCODE": "C5429",
        "centerLat": 10.01,
        "centerLng": -5.9,
        "pop": 22242,
        "Te_MOOV": 1.08,
        "Tbd_MOOV": 57.379999999999995,
        "Tc_MOOV": 1.09,
        "Tq_MOOV": 1.09,
        "Te_MTN": 0.0,
        "Tbd_MTN": 90.86,
        "Tc_MTN": 0.54,
        "Tq_MTN": 0.0,
        "Te_ORANGE": 0.0,
        "Tbd_ORANGE": 86.56,
        "Tc_ORANGE": 0.54,
        "Tq_ORANGE": 0.0,
        "rang_Te_ORANGE": 1,
        "rang_Te_MTN": 1,
        "rang_Te_MOOV": 3,
        "rang_Tc_ORANGE": 1,
        "rang_Tc_MTN": 1,
        "rang_Tc_MOOV": 3,
        "rang_Tbd_ORANGE": 2,
        "rang_Tbd_MTN": 1,
        "rang_Tbd_MOOV": 3,
        "rang_Tq_ORANGE": 1,
        "rang_Tq_MTN": 1,
        "rang_Tq_MOOV": 3
      },
      "id": 54
    },
    {
      "type": "Feature",
      "geometry": {
        "coordinates": [
          -6.55634,
          5.41618
        ],
        "type": "Point"
      },
      "properties": {
        "ADM0_FR": "BAS-SASSANDRA",
        "ADM0_PCODE": "CI01",
        "ADM1_FR": "NAWA",
        "ADM1_PCODE": "CI126",
        "ADM2_FR": "MEAGUI",
        "ADM2_PCODE": "CI2603",
        "ADM3_FR": "MEAGUI",
        "ADM3_PCODE": "CI260301",
        "ADM4_FR": "MÉAGUI",
        "ADM4_PCODE": "C5452",
        "centerLat": 5.40618,
        "centerLng": -6.55634,
        "pop": 57367,
        "Te_MOOV": 3.7199999999999998,
        "Tbd_MOOV": 44.75,
        "Tc_MOOV": 2.21,
        "Tq_MOOV": 1.66,
        "Te_MTN": 1.73,
        "Tbd_MTN": 93.53,
        "Tc_MTN": 0.59,
        "Tq_MTN": 1.18,
        "Te_ORANGE": 0.0,
        "Tbd_ORANGE": 90.32,
        "Tc_ORANGE": 0.0,
        "Tq_ORANGE": 0.0,
        "rang_Te_ORANGE": 1,
        "rang_Te_MTN": 2,
        "rang_Te_MOOV": 3,
        "rang_Tc_ORANGE": 1,
        "rang_Tc_MTN": 2,
        "rang_Tc_MOOV": 3,
        "rang_Tbd_ORANGE": 2,
        "rang_Tbd_MTN": 1,
        "rang_Tbd_MOOV": 3,
        "rang_Tq_ORANGE": 1,
        "rang_Tq_MTN": 2,
        "rang_Tq_MOOV": 3
      },
      "id": 55
    },
    {
      "type": "Feature",
      "geometry": {
        "coordinates": [
          -5.29,
          8.67
        ],
        "type": "Point"
      },
      "properties": {
        "ADM0_FR": "VALLEE DU BANDAMA",
        "ADM0_PCODE": "CI12",
        "ADM1_FR": "HAMBOL",
        "ADM1_PCODE": "CI117",
        "ADM2_FR": "NIAKARAMADOUGOU",
        "ADM2_PCODE": "CI1703",
        "ADM3_FR": "NIAKARAMADOUGOU",
        "ADM3_PCODE": "CI170301",
        "ADM4_FR": "NIAKARAMADOUGOU",
        "ADM4_PCODE": "C5977",
        "centerLat": 8.66,
        "centerLng": -5.29,
        "pop": 16812,
        "Te_MOOV": 2.0,
        "Tbd_MOOV": 44.22,
        "Tc_MOOV": 0.0,
        "Tq_MOOV": 4.08,
        "Te_MTN": 0.67,
        "Tbd_MTN": 51.349999999999994,
        "Tc_MTN": 0.0,
        "Tq_MTN": 0.0,
        "Te_ORANGE": 0.0,
        "Tbd_ORANGE": 95.33,
        "Tc_ORANGE": 0.67,
        "Tq_ORANGE": 0.0,
        "rang_Te_ORANGE": 1,
        "rang_Te_MTN": 2,
        "rang_Te_MOOV": 3,
        "rang_Tc_ORANGE": 3,
        "rang_Tc_MTN": 1,
        "rang_Tc_MOOV": 1,
        "rang_Tbd_ORANGE": 1,
        "rang_Tbd_MTN": 2,
        "rang_Tbd_MOOV": 3,
        "rang_Tq_ORANGE": 1,
        "rang_Tq_MTN": 1,
        "rang_Tq_MOOV": 3
      },
      "id": 56
    },
    {
      "type": "Feature",
      "geometry": {
        "coordinates": [
          -7.56213,
          9.516869999999999
        ],
        "type": "Point"
      },
      "properties": {
        "ADM0_FR": "DENGUELE",
        "ADM0_PCODE": "CI03",
        "ADM1_FR": "KABADOUGOU",
        "ADM1_PCODE": "CI121",
        "ADM2_FR": "ODIENNE",
        "ADM2_PCODE": "CI2103",
        "ADM3_FR": "ODIENNE",
        "ADM3_PCODE": "CI210301",
        "ADM4_FR": "ODIENNE",
        "ADM4_PCODE": "C6210",
        "centerLat": 9.50687,
        "centerLng": -7.56213,
        "pop": 42173,
        "Te_MOOV": 1.08,
        "Tbd_MOOV": 52.459999999999994,
        "Tc_MOOV": 0.0,
        "Tq_MOOV": 3.2800000000000002,
        "Te_MTN": 0.54,
        "Tbd_MTN": 84.24000000000001,
        "Tc_MTN": 0.0,
        "Tq_MTN": 0.58,
        "Te_ORANGE": 0.0,
        "Tbd_ORANGE": 87.57000000000001,
        "Tc_ORANGE": 0.0,
        "Tq_ORANGE": 0.0,
        "rang_Te_ORANGE": 1,
        "rang_Te_MTN": 2,
        "rang_Te_MOOV": 3,
        "rang_Tc_ORANGE": 1,
        "rang_Tc_MTN": 1,
        "rang_Tc_MOOV": 1,
        "rang_Tbd_ORANGE": 1,
        "rang_Tbd_MTN": 2,
        "rang_Tbd_MOOV": 3,
        "rang_Tq_ORANGE": 1,
        "rang_Tq_MTN": 2,
        "rang_Tq_MOOV": 3
      },
      "id": 57
    },
    {
      "type": "Feature",
      "geometry": {
        "coordinates": [
          -6.55,
          5.97
        ],
        "type": "Point"
      },
      "properties": {
        "ADM0_FR": "BAS-SASSANDRA",
        "ADM0_PCODE": "CI01",
        "ADM1_FR": "NAWA",
        "ADM1_PCODE": "CI126",
        "ADM2_FR": "SOUBRE",
        "ADM2_PCODE": "CI2604",
        "ADM3_FR": "LILIYO",
        "ADM3_PCODE": "CI260404",
        "ADM4_FR": "OUREGBABRE",
        "ADM4_PCODE": "C6382",
        "centerLat": 5.96,
        "centerLng": -6.55,
        "pop": 3008,
        "Te_MOOV": 10.100000000000001,
        "Tbd_MOOV": 24.72,
        "Tc_MOOV": 3.37,
        "Tq_MOOV": 27.27,
        "Te_MTN": 5.0,
        "Tbd_MTN": 31.580000000000002,
        "Tc_MTN": 2.11,
        "Tq_MTN": 5.680000000000001,
        "Te_ORANGE": 13.59,
        "Tbd_ORANGE": 86.52,
        "Tc_ORANGE": 1.1199999999999999,
        "Tq_ORANGE": 1.1199999999999999,
        "rang_Te_ORANGE": 3,
        "rang_Te_MTN": 1,
        "rang_Te_MOOV": 2,
        "rang_Tc_ORANGE": 1,
        "rang_Tc_MTN": 2,
        "rang_Tc_MOOV": 3,
        "rang_Tbd_ORANGE": 1,
        "rang_Tbd_MTN": 2,
        "rang_Tbd_MOOV": 3,
        "rang_Tq_ORANGE": 1,
        "rang_Tq_MTN": 2,
        "rang_Tq_MOOV": 3
      },
      "id": 58
    },
    {
      "type": "Feature",
      "geometry": {
        "coordinates": [
          -4.79408,
          7.6456599999999995
        ],
        "type": "Point"
      },
      "properties": {
        "ADM0_FR": "VALLEE DU BANDAMA",
        "ADM0_PCODE": "CI12",
        "ADM1_FR": "GBEKE",
        "ADM1_PCODE": "CI111",
        "ADM2_FR": "BOUAKE",
        "ADM2_PCODE": "CI1103",
        "ADM3_FR": "BROBO",
        "ADM3_PCODE": "CI110303",
        "ADM4_FR": "PRIKRO",
        "ADM4_PCODE": "C6643",
        "centerLat": 7.63566,
        "centerLng": -4.79408,
        "pop": 257,
        "Te_MOOV": 0.7000000000000001,
        "Tbd_MOOV": 53.52,
        "Tc_MOOV": 1.41,
        "Tq_MOOV": 8.450000000000001,
        "Te_MTN": 0.0,
        "Tbd_MTN": 97.06,
        "Tc_MTN": 0.0,
        "Tq_MTN": 0.75,
        "Te_ORANGE": 0.0,
        "Tbd_ORANGE": 92.41,
        "Tc_ORANGE": 0.0,
        "Tq_ORANGE": 0.0,
        "rang_Te_ORANGE": 1,
        "rang_Te_MTN": 1,
        "rang_Te_MOOV": 3,
        "rang_Tc_ORANGE": 1,
        "rang_Tc_MTN": 1,
        "rang_Tc_MOOV": 3,
        "rang_Tbd_ORANGE": 2,
        "rang_Tbd_MTN": 1,
        "rang_Tbd_MOOV": 3,
        "rang_Tq_ORANGE": 1,
        "rang_Tq_MTN": 2,
        "rang_Tq_MOOV": 3
      },
      "id": 59
    },
    {
      "type": "Feature",
      "geometry": {
        "coordinates": [
          -6.61973,
          4.7480899999999995
        ],
        "type": "Point"
      },
      "properties": {
        "ADM0_FR": "BAS-SASSANDRA",
        "ADM0_PCODE": "CI01",
        "ADM1_FR": "SAN-PEDRO",
        "ADM1_PCODE": "CI129",
        "ADM2_FR": "SAN-PEDRO",
        "ADM2_PCODE": "CI2901",
        "ADM3_FR": "SAN-PEDRO",
        "ADM3_PCODE": "CI290101",
        "ADM4_FR": "SAN-PEDRO",
        "ADM4_PCODE": "C6807",
        "centerLat": 4.73809,
        "centerLng": -6.61973,
        "pop": 164944,
        "Te_MOOV": 1.13,
        "Tbd_MOOV": 25.19,
        "Tc_MOOV": 0.0,
        "Tq_MOOV": 3.44,
        "Te_MTN": 0.38,
        "Tbd_MTN": 90.08,
        "Tc_MTN": 0.0,
        "Tq_MTN": 1.15,
        "Te_ORANGE": 0.38,
        "Tbd_ORANGE": 87.79,
        "Tc_ORANGE": 0.0,
        "Tq_ORANGE": 0.0,
        "rang_Te_ORANGE": 1,
        "rang_Te_MTN": 1,
        "rang_Te_MOOV": 3,
        "rang_Tc_ORANGE": 1,
        "rang_Tc_MTN": 1,
        "rang_Tc_MOOV": 1,
        "rang_Tbd_ORANGE": 2,
        "rang_Tbd_MTN": 1,
        "rang_Tbd_MOOV": 3,
        "rang_Tq_ORANGE": 1,
        "rang_Tq_MTN": 2,
        "rang_Tq_MOOV": 3
      },
      "id": 60
    },
    {
      "type": "Feature",
      "geometry": {
        "coordinates": [
          -4.27725,
          5.22533
        ],
        "type": "Point"
      },
      "properties": {
        "ADM0_FR": "LAGUNES",
        "ADM0_PCODE": "CI08",
        "ADM1_FR": "GRANDS-PONTS",
        "ADM1_PCODE": "CI115",
        "ADM2_FR": "JACQUEVILLE",
        "ADM2_PCODE": "CI1503",
        "ADM3_FR": "JACQUEVILLE",
        "ADM3_PCODE": "CI150301",
        "ADM4_FR": "SASSAKO-BÉGNINI",
        "ADM4_PCODE": "C6834",
        "centerLat": 5.21533,
        "centerLng": -4.27725,
        "pop": 1409,
        "Te_MOOV": 0.65,
        "Tbd_MOOV": 45.39,
        "Tc_MOOV": 0.0,
        "Tq_MOOV": 0.66,
        "Te_MTN": 1.3599999999999999,
        "Tbd_MTN": 95.17,
        "Tc_MTN": 0.69,
        "Tq_MTN": 0.0,
        "Te_ORANGE": 16.439999999999998,
        "Tbd_ORANGE": 98.36,
        "Tc_ORANGE": 0.0,
        "Tq_ORANGE": 3.2800000000000002,
        "rang_Te_ORANGE": 3,
        "rang_Te_MTN": 2,
        "rang_Te_MOOV": 1,
        "rang_Tc_ORANGE": 1,
        "rang_Tc_MTN": 3,
        "rang_Tc_MOOV": 1,
        "rang_Tbd_ORANGE": 1,
        "rang_Tbd_MTN": 2,
        "rang_Tbd_MOOV": 3,
        "rang_Tq_ORANGE": 3,
        "rang_Tq_MTN": 1,
        "rang_Tq_MOOV": 2
      },
      "id": 61
    },
    {
      "type": "Feature",
      "geometry": {
        "coordinates": [
          -6.67313,
          7.97253
        ],
        "type": "Point"
      },
      "properties": {
        "ADM0_FR": "WOROBA",
        "ADM0_PCODE": "CI13",
        "ADM1_FR": "WORODOUGOU",
        "ADM1_PCODE": "CI133",
        "ADM2_FR": "SEGUELA",
        "ADM2_PCODE": "CI3302",
        "ADM3_FR": "SEGUELA",
        "ADM3_PCODE": "CI330201",
        "ADM4_FR": "SÉGUÉLA",
        "ADM4_PCODE": "C6882",
        "centerLat": 7.96253,
        "centerLng": -6.67313,
        "pop": 46189,
        "Te_MOOV": 4.71,
        "Tbd_MOOV": 91.21000000000001,
        "Tc_MOOV": 0.5499999999999999,
        "Tq_MOOV": 9.34,
        "Te_MTN": 0.0,
        "Tbd_MTN": 88.42,
        "Tc_MTN": 0.0,
        "Tq_MTN": 0.0,
        "Te_ORANGE": 0.0,
        "Tbd_ORANGE": 93.72,
        "Tc_ORANGE": 0.0,
        "Tq_ORANGE": 0.0,
        "rang_Te_ORANGE": 1,
        "rang_Te_MTN": 1,
        "rang_Te_MOOV": 3,
        "rang_Tc_ORANGE": 1,
        "rang_Tc_MTN": 1,
        "rang_Tc_MOOV": 3,
        "rang_Tbd_ORANGE": 1,
        "rang_Tbd_MTN": 3,
        "rang_Tbd_MOOV": 2,
        "rang_Tq_ORANGE": 1,
        "rang_Tq_MTN": 1,
        "rang_Tq_MOOV": 3
      },
      "id": 62
    },
    {
      "type": "Feature",
      "geometry": {
        "coordinates": [
          -6.57979,
          8.3708
        ],
        "type": "Point"
      },
      "properties": {
        "ADM0_FR": "WOROBA",
        "ADM0_PCODE": "CI13",
        "ADM1_FR": "WORODOUGOU",
        "ADM1_PCODE": "CI133",
        "ADM2_FR": "KANI",
        "ADM2_PCODE": "CI3301",
        "ADM3_FR": "KANI",
        "ADM3_PCODE": "CI330101",
        "ADM4_FR": "SILAKORO",
        "ADM4_PCODE": "C7026",
        "centerLat": 8.3608,
        "centerLng": -6.57979,
        "pop": 1708,
        "Te_MOOV": 2.0,
        "Tbd_MOOV": 84.69,
        "Tc_MOOV": 0.0,
        "Tq_MOOV": 4.08,
        "Te_MTN": 19.57,
        "Tbd_MTN": 47.3,
        "Tc_MTN": 6.76,
        "Tq_MTN": 12.5,
        "Te_ORANGE": 1.09,
        "Tbd_ORANGE": 73.63,
        "Tc_ORANGE": 0.0,
        "Tq_ORANGE": 96.7,
        "rang_Te_ORANGE": 1,
        "rang_Te_MTN": 3,
        "rang_Te_MOOV": 2,
        "rang_Tc_ORANGE": 1,
        "rang_Tc_MTN": 3,
        "rang_Tc_MOOV": 1,
        "rang_Tbd_ORANGE": 2,
        "rang_Tbd_MTN": 3,
        "rang_Tbd_MOOV": 1,
        "rang_Tq_ORANGE": 3,
        "rang_Tq_MTN": 2,
        "rang_Tq_MOOV": 1
      },
      "id": 63
    },
    {
      "type": "Feature",
      "geometry": {
        "coordinates": [
          -8.10193,
          7.87666
        ],
        "type": "Point"
      },
      "properties": {
        "ADM0_FR": "MONTAGNES",
        "ADM0_PCODE": "CI09",
        "ADM1_FR": "TONKPI",
        "ADM1_PCODE": "CI132",
        "ADM2_FR": "SIPILOU",
        "ADM2_PCODE": "CI3204",
        "ADM3_FR": "SIPILOU",
        "ADM3_PCODE": "CI320401",
        "ADM4_FR": "SIPILOU",
        "ADM4_PCODE": "C7073",
        "centerLat": 7.86666,
        "centerLng": -8.10193,
        "pop": 5705,
        "Te_MOOV": 69.5,
        "Tbd_MOOV": 19.05,
        "Tc_MOOV": 23.26,
        "Tq_MOOV": 84.38,
        "Te_MTN": 0.0,
        "Tbd_MTN": 94.37,
        "Tc_MTN": 0.0,
        "Tq_MTN": 0.72,
        "Te_ORANGE": 0.0,
        "Tbd_ORANGE": 89.44,
        "Tc_ORANGE": 0.0,
        "Tq_ORANGE": 0.0,
        "rang_Te_ORANGE": 1,
        "rang_Te_MTN": 1,
        "rang_Te_MOOV": 3,
        "rang_Tc_ORANGE": 1,
        "rang_Tc_MTN": 1,
        "rang_Tc_MOOV": 3,
        "rang_Tbd_ORANGE": 2,
        "rang_Tbd_MTN": 1,
        "rang_Tbd_MOOV": 3,
        "rang_Tq_ORANGE": 1,
        "rang_Tq_MTN": 2,
        "rang_Tq_MOOV": 3
      },
      "id": 64
    },
    {
      "type": "Feature",
      "geometry": {
        "coordinates": [
          -7.35615,
          4.42452
        ],
        "type": "Point"
      },
      "properties": {
        "ADM0_FR": "BAS-SASSANDRA",
        "ADM0_PCODE": "CI01",
        "ADM1_FR": "SAN-PEDRO",
        "ADM1_PCODE": "CI129",
        "ADM2_FR": "TABOU",
        "ADM2_PCODE": "CI2902",
        "ADM3_FR": "TABOU",
        "ADM3_PCODE": "CI290201",
        "ADM4_FR": "TABOU",
        "ADM4_PCODE": "C7308",
        "centerLat": 4.41452,
        "centerLng": -7.35615,
        "pop": 22733,
        "Te_MOOV": 0.0,
        "Tbd_MOOV": 49.03,
        "Tc_MOOV": 0.0,
        "Tq_MOOV": 3.88,
        "Te_MTN": 0.49,
        "Tbd_MTN": 83.25,
        "Tc_MTN": 1.48,
        "Tq_MTN": 32.18,
        "Te_ORANGE": 0.0,
        "Tbd_ORANGE": 97.09,
        "Tc_ORANGE": 0.49,
        "Tq_ORANGE": 0.0,
        "rang_Te_ORANGE": 1,
        "rang_Te_MTN": 3,
        "rang_Te_MOOV": 1,
        "rang_Tc_ORANGE": 2,
        "rang_Tc_MTN": 3,
        "rang_Tc_MOOV": 1,
        "rang_Tbd_ORANGE": 1,
        "rang_Tbd_MTN": 2,
        "rang_Tbd_MOOV": 3,
        "rang_Tq_ORANGE": 1,
        "rang_Tq_MTN": 3,
        "rang_Tq_MOOV": 2
      },
      "id": 65
    },
    {
      "type": "Feature",
      "geometry": {
        "coordinates": [
          -5.16212,
          9.08022
        ],
        "type": "Point"
      },
      "properties": {
        "ADM0_FR": "VALLEE DU BANDAMA",
        "ADM0_PCODE": "CI12",
        "ADM1_FR": "HAMBOL",
        "ADM1_PCODE": "CI117",
        "ADM2_FR": "NIAKARAMADOUGOU",
        "ADM2_PCODE": "CI1703",
        "ADM3_FR": "TAFIRE",
        "ADM3_PCODE": "CI170305",
        "ADM4_FR": "TAFIRE",
        "ADM4_PCODE": "C7314",
        "centerLat": 9.07022,
        "centerLng": -5.16212,
        "pop": 17191,
        "Te_MOOV": 4.83,
        "Tbd_MOOV": 55.06999999999999,
        "Tc_MOOV": 1.4500000000000002,
        "Tq_MOOV": 4.35,
        "Te_MTN": 4.859999999999999,
        "Tbd_MTN": 80.88,
        "Tc_MTN": 0.0,
        "Tq_MTN": 0.0,
        "Te_ORANGE": 0.0,
        "Tbd_ORANGE": 90.41,
        "Tc_ORANGE": 0.0,
        "Tq_ORANGE": 0.0,
        "rang_Te_ORANGE": 1,
        "rang_Te_MTN": 3,
        "rang_Te_MOOV": 2,
        "rang_Tc_ORANGE": 1,
        "rang_Tc_MTN": 1,
        "rang_Tc_MOOV": 3,
        "rang_Tbd_ORANGE": 1,
        "rang_Tbd_MTN": 2,
        "rang_Tbd_MOOV": 3,
        "rang_Tq_ORANGE": 1,
        "rang_Tq_MTN": 1,
        "rang_Tq_MOOV": 3
      },
      "id": 66
    },
    {
      "type": "Feature",
      "geometry": {
        "coordinates": [
          -7.45579,
          5.88385
        ],
        "type": "Point"
      },
      "properties": {
        "ADM0_FR": "MONTAGNES",
        "ADM0_PCODE": "CI09",
        "ADM1_FR": "CAVALLY",
        "ADM1_PCODE": "CI109",
        "ADM2_FR": "TAÏ",
        "ADM2_PCODE": "CI0903",
        "ADM3_FR": "TAÏ",
        "ADM3_PCODE": "CI090301",
        "ADM4_FR": "TAI",
        "ADM4_PCODE": "C7345",
        "centerLat": 5.87385,
        "centerLng": -7.45579,
        "pop": 5917,
        "Te_MOOV": 0.66,
        "Tbd_MOOV": 27.150000000000002,
        "Tc_MOOV": 0.0,
        "Tq_MOOV": 13.91,
        "Te_MTN": 0.0,
        "Tbd_MTN": 92.16,
        "Tc_MTN": 0.0,
        "Tq_MTN": 0.0,
        "Te_ORANGE": 0.65,
        "Tbd_ORANGE": 93.42,
        "Tc_ORANGE": 0.66,
        "Tq_ORANGE": 1.32,
        "rang_Te_ORANGE": 2,
        "rang_Te_MTN": 1,
        "rang_Te_MOOV": 3,
        "rang_Tc_ORANGE": 3,
        "rang_Tc_MTN": 1,
        "rang_Tc_MOOV": 1,
        "rang_Tbd_ORANGE": 1,
        "rang_Tbd_MTN": 2,
        "rang_Tbd_MOOV": 3,
        "rang_Tq_ORANGE": 2,
        "rang_Tq_MTN": 1,
        "rang_Tq_MOOV": 3
      },
      "id": 67
    },
    {
      "type": "Feature",
      "geometry": {
        "coordinates": [
          -6.41061,
          10.499
        ],
        "type": "Point"
      },
      "properties": {
        "ADM0_FR": "SAVANES",
        "ADM0_PCODE": "CI11",
        "ADM1_FR": "BAGOUE",
        "ADM1_PCODE": "CI105",
        "ADM2_FR": "TENGRELA",
        "ADM2_PCODE": "CI0503",
        "ADM3_FR": "TENGRELA",
        "ADM3_PCODE": "CI050301",
        "ADM4_FR": "TENGRELA",
        "ADM4_PCODE": "C7513",
        "centerLat": 10.489,
        "centerLng": -6.41061,
        "pop": 40323,
        "Te_MOOV": 31.78,
        "Tbd_MOOV": 1.1400000000000001,
        "Tc_MOOV": 1.1400000000000001,
        "Tq_MOOV": 89.77000000000001,
        "Te_MTN": 0.0,
        "Tbd_MTN": 74.15,
        "Tc_MTN": 0.0,
        "Tq_MTN": 0.0,
        "Te_ORANGE": 2.17,
        "Tbd_ORANGE": 74.07000000000001,
        "Tc_ORANGE": 0.0,
        "Tq_ORANGE": 0.0,
        "rang_Te_ORANGE": 2,
        "rang_Te_MTN": 1,
        "rang_Te_MOOV": 3,
        "rang_Tc_ORANGE": 1,
        "rang_Tc_MTN": 1,
        "rang_Tc_MOOV": 3,
        "rang_Tbd_ORANGE": 2,
        "rang_Tbd_MTN": 1,
        "rang_Tbd_MOOV": 3,
        "rang_Tq_ORANGE": 1,
        "rang_Tq_MTN": 1,
        "rang_Tq_MOOV": 3
      },
      "id": 68
    },
    {
      "type": "Feature",
      "geometry": {
        "coordinates": [
          -4.66225,
          7.72436
        ],
        "type": "Point"
      },
      "properties": {
        "ADM0_FR": "LACS",
        "ADM0_PCODE": "CI07",
        "ADM1_FR": "BELIER",
        "ADM1_PCODE": "CI106",
        "ADM2_FR": "TIEBISSOU",
        "ADM2_PCODE": "CI0603",
        "ADM3_FR": "TIEBISSOU",
        "ADM3_PCODE": "CI060301",
        "ADM4_FR": "TIÉBISSOU",
        "ADM4_PCODE": "C7574",
        "centerLat": 7.71436,
        "centerLng": -4.66225,
        "pop": 18832,
        "Te_MOOV": 0.49,
        "Tbd_MOOV": 56.65,
        "Tc_MOOV": 0.49,
        "Tq_MOOV": 1.48,
        "Te_MTN": 0.49,
        "Tbd_MTN": 56.65,
        "Tc_MTN": 0.49,
        "Tq_MTN": 1.48,
        "Te_ORANGE": 0.0,
        "Tbd_ORANGE": 98.04,
        "Tc_ORANGE": 0.0,
        "Tq_ORANGE": 0.0,
        "rang_Te_ORANGE": 1,
        "rang_Te_MTN": 2,
        "rang_Te_MOOV": 2,
        "rang_Tc_ORANGE": 1,
        "rang_Tc_MTN": 2,
        "rang_Tc_MOOV": 2,
        "rang_Tbd_ORANGE": 1,
        "rang_Tbd_MTN": 2,
        "rang_Tbd_MOOV": 2,
        "rang_Tq_ORANGE": 1,
        "rang_Tq_MTN": 2,
        "rang_Tq_MOOV": 2
      },
      "id": 69
    },
    {
      "type": "Feature",
      "geometry": {
        "coordinates": [
          -7.31834,
          9.55501
        ],
        "type": "Point"
      },
      "properties": {
        "ADM0_FR": "DENGUELE",
        "ADM0_PCODE": "CI03",
        "ADM1_FR": "KABADOUGOU",
        "ADM1_PCODE": "CI121",
        "ADM2_FR": "ODIENNE",
        "ADM2_PCODE": "CI2103",
        "ADM3_FR": "TIEME",
        "ADM3_PCODE": "CI210305",
        "ADM4_FR": "TIEME",
        "ADM4_PCODE": "C7613",
        "centerLat": 9.54501,
        "centerLng": -7.31834,
        "pop": 6267,
        "Te_MOOV": 4.760000000000001,
        "Tbd_MOOV": 40.0,
        "Tc_MOOV": 0.0,
        "Tq_MOOV": 6.88,
        "Te_MTN": 0.0,
        "Tbd_MTN": 90.59,
        "Tc_MTN": 0.0,
        "Tq_MTN": 1.8599999999999999,
        "Te_ORANGE": 4.22,
        "Tbd_ORANGE": 82.39,
        "Tc_ORANGE": 0.63,
        "Tq_ORANGE": 0.0,
        "rang_Te_ORANGE": 2,
        "rang_Te_MTN": 1,
        "rang_Te_MOOV": 3,
        "rang_Tc_ORANGE": 3,
        "rang_Tc_MTN": 1,
        "rang_Tc_MOOV": 1,
        "rang_Tbd_ORANGE": 2,
        "rang_Tbd_MTN": 1,
        "rang_Tbd_MOOV": 3,
        "rang_Tq_ORANGE": 1,
        "rang_Tq_MTN": 2,
        "rang_Tq_MOOV": 3
      },
      "id": 70
    },
    {
      "type": "Feature",
      "geometry": {
        "coordinates": [
          -7.68063,
          8.29504
        ],
        "type": "Point"
      },
      "properties": {
        "ADM0_FR": "WOROBA",
        "ADM0_PCODE": "CI13",
        "ADM1_FR": "BAFING",
        "ADM1_PCODE": "CI104",
        "ADM2_FR": "TOUBA",
        "ADM2_PCODE": "CI0403",
        "ADM3_FR": "TOUBA",
        "ADM3_PCODE": "CI040301",
        "ADM4_FR": "TOUBA",
        "ADM4_PCODE": "C7832",
        "centerLat": 8.28504,
        "centerLng": -7.68063,
        "pop": 22361,
        "Te_MOOV": 8.62,
        "Tbd_MOOV": 24.529999999999998,
        "Tc_MOOV": 1.26,
        "Tq_MOOV": 91.77,
        "Te_MTN": 0.0,
        "Tbd_MTN": 91.85,
        "Tc_MTN": 0.0,
        "Tq_MTN": 1.72,
        "Te_ORANGE": 1.09,
        "Tbd_ORANGE": 82.32000000000001,
        "Tc_ORANGE": 0.0,
        "Tq_ORANGE": 2.21,
        "rang_Te_ORANGE": 2,
        "rang_Te_MTN": 1,
        "rang_Te_MOOV": 3,
        "rang_Tc_ORANGE": 1,
        "rang_Tc_MTN": 1,
        "rang_Tc_MOOV": 3,
        "rang_Tbd_ORANGE": 2,
        "rang_Tbd_MTN": 1,
        "rang_Tbd_MOOV": 3,
        "rang_Tq_ORANGE": 2,
        "rang_Tq_MTN": 1,
        "rang_Tq_MOOV": 3
      },
      "id": 71
    },
    {
      "type": "Feature",
      "geometry": {
        "coordinates": [
          -8.41519,
          6.592
        ],
        "type": "Point"
      },
      "properties": {
        "ADM0_FR": "MONTAGNES",
        "ADM0_PCODE": "CI09",
        "ADM1_FR": "CAVALLY",
        "ADM1_PCODE": "CI109",
        "ADM2_FR": "TOULEPLEU",
        "ADM2_PCODE": "CI0904",
        "ADM3_FR": "TOULEPLEU",
        "ADM3_PCODE": "CI090401",
        "ADM4_FR": "TOULEPLEU",
        "ADM4_PCODE": "C7852",
        "centerLat": 6.582,
        "centerLng": -8.41519,
        "pop": 6784,
        "Te_MOOV": 10.190000000000001,
        "Tbd_MOOV": 20.0,
        "Tc_MOOV": 0.0,
        "Tq_MOOV": 30.81,
        "Te_MTN": 0.0,
        "Tbd_MTN": 90.34,
        "Tc_MTN": 0.0,
        "Tq_MTN": 1.18,
        "Te_ORANGE": 1.4200000000000002,
        "Tbd_ORANGE": 95.67,
        "Tc_ORANGE": 0.0,
        "Tq_ORANGE": 0.0,
        "rang_Te_ORANGE": 2,
        "rang_Te_MTN": 1,
        "rang_Te_MOOV": 3,
        "rang_Tc_ORANGE": 1,
        "rang_Tc_MTN": 1,
        "rang_Tc_MOOV": 1,
        "rang_Tbd_ORANGE": 1,
        "rang_Tbd_MTN": 2,
        "rang_Tbd_MOOV": 3,
        "rang_Tq_ORANGE": 1,
        "rang_Tq_MTN": 2,
        "rang_Tq_MOOV": 3
      },
      "id": 72
    },
    {
      "type": "Feature",
      "geometry": {
        "coordinates": [
          -5.94938,
          7.6344899999999996
        ],
        "type": "Point"
      },
      "properties": {
        "ADM0_FR": "SASSANDRA-MARAHOUE",
        "ADM0_PCODE": "CI10",
        "ADM1_FR": "MARAHOUE",
        "ADM1_PCODE": "CI123",
        "ADM2_FR": "ZUENOULA",
        "ADM2_PCODE": "CI2303",
        "ADM3_FR": "VOUEBOUFLA",
        "ADM3_PCODE": "CI230306",
        "ADM4_FR": "VOUÉBOUFLA",
        "ADM4_PCODE": "C7990",
        "centerLat": 7.62449,
        "centerLng": -5.94938,
        "pop": 3208,
        "Te_MOOV": 10.96,
        "Tbd_MOOV": 21.709999999999997,
        "Tc_MOOV": 1.54,
        "Tq_MOOV": 12.4,
        "Te_MTN": 0.66,
        "Tbd_MTN": 91.33,
        "Tc_MTN": 0.67,
        "Tq_MTN": 0.0,
        "Te_ORANGE": 0.0,
        "Tbd_ORANGE": 98.69,
        "Tc_ORANGE": 0.0,
        "Tq_ORANGE": 0.0,
        "rang_Te_ORANGE": 1,
        "rang_Te_MTN": 2,
        "rang_Te_MOOV": 3,
        "rang_Tc_ORANGE": 1,
        "rang_Tc_MTN": 2,
        "rang_Tc_MOOV": 3,
        "rang_Tbd_ORANGE": 1,
        "rang_Tbd_MTN": 2,
        "rang_Tbd_MOOV": 3,
        "rang_Tq_ORANGE": 1,
        "rang_Tq_MTN": 1,
        "rang_Tq_MOOV": 3
      },
      "id": 73
    },
    {
      "type": "Feature",
      "geometry": {
        "coordinates": [
          -3.65,
          6.2
        ],
        "type": "Point"
      },
      "properties": {
        "ADM0_FR": "LAGUNES",
        "ADM0_PCODE": "CI08",
        "ADM1_FR": "LA ME",
        "ADM1_PCODE": "CI124",
        "ADM2_FR": "YAKASSE-ATTOBROU",
        "ADM2_PCODE": "CI2404",
        "ADM3_FR": "YAKASSE-ATTOBROU",
        "ADM3_PCODE": "CI240401",
        "ADM4_FR": "YAKASSE-ATTOBROU",
        "ADM4_PCODE": "C8073",
        "centerLat": 6.19,
        "centerLng": -3.65,
        "pop": 11500,
        "Te_MOOV": 2.4,
        "Tbd_MOOV": 57.67,
        "Tc_MOOV": 0.0,
        "Tq_MOOV": 0.0,
        "Te_MTN": 0.0,
        "Tbd_MTN": 97.58,
        "Tc_MTN": 0.0,
        "Tq_MTN": 0.0,
        "Te_ORANGE": 0.0,
        "Tbd_ORANGE": 95.67999999999999,
        "Tc_ORANGE": 0.0,
        "Tq_ORANGE": 0.0,
        "rang_Te_ORANGE": 1,
        "rang_Te_MTN": 1,
        "rang_Te_MOOV": 3,
        "rang_Tc_ORANGE": 1,
        "rang_Tc_MTN": 1,
        "rang_Tc_MOOV": 1,
        "rang_Tbd_ORANGE": 2,
        "rang_Tbd_MTN": 1,
        "rang_Tbd_MOOV": 3,
        "rang_Tq_ORANGE": 1,
        "rang_Tq_MTN": 1,
        "rang_Tq_MOOV": 1
      },
      "id": 74
    },
    {
      "type": "Feature",
      "geometry": {
        "coordinates": [
          -5.27786,
          6.82819
        ],
        "type": "Point"
      },
      "properties": {
        "ADM0_FR": "DISTRICT AUTONOME DE YAMOUSSOUKRO",
        "ADM0_PCODE": "CI05",
        "ADM1_FR": "DISTRICT AUTONOME DE YAMOUSSOUKRO",
        "ADM1_PCODE": "CI102",
        "ADM2_FR": "YAMOUSSOUKRO",
        "ADM2_PCODE": "CI0202",
        "ADM3_FR": "YAMOUSSOUKRO",
        "ADM3_PCODE": "CI020201",
        "ADM4_FR": "YAMOUSSOUKRO",
        "ADM4_PCODE": "C8092",
        "centerLat": 6.81819,
        "centerLng": -5.27786,
        "pop": 212670,
        "Te_MOOV": 0.76,
        "Tbd_MOOV": 59.77,
        "Tc_MOOV": 0.77,
        "Tq_MOOV": 5.38,
        "Te_MTN": 0.0,
        "Tbd_MTN": 88.55,
        "Tc_MTN": 0.0,
        "Tq_MTN": 0.0,
        "Te_ORANGE": 0.0,
        "Tbd_ORANGE": 93.46,
        "Tc_ORANGE": 0.0,
        "Tq_ORANGE": 0.77,
        "rang_Te_ORANGE": 1,
        "rang_Te_MTN": 1,
        "rang_Te_MOOV": 3,
        "rang_Tc_ORANGE": 1,
        "rang_Tc_MTN": 1,
        "rang_Tc_MOOV": 3,
        "rang_Tbd_ORANGE": 1,
        "rang_Tbd_MTN": 2,
        "rang_Tbd_MOOV": 3,
        "rang_Tq_ORANGE": 2,
        "rang_Tq_MTN": 1,
        "rang_Tq_MOOV": 3
      },
      "id": 75
    },
    {
      "type": "Feature",
      "geometry": {
        "coordinates": [
          -5.58572,
          5.17017
        ],
        "type": "Point"
      },
      "properties": {
        "ADM0_FR": "BAS-SASSANDRA",
        "ADM0_PCODE": "CI01",
        "ADM1_FR": "GBOKLE",
        "ADM1_PCODE": "CI112",
        "ADM2_FR": "FRESCO",
        "ADM2_PCODE": "CI1201",
        "ADM3_FR": "FRESCO",
        "ADM3_PCODE": "CI120102",
        "ADM4_FR": "ZÉGBAN 1",
        "ADM4_PCODE": "C8360",
        "centerLat": 5.16017,
        "centerLng": -5.58572,
        "pop": 6401,
        "Te_MOOV": 10.6,
        "Tbd_MOOV": 45.190000000000005,
        "Tc_MOOV": 0.74,
        "Tq_MOOV": 0.0,
        "Te_MTN": 2.63,
        "Tbd_MTN": 83.78,
        "Tc_MTN": 0.0,
        "Tq_MTN": 4.760000000000001,
        "Te_ORANGE": 2.63,
        "Tbd_ORANGE": 83.78,
        "Tc_ORANGE": 0.0,
        "Tq_ORANGE": 4.760000000000001,
        "rang_Te_ORANGE": 1,
        "rang_Te_MTN": 1,
        "rang_Te_MOOV": 3,
        "rang_Tc_ORANGE": 1,
        "rang_Tc_MTN": 1,
        "rang_Tc_MOOV": 3,
        "rang_Tbd_ORANGE": 1,
        "rang_Tbd_MTN": 1,
        "rang_Tbd_MOOV": 3,
        "rang_Tq_ORANGE": 2,
        "rang_Tq_MTN": 2,
        "rang_Tq_MOOV": 1
      },
      "id": 76
    },
    {
      "type": "Feature",
      "geometry": {
        "coordinates": [
          -8.11982,
          7.12463
        ],
        "type": "Point"
      },
      "properties": {
        "ADM0_FR": "MONTAGNES",
        "ADM0_PCODE": "CI09",
        "ADM1_FR": "TONKPI",
        "ADM1_PCODE": "CI132",
        "ADM2_FR": "DANANE",
        "ADM2_PCODE": "CI3202",
        "ADM3_FR": "SEILEU",
        "ADM3_PCODE": "CI320206",
        "ADM4_FR": "ZAN-HOUNIEN",
        "ADM4_PCODE": "C8321",
        "centerLat": 7.11463,
        "centerLng": -8.11982,
        "pop": 1100,
        "Te_MOOV": 19.33,
        "Tbd_MOOV": 6.61,
        "Tc_MOOV": 0.83,
        "Tq_MOOV": 57.49999999999999,
        "Te_MTN": 11.110000000000001,
        "Tbd_MTN": 84.03,
        "Tc_MTN": 1.39,
        "Tq_MTN": 0.69,
        "Te_ORANGE": 0.0,
        "Tbd_ORANGE": 59.760000000000005,
        "Tc_ORANGE": 0.0,
        "Tq_ORANGE": 0.0,
        "rang_Te_ORANGE": 1,
        "rang_Te_MTN": 2,
        "rang_Te_MOOV": 3,
        "rang_Tc_ORANGE": 1,
        "rang_Tc_MTN": 3,
        "rang_Tc_MOOV": 2,
        "rang_Tbd_ORANGE": 2,
        "rang_Tbd_MTN": 1,
        "rang_Tbd_MOOV": 3,
        "rang_Tq_ORANGE": 1,
        "rang_Tq_MTN": 2,
        "rang_Tq_MOOV": 3
      },
      "id": 77
    },
    {
      "type": "Feature",
      "geometry": {
        "coordinates": [
          -6.86531,
          6.7748099999999996
        ],
        "type": "Point"
      },
      "properties": {
        "ADM0_FR": "SASSANDRA-MARAHOUE",
        "ADM0_PCODE": "CI10",
        "ADM1_FR": "HAUT-SASSANDRA",
        "ADM1_PCODE": "CI118",
        "ADM2_FR": "ZOUKOUGBEU",
        "ADM2_PCODE": "CI1804",
        "ADM3_FR": "ZOUKOUGBEU",
        "ADM3_PCODE": "CI180401",
        "ADM4_FR": "ZOUKOUGBEU",
        "ADM4_PCODE": "C8499",
        "centerLat": 6.76481,
        "centerLng": -6.86531,
        "pop": 11861,
        "Te_MOOV": 5.11,
        "Tbd_MOOV": 16.919999999999998,
        "Tc_MOOV": 0.77,
        "Tq_MOOV": 53.849999999999994,
        "Te_MTN": 0.0,
        "Tbd_MTN": 94.28999999999999,
        "Tc_MTN": 0.7100000000000001,
        "Tq_MTN": 0.0,
        "Te_ORANGE": 0.7000000000000001,
        "Tbd_ORANGE": 91.55,
        "Tc_ORANGE": 0.0,
        "Tq_ORANGE": 0.0,
        "rang_Te_ORANGE": 2,
        "rang_Te_MTN": 1,
        "rang_Te_MOOV": 3,
        "rang_Tc_ORANGE": 1,
        "rang_Tc_MTN": 2,
        "rang_Tc_MOOV": 3,
        "rang_Tbd_ORANGE": 2,
        "rang_Tbd_MTN": 1,
        "rang_Tbd_MOOV": 3,
        "rang_Tq_ORANGE": 1,
        "rang_Tq_MTN": 1,
        "rang_Tq_MOOV": 3
      },
      "id": 78
    }
  ]
}