{
  "type": "FeatureCollection",
  "features": [
    {
      "type": "Feature",
      "geometry": {
        "coordinates": [
          -4.01585,
          5.44515
        ],
        "type": "Point"
      },
      "properties": {
        "ADM0_FR": "DISTRICT AUTONOME D'ABIDJAN",
        "ADM0_PCODE": "CI04",
        "ADM1_FR": "DISTRICT AUTONOME D'ABIDJAN",
        "ADM1_PCODE": "CI101",
        "ADM2_FR": "ABIDJAN",
        "ADM2_PCODE": "CI0101",
        "ADM3_FR": "ABIDJAN",
        "ADM3_PCODE": "CI010101",
        "ADM4_FR": "ABOBO",
        "ADM4_PCODE": "C0029",
        "centerLat": 5.43515,
        "centerLng": -4.01585,
        "pop": 1030658,
        "Te_MOOV": 0.22999999999999998,
        "Tbd_MOOV": 31.290000000000003,
        "Tc_MOOV": 0.0,
        "Tq_MOOV": 0.24,
        "Te_MTN": 0.0,
        "Tbd_MTN": 83.57,
        "Tc_MTN": 0.9400000000000001,
        "Tq_MTN": 0.24,
        "Te_ORANGE": 0.0,
        "Tbd_ORANGE": 95.53,
        "Tc_ORANGE": 0.0,
        "Tq_ORANGE": 0.48,
        "rang_Te_ORANGE": 1,
        "rang_Te_MTN": 1,
        "rang_Te_MOOV": 3,
        "rang_Tc_ORANGE": 1,
        "rang_Tc_MTN": 3,
        "rang_Tc_MOOV": 1,
        "rang_Tbd_ORANGE": 1,
        "rang_Tbd_MTN": 2,
        "rang_Tbd_MOOV": 3,
        "rang_Tq_ORANGE": 3,
        "rang_Tq_MTN": 1,
        "rang_Tq_MOOV": 1
      },
      "id": 1
    },
    {
      "type": "Feature",
      "geometry": {
        "coordinates": [
          -4.01988,
          5.38187
        ],
        "type": "Point"
      },
      "properties": {
        "ADM0_FR": "DISTRICT AUTONOME D'ABIDJAN",
        "ADM0_PCODE": "CI04",
        "ADM1_FR": "DISTRICT AUTONOME D'ABIDJAN",
        "ADM1_PCODE": "CI101",
        "ADM2_FR": "ABIDJAN",
        "ADM2_PCODE": "CI0101",
        "ADM3_FR": "ABIDJAN",
        "ADM3_PCODE": "CI010101",
        "ADM4_FR": "ADJAME",
        "ADM4_PCODE": "C0133",
        "centerLat": 5.37187,
        "centerLng": -4.01988,
        "pop": 372978,
        "Te_MOOV": 0.0,
        "Tbd_MOOV": 40.0,
        "Tc_MOOV": 0.8,
        "Tq_MOOV": 0.8099999999999999,
        "Te_MTN": 0.33999999999999997,
        "Tbd_MTN": 86.3,
        "Tc_MTN": 0.6799999999999999,
        "Tq_MTN": 0.0,
        "Te_ORANGE": 0.0,
        "Tbd_ORANGE": 91.78,
        "Tc_ORANGE": 0.33999999999999997,
        "Tq_ORANGE": 0.0,
        "rang_Te_ORANGE": 1,
        "rang_Te_MTN": 3,
        "rang_Te_MOOV": 1,
        "rang_Tc_ORANGE": 1,
        "rang_Tc_MTN": 2,
        "rang_Tc_MOOV": 3,
        "rang_Tbd_ORANGE": 1,
        "rang_Tbd_MTN": 2,
        "rang_Tbd_MOOV": 3,
        "rang_Tq_ORANGE": 1,
        "rang_Tq_MTN": 1,
        "rang_Tq_MOOV": 3
      },
      "id": 2
    },
    {
      "type": "Feature",
      "geometry": {
        "coordinates": [
          -4.05488,
          5.504659999999999
        ],
        "type": "Point"
      },
      "properties": {
        "ADM0_FR": "DISTRICT AUTONOME D'ABIDJAN",
        "ADM0_PCODE": "CI04",
        "ADM1_FR": "DISTRICT AUTONOME D'ABIDJAN",
        "ADM1_PCODE": "CI101",
        "ADM2_FR": "ABIDJAN",
        "ADM2_PCODE": "CI0101",
        "ADM3_FR": "ANYAMA",
        "ADM3_PCODE": "CI010102",
        "ADM4_FR": "ANYAMA",
        "ADM4_PCODE": "C0570",
        "centerLat": 5.49466,
        "centerLng": -4.05488,
        "pop": 103297,
        "Te_MOOV": 4.0,
        "Tbd_MOOV": 45.83,
        "Tc_MOOV": 0.52,
        "Tq_MOOV": 0.54,
        "Te_MTN": 0.0,
        "Tbd_MTN": 91.03999999999999,
        "Tc_MTN": 1.0,
        "Tq_MTN": 0.65,
        "Te_ORANGE": 0.0,
        "Tbd_ORANGE": 95.52000000000001,
        "Tc_ORANGE": 0.0,
        "Tq_ORANGE": 0.5,
        "rang_Te_ORANGE": 1,
        "rang_Te_MTN": 1,
        "rang_Te_MOOV": 3,
        "rang_Tc_ORANGE": 1,
        "rang_Tc_MTN": 3,
        "rang_Tc_MOOV": 2,
        "rang_Tbd_ORANGE": 1,
        "rang_Tbd_MTN": 2,
        "rang_Tbd_MOOV": 3,
        "rang_Tq_ORANGE": 1,
        "rang_Tq_MTN": 3,
        "rang_Tq_MOOV": 2
      },
      "id": 3
    },
    {
      "type": "Feature",
      "geometry": {
        "coordinates": [
          -4.05198,
          5.392189999999999
        ],
        "type": "Point"
      },
      "properties": {
        "ADM0_FR": "DISTRICT AUTONOME D'ABIDJAN",
        "ADM0_PCODE": "CI04",
        "ADM1_FR": "DISTRICT AUTONOME D'ABIDJAN",
        "ADM1_PCODE": "CI101",
        "ADM2_FR": "ABIDJAN",
        "ADM2_PCODE": "CI0101",
        "ADM3_FR": "ABIDJAN",
        "ADM3_PCODE": "CI010101",
        "ADM4_FR": "ATTECOUBE",
        "ADM4_PCODE": "C0734",
        "centerLat": 5.38219,
        "centerLng": -4.05198,
        "pop": 260911,
        "Te_MOOV": 0.0,
        "Tbd_MOOV": 63.160000000000004,
        "Tc_MOOV": 0.35000000000000003,
        "Tq_MOOV": 0.35000000000000003,
        "Te_MTN": 0.7000000000000001,
        "Tbd_MTN": 76.33,
        "Tc_MTN": 0.7100000000000001,
        "Tq_MTN": 0.0,
        "Te_ORANGE": 0.35000000000000003,
        "Tbd_ORANGE": 99.3,
        "Tc_ORANGE": 0.35000000000000003,
        "Tq_ORANGE": 0.0,
        "rang_Te_ORANGE": 2,
        "rang_Te_MTN": 3,
        "rang_Te_MOOV": 1,
        "rang_Tc_ORANGE": 1,
        "rang_Tc_MTN": 3,
        "rang_Tc_MOOV": 1,
        "rang_Tbd_ORANGE": 1,
        "rang_Tbd_MTN": 2,
        "rang_Tbd_MOOV": 3,
        "rang_Tq_ORANGE": 1,
        "rang_Tq_MTN": 1,
        "rang_Tq_MOOV": 3
      },
      "id": 4
    },
    {
      "type": "Feature",
      "geometry": {
        "coordinates": [
          -3.89704,
          5.369
        ],
        "type": "Point"
      },
      "properties": {
        "ADM0_FR": "DISTRICT AUTONOME D'ABIDJAN",
        "ADM0_PCODE": "CI04",
        "ADM1_FR": "DISTRICT AUTONOME D'ABIDJAN",
        "ADM1_PCODE": "CI101",
        "ADM2_FR": "ABIDJAN",
        "ADM2_PCODE": "CI0101",
        "ADM3_FR": "BINGERVILLE",
        "ADM3_PCODE": "CI010103",
        "ADM4_FR": "BINGERVILLE",
        "ADM4_PCODE": "C1214",
        "centerLat": 5.359,
        "centerLng": -3.89704,
        "pop": 64015,
        "Te_MOOV": 1.0,
        "Tbd_MOOV": 25.130000000000003,
        "Tc_MOOV": 2.01,
        "Tq_MOOV": 0.0,
        "Te_MTN": 0.5,
        "Tbd_MTN": 82.09,
        "Tc_MTN": 0.0,
        "Tq_MTN": 0.0,
        "Te_ORANGE": 0.52,
        "Tbd_ORANGE": 99.48,
        "Tc_ORANGE": 0.52,
        "Tq_ORANGE": 4.6899999999999995,
        "rang_Te_ORANGE": 2,
        "rang_Te_MTN": 1,
        "rang_Te_MOOV": 3,
        "rang_Tc_ORANGE": 2,
        "rang_Tc_MTN": 1,
        "rang_Tc_MOOV": 3,
        "rang_Tbd_ORANGE": 1,
        "rang_Tbd_MTN": 2,
        "rang_Tbd_MOOV": 3,
        "rang_Tq_ORANGE": 3,
        "rang_Tq_MTN": 1,
        "rang_Tq_MOOV": 1
      },
      "id": 5
    },
    {
      "type": "Feature",
      "geometry": {
        "coordinates": [
          -3.96089,
          5.383
        ],
        "type": "Point"
      },
      "properties": {
        "ADM0_FR": "DISTRICT AUTONOME D'ABIDJAN",
        "ADM0_PCODE": "CI04",
        "ADM1_FR": "DISTRICT AUTONOME D'ABIDJAN",
        "ADM1_PCODE": "CI101",
        "ADM2_FR": "ABIDJAN",
        "ADM2_PCODE": "CI0101",
        "ADM3_FR": "ABIDJAN",
        "ADM3_PCODE": "CI010101",
        "ADM4_FR": "COCODY",
        "ADM4_PCODE": "C1672",
        "centerLat": 5.373,
        "centerLng": -3.96089,
        "pop": 447055,
        "Te_MOOV": 0.16,
        "Tbd_MOOV": 50.57000000000001,
        "Tc_MOOV": 0.16,
        "Tq_MOOV": 83.75,
        "Te_MTN": 0.0,
        "Tbd_MTN": 83.19,
        "Tc_MTN": 0.18,
        "Tq_MTN": 0.0,
        "Te_ORANGE": 0.0,
        "Tbd_ORANGE": 95.91,
        "Tc_ORANGE": 0.36,
        "Tq_ORANGE": 0.0,
        "rang_Te_ORANGE": 1,
        "rang_Te_MTN": 1,
        "rang_Te_MOOV": 3,
        "rang_Tc_ORANGE": 3,
        "rang_Tc_MTN": 2,
        "rang_Tc_MOOV": 1,
        "rang_Tbd_ORANGE": 1,
        "rang_Tbd_MTN": 2,
        "rang_Tbd_MOOV": 3,
        "rang_Tq_ORANGE": 1,
        "rang_Tq_MTN": 1,
        "rang_Tq_MOOV": 3
      },
      "id": 6
    },
    {
      "type": "Feature",
      "geometry": {
        "coordinates": [
          -3.72689,
          5.20266
        ],
        "type": "Point"
      },
      "properties": {
        "ADM0_FR": "COMOE",
        "ADM0_PCODE": "CI02",
        "ADM1_FR": "SUD-COMOE",
        "ADM1_PCODE": "CI130",
        "ADM2_FR": "GRAND-BASSAM",
        "ADM2_PCODE": "CI3003",
        "ADM3_FR": "GRAND-BASSAM",
        "ADM3_PCODE": "CI300303",
        "ADM4_FR": "GRAND-BASSAM",
        "ADM4_PCODE": "C3367",
        "centerLat": 5.19266,
        "centerLng": -3.72689,
        "pop": 74671,
        "Te_MOOV": 0.0,
        "Tbd_MOOV": 24.57,
        "Tc_MOOV": 1.1400000000000001,
        "Tq_MOOV": 86.47,
        "Te_MTN": 0.59,
        "Tbd_MTN": 76.92,
        "Tc_MTN": 0.59,
        "Tq_MTN": 0.0,
        "Te_ORANGE": 0.0,
        "Tbd_ORANGE": 94.86,
        "Tc_ORANGE": 1.71,
        "Tq_ORANGE": 0.0,
        "rang_Te_ORANGE": 1,
        "rang_Te_MTN": 3,
        "rang_Te_MOOV": 1,
        "rang_Tc_ORANGE": 3,
        "rang_Tc_MTN": 1,
        "rang_Tc_MOOV": 2,
        "rang_Tbd_ORANGE": 1,
        "rang_Tbd_MTN": 2,
        "rang_Tbd_MOOV": 3,
        "rang_Tq_ORANGE": 1,
        "rang_Tq_MTN": 1,
        "rang_Tq_MOOV": 3
      },
      "id": 7
    },
    {
      "type": "Feature",
      "geometry": {
        "coordinates": [
          -3.94836,
          5.3124899999999995
        ],
        "type": "Point"
      },
      "properties": {
        "ADM0_FR": "DISTRICT AUTONOME D'ABIDJAN",
        "ADM0_PCODE": "CI04",
        "ADM1_FR": "DISTRICT AUTONOME D'ABIDJAN",
        "ADM1_PCODE": "CI101",
        "ADM2_FR": "ABIDJAN",
        "ADM2_PCODE": "CI0101",
        "ADM3_FR": "ABIDJAN",
        "ADM3_PCODE": "CI010101",
        "ADM4_FR": "KOUMASSI",
        "ADM4_PCODE": "C4694",
        "centerLat": 5.30249,
        "centerLng": -3.94836,
        "pop": 433139,
        "Te_MOOV": 0.0,
        "Tbd_MOOV": 51.94,
        "Tc_MOOV": 0.0,
        "Tq_MOOV": 0.0,
        "Te_MTN": 0.0,
        "Tbd_MTN": 84.81,
        "Tc_MTN": 0.7100000000000001,
        "Tq_MTN": 0.37,
        "Te_ORANGE": 0.36,
        "Tbd_ORANGE": 94.53,
        "Tc_ORANGE": 0.0,
        "Tq_ORANGE": 0.0,
        "rang_Te_ORANGE": 3,
        "rang_Te_MTN": 1,
        "rang_Te_MOOV": 1,
        "rang_Tc_ORANGE": 1,
        "rang_Tc_MTN": 3,
        "rang_Tc_MOOV": 1,
        "rang_Tbd_ORANGE": 1,
        "rang_Tbd_MTN": 2,
        "rang_Tbd_MOOV": 3,
        "rang_Tq_ORANGE": 1,
        "rang_Tq_MTN": 3,
        "rang_Tq_MOOV": 1
      },
      "id": 8
    },
    {
      "type": "Feature",
      "geometry": {
        "coordinates": [
          -3.98251,
          5.30932
        ],
        "type": "Point"
      },
      "properties": {
        "ADM0_FR": "DISTRICT AUTONOME D'ABIDJAN",
        "ADM0_PCODE": "CI04",
        "ADM1_FR": "DISTRICT AUTONOME D'ABIDJAN",
        "ADM1_PCODE": "CI101",
        "ADM2_FR": "ABIDJAN",
        "ADM2_PCODE": "CI0101",
        "ADM3_FR": "ABIDJAN",
        "ADM3_PCODE": "CI010101",
        "ADM4_FR": "MARCORY",
        "ADM4_PCODE": "C5375",
        "centerLat": 5.29932,
        "centerLng": -3.98251,
        "pop": 249858,
        "Te_MOOV": 0.0,
        "Tbd_MOOV": 51.32,
        "Tc_MOOV": 0.0,
        "Tq_MOOV": 1.02,
        "Te_MTN": 0.0,
        "Tbd_MTN": 89.74,
        "Tc_MTN": 0.66,
        "Tq_MTN": 0.0,
        "Te_ORANGE": 0.0,
        "Tbd_ORANGE": 97.97,
        "Tc_ORANGE": 0.33999999999999997,
        "Tq_ORANGE": 0.0,
        "rang_Te_ORANGE": 1,
        "rang_Te_MTN": 1,
        "rang_Te_MOOV": 1,
        "rang_Tc_ORANGE": 2,
        "rang_Tc_MTN": 3,
        "rang_Tc_MOOV": 1,
        "rang_Tbd_ORANGE": 1,
        "rang_Tbd_MTN": 2,
        "rang_Tbd_MOOV": 3,
        "rang_Tq_ORANGE": 1,
        "rang_Tq_MTN": 1,
        "rang_Tq_MOOV": 3
      },
      "id": 9
    },
    {
      "type": "Feature",
      "geometry": {
        "coordinates": [
          -4.02164,
          5.33517
        ],
        "type": "Point"
      },
      "properties": {
        "ADM0_FR": "DISTRICT AUTONOME D'ABIDJAN",
        "ADM0_PCODE": "CI04",
        "ADM1_FR": "DISTRICT AUTONOME D'ABIDJAN",
        "ADM1_PCODE": "CI101",
        "ADM2_FR": "ABIDJAN",
        "ADM2_PCODE": "CI0101",
        "ADM3_FR": "ABIDJAN",
        "ADM3_PCODE": "CI010101",
        "ADM4_FR": "PLATEAU",
        "ADM4_PCODE": "C6556",
        "centerLat": 5.32517,
        "centerLng": -4.02164,
        "pop": 7488,
        "Te_MOOV": 0.0,
        "Tbd_MOOV": 53.39,
        "Tc_MOOV": 0.0,
        "Tq_MOOV": 1.2,
        "Te_MTN": 0.0,
        "Tbd_MTN": 91.67,
        "Tc_MTN": 0.4,
        "Tq_MTN": 0.0,
        "Te_ORANGE": 0.0,
        "Tbd_ORANGE": 98.41,
        "Tc_ORANGE": 0.0,
        "Tq_ORANGE": 0.0,
        "rang_Te_ORANGE": 1,
        "rang_Te_MTN": 1,
        "rang_Te_MOOV": 1,
        "rang_Tc_ORANGE": 1,
        "rang_Tc_MTN": 3,
        "rang_Tc_MOOV": 1,
        "rang_Tbd_ORANGE": 1,
        "rang_Tbd_MTN": 2,
        "rang_Tbd_MOOV": 3,
        "rang_Tq_ORANGE": 1,
        "rang_Tq_MTN": 1,
        "rang_Tq_MOOV": 3
      },
      "id": 10
    },
    {
      "type": "Feature",
      "geometry": {
        "coordinates": [
          -3.958626,
          5.266881
        ],
        "type": "Point"
      },
      "properties": {
        "ADM0_FR": "DISTRICT AUTONOME D'ABIDJAN",
        "ADM0_PCODE": "CI04",
        "ADM1_FR": "DISTRICT AUTONOME D'ABIDJAN",
        "ADM1_PCODE": "CI101",
        "ADM2_FR": "ABIDJAN",
        "ADM2_PCODE": "CI0101",
        "ADM3_FR": "ABIDJAN",
        "ADM3_PCODE": "CI010101",
        "ADM4_FR": "PORT-BOUET",
        "ADM4_PCODE": "C6619",
        "centerLat": 5.256881,
        "centerLng": -3.958626,
        "pop": 419033,
        "Te_MOOV": 0.0,
        "Tbd_MOOV": 22.06,
        "Tc_MOOV": 0.36,
        "Tq_MOOV": 88.57000000000001,
        "Te_MTN": 0.0,
        "Tbd_MTN": 75.8,
        "Tc_MTN": 0.36,
        "Tq_MTN": 0.0,
        "Te_ORANGE": 0.0,
        "Tbd_ORANGE": 97.15,
        "Tc_ORANGE": 0.0,
        "Tq_ORANGE": 2.87,
        "rang_Te_ORANGE": 1,
        "rang_Te_MTN": 1,
        "rang_Te_MOOV": 1,
        "rang_Tc_ORANGE": 1,
        "rang_Tc_MTN": 2,
        "rang_Tc_MOOV": 2,
        "rang_Tbd_ORANGE": 1,
        "rang_Tbd_MTN": 2,
        "rang_Tbd_MOOV": 3,
        "rang_Tq_ORANGE": 2,
        "rang_Tq_MTN": 1,
        "rang_Tq_MOOV": 3
      },
      "id": 11
    },
    {
      "type": "Feature",
      "geometry": {
        "coordinates": [
          -4.01044,
          5.30098
        ],
        "type": "Point"
      },
      "properties": {
        "ADM0_FR": "DISTRICT AUTONOME D'ABIDJAN",
        "ADM0_PCODE": "CI04",
        "ADM1_FR": "DISTRICT AUTONOME D'ABIDJAN",
        "ADM1_PCODE": "CI101",
        "ADM2_FR": "ABIDJAN",
        "ADM2_PCODE": "CI0101",
        "ADM3_FR": "ABIDJAN",
        "ADM3_PCODE": "CI010101",
        "ADM4_FR": "TREICHVILLE",
        "ADM4_PCODE": "C7913",
        "centerLat": 5.29098,
        "centerLng": -4.01044,
        "pop": 102580,
        "Te_MOOV": 0.0,
        "Tbd_MOOV": 51.15,
        "Tc_MOOV": 0.0,
        "Tq_MOOV": 73.28,
        "Te_MTN": 0.76,
        "Tbd_MTN": 81.54,
        "Tc_MTN": 0.0,
        "Tq_MTN": 0.0,
        "Te_ORANGE": 0.0,
        "Tbd_ORANGE": 94.66,
        "Tc_ORANGE": 0.0,
        "Tq_ORANGE": 0.0,
        "rang_Te_ORANGE": 1,
        "rang_Te_MTN": 3,
        "rang_Te_MOOV": 1,
        "rang_Tc_ORANGE": 1,
        "rang_Tc_MTN": 1,
        "rang_Tc_MOOV": 1,
        "rang_Tbd_ORANGE": 1,
        "rang_Tbd_MTN": 2,
        "rang_Tbd_MOOV": 3,
        "rang_Tq_ORANGE": 1,
        "rang_Tq_MTN": 1,
        "rang_Tq_MOOV": 3
      },
      "id": 12
    },
    {
      "type": "Feature",
      "geometry": {
        "coordinates": [
          -4.09015,
          5.31848
        ],
        "type": "Point"
      },
      "properties": {
        "ADM0_FR": "DISTRICT AUTONOME D'ABIDJAN",
        "ADM0_PCODE": "CI04",
        "ADM1_FR": "DISTRICT AUTONOME D'ABIDJAN",
        "ADM1_PCODE": "CI101",
        "ADM2_FR": "ABIDJAN",
        "ADM2_PCODE": "CI0101",
        "ADM3_FR": "ABIDJAN",
        "ADM3_PCODE": "CI010101",
        "ADM4_FR": "YOPOUGON",
        "ADM4_PCODE": "C8230",
        "centerLat": 5.30848,
        "centerLng": -4.09015,
        "pop": 1071543,
        "Te_MOOV": 0.19,
        "Tbd_MOOV": 34.33,
        "Tc_MOOV": 1.49,
        "Tq_MOOV": 1.15,
        "Te_MTN": 0.19,
        "Tbd_MTN": 87.17,
        "Tc_MTN": 0.0,
        "Tq_MTN": 0.77,
        "Te_ORANGE": 0.19,
        "Tbd_ORANGE": 99.25,
        "Tc_ORANGE": 1.31,
        "Tq_ORANGE": 0.0,
        "rang_Te_ORANGE": 1,
        "rang_Te_MTN": 1,
        "rang_Te_MOOV": 1,
        "rang_Tc_ORANGE": 2,
        "rang_Tc_MTN": 1,
        "rang_Tc_MOOV": 3,
        "rang_Tbd_ORANGE": 1,
        "rang_Tbd_MTN": 2,
        "rang_Tbd_MOOV": 3,
        "rang_Tq_ORANGE": 1,
        "rang_Tq_MTN": 2,
        "rang_Tq_MOOV": 3
      },
      "id": 13
    },
    {
      "type": "Feature",
      "geometry": {
        "coordinates": [
          -3.49676,
          6.73836
        ],
        "type": "Point"
      },
      "properties": {
        "ADM0_FR": "COMOE",
        "ADM0_PCODE": "CI02",
        "ADM1_FR": "INDENIE-DJUABLIN",
        "ADM1_PCODE": "CI120",
        "ADM2_FR": "ABENGOUROU",
        "ADM2_PCODE": "CI2001",
        "ADM3_FR": "ABENGOUROU",
        "ADM3_PCODE": "CI200101",
        "ADM4_FR": "ABENGOUROU",
        "ADM4_PCODE": "C0014",
        "centerLat": 6.72836,
        "centerLng": -3.49676,
        "pop": 100910,
        "Te_MOOV": 0.0,
        "Tbd_MOOV": 82.14,
        "Tc_MOOV": 0.0,
        "Tq_MOOV": 58.96,
        "Te_MTN": 0.4,
        "Tbd_MTN": 83.67,
        "Tc_MTN": 0.0,
        "Tq_MTN": 0.41000000000000003,
        "Te_ORANGE": 0.0,
        "Tbd_ORANGE": 87.7,
        "Tc_ORANGE": 0.0,
        "Tq_ORANGE": 0.0,
        "rang_Te_ORANGE": 1,
        "rang_Te_MTN": 3,
        "rang_Te_MOOV": 1,
        "rang_Tc_ORANGE": 1,
        "rang_Tc_MTN": 1,
        "rang_Tc_MOOV": 1,
        "rang_Tbd_ORANGE": 1,
        "rang_Tbd_MTN": 2,
        "rang_Tbd_MOOV": 3,
        "rang_Tq_ORANGE": 1,
        "rang_Tq_MTN": 2,
        "rang_Tq_MOOV": 3
      },
      "id": 14
    },
    {
      "type": "Feature",
      "geometry": {
        "coordinates": [
          -3.20677,
          5.48457
        ],
        "type": "Point"
      },
      "properties": {
        "ADM0_FR": "COMOE",
        "ADM0_PCODE": "CI02",
        "ADM1_FR": "SUD-COMOE",
        "ADM1_PCODE": "CI130",
        "ADM2_FR": "ABOISSO",
        "ADM2_PCODE": "CI3001",
        "ADM3_FR": "ABOISSO",
        "ADM3_PCODE": "CI300101",
        "ADM4_FR": "ABOISSO",
        "ADM4_PCODE": "C0033",
        "centerLat": 5.47457,
        "centerLng": -3.20677,
        "pop": 45688,
        "Te_MOOV": 0.0,
        "Tbd_MOOV": 82.8,
        "Tc_MOOV": 0.72,
        "Tq_MOOV": 80.14,
        "Te_MTN": 0.0,
        "Tbd_MTN": 85.87,
        "Tc_MTN": 0.35000000000000003,
        "Tq_MTN": 0.0,
        "Te_ORANGE": 0.0,
        "Tbd_ORANGE": 85.05,
        "Tc_ORANGE": 0.36,
        "Tq_ORANGE": 0.0,
        "rang_Te_ORANGE": 1,
        "rang_Te_MTN": 1,
        "rang_Te_MOOV": 1,
        "rang_Tc_ORANGE": 2,
        "rang_Tc_MTN": 1,
        "rang_Tc_MOOV": 3,
        "rang_Tbd_ORANGE": 2,
        "rang_Tbd_MTN": 1,
        "rang_Tbd_MOOV": 3,
        "rang_Tq_ORANGE": 1,
        "rang_Tq_MTN": 1,
        "rang_Tq_MOOV": 3
      },
      "id": 15
    },
    {
      "type": "Feature",
      "geometry": {
        "coordinates": [
          -3.86622,
          6.1196
        ],
        "type": "Point"
      },
      "properties": {
        "ADM0_FR": "LAGUNES",
        "ADM0_PCODE": "CI08",
        "ADM1_FR": "LA ME",
        "ADM1_PCODE": "CI124",
        "ADM2_FR": "ADZOPE",
        "ADM2_PCODE": "CI2401",
        "ADM3_FR": "ADZOPE",
        "ADM3_PCODE": "CI240101",
        "ADM4_FR": "ADZOPE",
        "ADM4_PCODE": "C0176",
        "centerLat": 6.1096,
        "centerLng": -3.86622,
        "pop": 58722,
        "Te_MOOV": 5.84,
        "Tbd_MOOV": 52.739999999999995,
        "Tc_MOOV": 0.69,
        "Tq_MOOV": 75.22,
        "Te_MTN": 0.0,
        "Tbd_MTN": 90.07,
        "Tc_MTN": 0.0,
        "Tq_MTN": 0.66,
        "Te_ORANGE": 0.66,
        "Tbd_ORANGE": 86.0,
        "Tc_ORANGE": 0.67,
        "Tq_ORANGE": 0.0,
        "rang_Te_ORANGE": 2,
        "rang_Te_MTN": 1,
        "rang_Te_MOOV": 3,
        "rang_Tc_ORANGE": 2,
        "rang_Tc_MTN": 1,
        "rang_Tc_MOOV": 3,
        "rang_Tbd_ORANGE": 2,
        "rang_Tbd_MTN": 1,
        "rang_Tbd_MOOV": 3,
        "rang_Tq_ORANGE": 1,
        "rang_Tq_MTN": 2,
        "rang_Tq_MOOV": 3
      },
      "id": 16
    },
    {
      "type": "Feature",
      "geometry": {
        "coordinates": [
          -4.21523,
          5.93964
        ],
        "type": "Point"
      },
      "properties": {
        "ADM0_FR": "LAGUNES",
        "ADM0_PCODE": "CI08",
        "ADM1_FR": "AGNEBY-TIASSA",
        "ADM1_PCODE": "CI103",
        "ADM2_FR": "AGBOVILLE",
        "ADM2_PCODE": "CI0301",
        "ADM3_FR": "AGBOVILLE",
        "ADM3_PCODE": "CI030102",
        "ADM4_FR": "AGBOVILLE",
        "ADM4_PCODE": "C0215",
        "centerLat": 5.92964,
        "centerLng": -4.21523,
        "pop": 50873,
        "Te_MOOV": 2.27,
        "Tbd_MOOV": 44.190000000000005,
        "Tc_MOOV": 0.0,
        "Tq_MOOV": 2.41,
        "Te_MTN": 2.82,
        "Tbd_MTN": 81.98,
        "Tc_MTN": 0.0,
        "Tq_MTN": 2.33,
        "Te_ORANGE": 0.5599999999999999,
        "Tbd_ORANGE": 93.82000000000001,
        "Tc_ORANGE": 0.5599999999999999,
        "Tq_ORANGE": 0.0,
        "rang_Te_ORANGE": 1,
        "rang_Te_MTN": 3,
        "rang_Te_MOOV": 2,
        "rang_Tc_ORANGE": 3,
        "rang_Tc_MTN": 1,
        "rang_Tc_MOOV": 1,
        "rang_Tbd_ORANGE": 1,
        "rang_Tbd_MTN": 2,
        "rang_Tbd_MOOV": 3,
        "rang_Tq_ORANGE": 1,
        "rang_Tq_MTN": 2,
        "rang_Tq_MOOV": 3
      },
      "id": 17
    },
    {
      "type": "Feature",
      "geometry": {
        "coordinates": [
          -3.88779,
          6.39525
        ],
        "type": "Point"
      },
      "properties": {
        "ADM0_FR": "LAGUNES",
        "ADM0_PCODE": "CI08",
        "ADM1_FR": "LA ME",
        "ADM1_PCODE": "CI124",
        "ADM2_FR": "AKOUPE",
        "ADM2_PCODE": "CI2402",
        "ADM3_FR": "AKOUPE",
        "ADM3_PCODE": "CI240202",
        "ADM4_FR": "AKOUPE",
        "ADM4_PCODE": "C0363",
        "centerLat": 6.38525,
        "centerLng": -3.88779,
        "pop": 26668,
        "Te_MOOV": 2.65,
        "Tbd_MOOV": 60.540000000000006,
        "Tc_MOOV": 0.0,
        "Tq_MOOV": 73.68,
        "Te_MTN": 0.0,
        "Tbd_MTN": 82.78,
        "Tc_MTN": 0.0,
        "Tq_MTN": 0.0,
        "Te_ORANGE": 0.66,
        "Tbd_ORANGE": 87.33,
        "Tc_ORANGE": 0.0,
        "Tq_ORANGE": 0.0,
        "rang_Te_ORANGE": 2,
        "rang_Te_MTN": 1,
        "rang_Te_MOOV": 3,
        "rang_Tc_ORANGE": 1,
        "rang_Tc_MTN": 1,
        "rang_Tc_MOOV": 1,
        "rang_Tbd_ORANGE": 1,
        "rang_Tbd_MTN": 2,
        "rang_Tbd_MOOV": 3,
        "rang_Tq_ORANGE": 1,
        "rang_Tq_MTN": 1,
        "rang_Tq_MOOV": 3
      },
      "id": 18
    },
    {
      "type": "Feature",
      "geometry": {
        "coordinates": [
          -3.66061,
          5.51126
        ],
        "type": "Point"
      },
      "properties": {
        "ADM0_FR": "LAGUNES",
        "ADM0_PCODE": "CI08",
        "ADM1_FR": "LA ME",
        "ADM1_PCODE": "CI124",
        "ADM2_FR": "ALEPE",
        "ADM2_PCODE": "CI2403",
        "ADM3_FR": "ALEPE",
        "ADM3_PCODE": "CI240302",
        "ADM4_FR": "ALEPE",
        "ADM4_PCODE": "C0398",
        "centerLat": 5.50126,
        "centerLng": -3.66061,
        "pop": 9045,
        "Te_MOOV": 0.0,
        "Tbd_MOOV": 82.19,
        "Tc_MOOV": 0.0,
        "Tq_MOOV": 77.4,
        "Te_MTN": 0.65,
        "Tbd_MTN": 71.71,
        "Tc_MTN": 0.66,
        "Tq_MTN": 0.0,
        "Te_ORANGE": 0.67,
        "Tbd_ORANGE": 94.63000000000001,
        "Tc_ORANGE": 0.0,
        "Tq_ORANGE": 0.0,
        "rang_Te_ORANGE": 3,
        "rang_Te_MTN": 2,
        "rang_Te_MOOV": 1,
        "rang_Tc_ORANGE": 1,
        "rang_Tc_MTN": 3,
        "rang_Tc_MOOV": 1,
        "rang_Tbd_ORANGE": 1,
        "rang_Tbd_MTN": 3,
        "rang_Tbd_MOOV": 2,
        "rang_Tq_ORANGE": 1,
        "rang_Tq_MTN": 1,
        "rang_Tq_MOOV": 3
      },
      "id": 19
    },
    {
      "type": "Feature",
      "geometry": {
        "coordinates": [
          -3.28996,
          5.14392
        ],
        "type": "Point"
      },
      "properties": {
        "ADM0_FR": "COMOE",
        "ADM0_PCODE": "CI02",
        "ADM1_FR": "SUD-COMOE",
        "ADM1_PCODE": "CI130",
        "ADM2_FR": "ADIAKE",
        "ADM2_PCODE": "CI3002",
        "ADM3_FR": "ASSINIE-MAFIA",
        "ADM3_PCODE": "CI300202",
        "ADM4_FR": "ASSINIE-MAFIA",
        "ADM4_PCODE": "C0685",
        "centerLat": 5.13392,
        "centerLng": -3.28996,
        "pop": 5661,
        "Te_MOOV": 7.62,
        "Tbd_MOOV": 29.9,
        "Tc_MOOV": 0.0,
        "Tq_MOOV": 75.0,
        "Te_MTN": 0.0,
        "Tbd_MTN": 81.44,
        "Tc_MTN": 1.03,
        "Tq_MTN": 0.0,
        "Te_ORANGE": 0.0,
        "Tbd_ORANGE": 73.33,
        "Tc_ORANGE": 0.0,
        "Tq_ORANGE": 1.92,
        "rang_Te_ORANGE": 1,
        "rang_Te_MTN": 1,
        "rang_Te_MOOV": 3,
        "rang_Tc_ORANGE": 1,
        "rang_Tc_MTN": 3,
        "rang_Tc_MOOV": 1,
        "rang_Tbd_ORANGE": 2,
        "rang_Tbd_MTN": 1,
        "rang_Tbd_MOOV": 3,
        "rang_Tq_ORANGE": 2,
        "rang_Tq_MTN": 1,
        "rang_Tq_MOOV": 3
      },
      "id": 20
    },
    {
      "type": "Feature",
      "geometry": {
        "coordinates": [
          -7.61002,
          9.15095
        ],
        "type": "Point"
      },
      "properties": {
        "ADM0_FR": "DENGUELE",
        "ADM0_PCODE": "CI03",
        "ADM1_FR": "KABADOUGOU",
        "ADM1_PCODE": "CI121",
        "ADM2_FR": "ODIENNE",
        "ADM2_PCODE": "CI2103",
        "ADM3_FR": "BAKO",
        "ADM3_PCODE": "CI210302",
        "ADM4_FR": "BAKO",
        "ADM4_PCODE": "C0871",
        "centerLat": 9.14095,
        "centerLng": -7.61002,
        "pop": 1796,
        "Te_MOOV": 0.0,
        "Tbd_MOOV": 9.520000000000001,
        "Tc_MOOV": 0.0,
        "Tq_MOOV": 0.0,
        "Te_MTN": 0.0,
        "Tbd_MTN": 54.64,
        "Tc_MTN": 0.0,
        "Tq_MTN": 0.0,
        "Te_ORANGE": 0.95,
        "Tbd_ORANGE": 94.23,
        "Tc_ORANGE": 0.0,
        "Tq_ORANGE": 0.0,
        "rang_Te_ORANGE": 3,
        "rang_Te_MTN": 1,
        "rang_Te_MOOV": 1,
        "rang_Tc_ORANGE": 1,
        "rang_Tc_MTN": 1,
        "rang_Tc_MOOV": 1,
        "rang_Tbd_ORANGE": 1,
        "rang_Tbd_MTN": 2,
        "rang_Tbd_MOOV": 3,
        "rang_Tq_ORANGE": 1,
        "rang_Tq_MTN": 1,
        "rang_Tq_MOOV": 1
      },
      "id": 21
    },
    {
      "type": "Feature",
      "geometry": {
        "coordinates": [
          -7.61483,
          7.75078
        ],
        "type": "Point"
      },
      "properties": {
        "ADM0_FR": "MONTAGNES",
        "ADM0_PCODE": "CI09",
        "ADM1_FR": "TONKPI",
        "ADM1_PCODE": "CI132",
        "ADM2_FR": "BIANKOUMA",
        "ADM2_PCODE": "CI3201",
        "ADM3_FR": "BIANKOUMA",
        "ADM3_PCODE": "CI320101",
        "ADM4_FR": "BIANKOUMA",
        "ADM4_PCODE": "C1160",
        "centerLat": 7.74078,
        "centerLng": -7.61483,
        "pop": 17922,
        "Te_MOOV": 1.43,
        "Tbd_MOOV": 1.4500000000000002,
        "Tc_MOOV": 1.4500000000000002,
        "Tq_MOOV": 12.21,
        "Te_MTN": 2.86,
        "Tbd_MTN": 95.59,
        "Tc_MTN": 2.21,
        "Tq_MTN": 0.0,
        "Te_ORANGE": 1.43,
        "Tbd_ORANGE": 98.55000000000001,
        "Tc_ORANGE": 1.4500000000000002,
        "Tq_ORANGE": 0.0,
        "rang_Te_ORANGE": 1,
        "rang_Te_MTN": 3,
        "rang_Te_MOOV": 1,
        "rang_Tc_ORANGE": 1,
        "rang_Tc_MTN": 3,
        "rang_Tc_MOOV": 1,
        "rang_Tbd_ORANGE": 1,
        "rang_Tbd_MTN": 2,
        "rang_Tbd_MOOV": 3,
        "rang_Tq_ORANGE": 1,
        "rang_Tq_MTN": 1,
        "rang_Tq_MOOV": 3
      },
      "id": 22
    },
    {
      "type": "Feature",
      "geometry": {
        "coordinates": [
          -3.59476,
          5.28193
        ],
        "type": "Point"
      },
      "properties": {
        "ADM0_FR": "COMOE",
        "ADM0_PCODE": "CI02",
        "ADM1_FR": "SUD-COMOE",
        "ADM1_PCODE": "CI130",
        "ADM2_FR": "GRAND-BASSAM",
        "ADM2_PCODE": "CI3003",
        "ADM3_FR": "BONOUA",
        "ADM3_PCODE": "CI300302",
        "ADM4_FR": "BONOUA",
        "ADM4_PCODE": "C1451",
        "centerLat": 5.27193,
        "centerLng": -3.59476,
        "pop": 38135,
        "Te_MOOV": 1.32,
        "Tbd_MOOV": 23.84,
        "Tc_MOOV": 2.0,
        "Tq_MOOV": 81.51,
        "Te_MTN": 0.0,
        "Tbd_MTN": 75.5,
        "Tc_MTN": 1.32,
        "Tq_MTN": 2.0500000000000003,
        "Te_ORANGE": 0.0,
        "Tbd_ORANGE": 93.28999999999999,
        "Tc_ORANGE": 0.0,
        "Tq_ORANGE": 0.0,
        "rang_Te_ORANGE": 1,
        "rang_Te_MTN": 1,
        "rang_Te_MOOV": 3,
        "rang_Tc_ORANGE": 1,
        "rang_Tc_MTN": 2,
        "rang_Tc_MOOV": 3,
        "rang_Tbd_ORANGE": 1,
        "rang_Tbd_MTN": 2,
        "rang_Tbd_MOOV": 3,
        "rang_Tq_ORANGE": 1,
        "rang_Tq_MTN": 2,
        "rang_Tq_MOOV": 3
      },
      "id": 23
    },
    {
      "type": "Feature",
      "geometry": {
        "coordinates": [
          -5.75132,
          6.99414
        ],
        "type": "Point"
      },
      "properties": {
        "ADM0_FR": "SASSANDRA-MARAHOUE",
        "ADM0_PCODE": "CI10",
        "ADM1_FR": "MARAHOUE",
        "ADM1_PCODE": "CI123",
        "ADM2_FR": "BOUAFLE",
        "ADM2_PCODE": "CI2301",
        "ADM3_FR": "BOUAFLE",
        "ADM3_PCODE": "CI230103",
        "ADM4_FR": "BOUAFLÉ",
        "ADM4_PCODE": "C1503",
        "centerLat": 6.98414,
        "centerLng": -5.75132,
        "pop": 80389,
        "Te_MOOV": 0.0,
        "Tbd_MOOV": 3.45,
        "Tc_MOOV": 0.0,
        "Tq_MOOV": 1.15,
        "Te_MTN": 1.71,
        "Tbd_MTN": 86.05000000000001,
        "Tc_MTN": 1.16,
        "Tq_MTN": 1.82,
        "Te_ORANGE": 1.1400000000000001,
        "Tbd_ORANGE": 93.64,
        "Tc_ORANGE": 0.58,
        "Tq_ORANGE": 0.0,
        "rang_Te_ORANGE": 2,
        "rang_Te_MTN": 3,
        "rang_Te_MOOV": 1,
        "rang_Tc_ORANGE": 2,
        "rang_Tc_MTN": 3,
        "rang_Tc_MOOV": 1,
        "rang_Tbd_ORANGE": 1,
        "rang_Tbd_MTN": 2,
        "rang_Tbd_MOOV": 3,
        "rang_Tq_ORANGE": 1,
        "rang_Tq_MTN": 3,
        "rang_Tq_MOOV": 2
      },
      "id": 24
    },
    {
      "type": "Feature",
      "geometry": {
        "coordinates": [
          -5.02961,
          7.697909999999999
        ],
        "type": "Point"
      },
      "properties": {
        "ADM0_FR": "VALLEE DU BANDAMA",
        "ADM0_PCODE": "CI12",
        "ADM1_FR": "GBEKE",
        "ADM1_PCODE": "CI111",
        "ADM2_FR": "BOUAKE",
        "ADM2_PCODE": "CI1103",
        "ADM3_FR": "BOUAKE",
        "ADM3_PCODE": "CI110301",
        "ADM4_FR": "BOUAKÉ",
        "ADM4_PCODE": "C1507",
        "centerLat": 7.68791,
        "centerLng": -5.02961,
        "pop": 536719,
        "Te_MOOV": 0.74,
        "Tbd_MOOV": 7.779999999999999,
        "Tc_MOOV": 1.11,
        "Tq_MOOV": 1.87,
        "Te_MTN": 0.0,
        "Tbd_MTN": 84.56,
        "Tc_MTN": 0.0,
        "Tq_MTN": 0.37,
        "Te_ORANGE": 0.37,
        "Tbd_ORANGE": 95.57,
        "Tc_ORANGE": 0.0,
        "Tq_ORANGE": 0.37,
        "rang_Te_ORANGE": 2,
        "rang_Te_MTN": 1,
        "rang_Te_MOOV": 3,
        "rang_Tc_ORANGE": 1,
        "rang_Tc_MTN": 1,
        "rang_Tc_MOOV": 3,
        "rang_Tbd_ORANGE": 1,
        "rang_Tbd_MTN": 2,
        "rang_Tbd_MOOV": 3,
        "rang_Tq_ORANGE": 1,
        "rang_Tq_MTN": 1,
        "rang_Tq_MOOV": 3
      },
      "id": 25
    },
    {
      "type": "Feature",
      "geometry": {
        "coordinates": [
          -2.99909,
          9.27864
        ],
        "type": "Point"
      },
      "properties": {
        "ADM0_FR": "ZANZAN",
        "ADM0_PCODE": "CI14",
        "ADM1_FR": "BOUNKANI",
        "ADM1_PCODE": "CI108",
        "ADM2_FR": "BOUNA",
        "ADM2_PCODE": "CI0801",
        "ADM3_FR": "BOUNA",
        "ADM3_PCODE": "CI080102",
        "ADM4_FR": "BOUNA",
        "ADM4_PCODE": "C1550",
        "centerLat": 9.26864,
        "centerLng": -2.99909,
        "pop": 18755,
        "Te_MOOV": 0.0,
        "Tbd_MOOV": 70.39,
        "Tc_MOOV": 0.0,
        "Tq_MOOV": 71.50999999999999,
        "Te_MTN": 0.0,
        "Tbd_MTN": 85.03,
        "Tc_MTN": 0.0,
        "Tq_MTN": 0.0,
        "Te_ORANGE": 0.5599999999999999,
        "Tbd_ORANGE": 88.75999999999999,
        "Tc_ORANGE": 0.0,
        "Tq_ORANGE": 0.0,
        "rang_Te_ORANGE": 3,
        "rang_Te_MTN": 1,
        "rang_Te_MOOV": 1,
        "rang_Tc_ORANGE": 1,
        "rang_Tc_MTN": 1,
        "rang_Tc_MOOV": 1,
        "rang_Tbd_ORANGE": 1,
        "rang_Tbd_MTN": 2,
        "rang_Tbd_MOOV": 3,
        "rang_Tq_ORANGE": 1,
        "rang_Tq_MTN": 1,
        "rang_Tq_MOOV": 3
      },
      "id": 26
    },
    {
      "type": "Feature",
      "geometry": {
        "coordinates": [
          -6.48411,
          9.53143
        ],
        "type": "Point"
      },
      "properties": {
        "ADM0_FR": "SAVANES",
        "ADM0_PCODE": "CI11",
        "ADM1_FR": "BAGOUE",
        "ADM1_PCODE": "CI105",
        "ADM2_FR": "BOUNDIALI",
        "ADM2_PCODE": "CI0501",
        "ADM3_FR": "BOUNDIALI",
        "ADM3_PCODE": "CI050102",
        "ADM4_FR": "BOUNDIALI",
        "ADM4_PCODE": "C1557",
        "centerLat": 9.52143,
        "centerLng": -6.48411,
        "pop": 39962,
        "Te_MOOV": 4.569999999999999,
        "Tbd_MOOV": 10.18,
        "Tc_MOOV": 0.0,
        "Tq_MOOV": 1.7999999999999998,
        "Te_MTN": 0.5700000000000001,
        "Tbd_MTN": 85.14,
        "Tc_MTN": 0.0,
        "Tq_MTN": 0.0,
        "Te_ORANGE": 0.0,
        "Tbd_ORANGE": 97.71,
        "Tc_ORANGE": 0.0,
        "Tq_ORANGE": 0.0,
        "rang_Te_ORANGE": 1,
        "rang_Te_MTN": 2,
        "rang_Te_MOOV": 3,
        "rang_Tc_ORANGE": 1,
        "rang_Tc_MTN": 1,
        "rang_Tc_MOOV": 1,
        "rang_Tbd_ORANGE": 1,
        "rang_Tbd_MTN": 2,
        "rang_Tbd_MOOV": 3,
        "rang_Tq_ORANGE": 1,
        "rang_Tq_MTN": 1,
        "rang_Tq_MOOV": 3
      },
      "id": 27
    },
    {
      "type": "Feature",
      "geometry": {
        "coordinates": [
          -4.38208,
          5.33271
        ],
        "type": "Point"
      },
      "properties": {
        "ADM0_FR": "LAGUNES",
        "ADM0_PCODE": "CI08",
        "ADM1_FR": "GRANDS-PONTS",
        "ADM1_PCODE": "CI115",
        "ADM2_FR": "DABOU",
        "ADM2_PCODE": "CI1501",
        "ADM3_FR": "DABOU",
        "ADM3_PCODE": "CI150101",
        "ADM4_FR": "DABOU",
        "ADM4_PCODE": "C1708",
        "centerLat": 5.32271,
        "centerLng": -4.38208,
        "pop": 61942,
        "Te_MOOV": 0.0,
        "Tbd_MOOV": 44.07,
        "Tc_MOOV": 0.0,
        "Tq_MOOV": 0.0,
        "Te_MTN": 0.0,
        "Tbd_MTN": 84.75,
        "Tc_MTN": 0.0,
        "Tq_MTN": 0.5599999999999999,
        "Te_ORANGE": 0.0,
        "Tbd_ORANGE": 97.74000000000001,
        "Tc_ORANGE": 0.0,
        "Tq_ORANGE": 0.0,
        "rang_Te_ORANGE": 1,
        "rang_Te_MTN": 1,
        "rang_Te_MOOV": 1,
        "rang_Tc_ORANGE": 1,
        "rang_Tc_MTN": 1,
        "rang_Tc_MOOV": 1,
        "rang_Tbd_ORANGE": 1,
        "rang_Tbd_MTN": 2,
        "rang_Tbd_MOOV": 3,
        "rang_Tq_ORANGE": 1,
        "rang_Tq_MTN": 3,
        "rang_Tq_MOOV": 1
      },
      "id": 28
    },
    {
      "type": "Feature",
      "geometry": {
        "coordinates": [
          -6.4486,
          6.89815
        ],
        "type": "Point"
      },
      "properties": {
        "ADM0_FR": "SASSANDRA-MARAHOUE",
        "ADM0_PCODE": "CI10",
        "ADM1_FR": "HAUT-SASSANDRA",
        "ADM1_PCODE": "CI118",
        "ADM2_FR": "DALOA",
        "ADM2_PCODE": "CI1801",
        "ADM3_FR": "DALOA",
        "ADM3_PCODE": "CI180102",
        "ADM4_FR": "DALOA",
        "ADM4_PCODE": "C1779",
        "centerLat": 6.88815,
        "centerLng": -6.4486,
        "pop": 245360,
        "Te_MOOV": 1.3,
        "Tbd_MOOV": 4.8500000000000005,
        "Tc_MOOV": 0.0,
        "Tq_MOOV": 9.73,
        "Te_MTN": 0.0,
        "Tbd_MTN": 75.77000000000001,
        "Tc_MTN": 0.0,
        "Tq_MTN": 0.0,
        "Te_ORANGE": 0.0,
        "Tbd_ORANGE": 94.78,
        "Tc_ORANGE": 0.0,
        "Tq_ORANGE": 0.0,
        "rang_Te_ORANGE": 1,
        "rang_Te_MTN": 1,
        "rang_Te_MOOV": 3,
        "rang_Tc_ORANGE": 1,
        "rang_Tc_MTN": 1,
        "rang_Tc_MOOV": 1,
        "rang_Tbd_ORANGE": 1,
        "rang_Tbd_MTN": 2,
        "rang_Tbd_MOOV": 3,
        "rang_Tq_ORANGE": 1,
        "rang_Tq_MTN": 1,
        "rang_Tq_MOOV": 3
      },
      "id": 29
    },
    {
      "type": "Feature",
      "geometry": {
        "coordinates": [
          -8.16032,
          7.27075
        ],
        "type": "Point"
      },
      "properties": {
        "ADM0_FR": "MONTAGNES",
        "ADM0_PCODE": "CI09",
        "ADM1_FR": "TONKPI",
        "ADM1_PCODE": "CI132",
        "ADM2_FR": "DANANE",
        "ADM2_PCODE": "CI3202",
        "ADM3_FR": "DANANE",
        "ADM3_PCODE": "CI320202",
        "ADM4_FR": "DANANÉ",
        "ADM4_PCODE": "C1791",
        "centerLat": 7.26075,
        "centerLng": -8.16032,
        "pop": 60645,
        "Te_MOOV": 0.0,
        "Tbd_MOOV": 22.0,
        "Tc_MOOV": 0.0,
        "Tq_MOOV": 1.3299999999999998,
        "Te_MTN": 2.04,
        "Tbd_MTN": 87.5,
        "Tc_MTN": 0.0,
        "Tq_MTN": 0.0,
        "Te_ORANGE": 1.34,
        "Tbd_ORANGE": 73.47,
        "Tc_ORANGE": 6.800000000000001,
        "Tq_ORANGE": 53.54,
        "rang_Te_ORANGE": 2,
        "rang_Te_MTN": 3,
        "rang_Te_MOOV": 1,
        "rang_Tc_ORANGE": 3,
        "rang_Tc_MTN": 1,
        "rang_Tc_MOOV": 1,
        "rang_Tbd_ORANGE": 2,
        "rang_Tbd_MTN": 1,
        "rang_Tbd_MOOV": 3,
        "rang_Tq_ORANGE": 3,
        "rang_Tq_MTN": 1,
        "rang_Tq_MOOV": 2
      },
      "id": 30
    },
    {
      "type": "Feature",
      "geometry": {
        "coordinates": [
          -5.35702,
          5.84833
        ],
        "type": "Point"
      },
      "properties": {
        "ADM0_FR": "GOH-DJIBOUA",
        "ADM0_PCODE": "CI06",
        "ADM1_FR": "LOH-DJIBOUA",
        "ADM1_PCODE": "CI122",
        "ADM2_FR": "DIVO",
        "ADM2_PCODE": "CI2201",
        "ADM3_FR": "DIVO",
        "ADM3_PCODE": "CI220103",
        "ADM4_FR": "DIVO",
        "ADM4_PCODE": "C2117",
        "centerLat": 5.83833,
        "centerLng": -5.35702,
        "pop": 105397,
        "Te_MOOV": 0.0,
        "Tbd_MOOV": 70.65,
        "Tc_MOOV": 0.0,
        "Tq_MOOV": 0.0,
        "Te_MTN": 0.0,
        "Tbd_MTN": 58.209999999999994,
        "Tc_MTN": 0.0,
        "Tq_MTN": 3.7800000000000002,
        "Te_ORANGE": 0.0,
        "Tbd_ORANGE": 96.46000000000001,
        "Tc_ORANGE": 0.0,
        "Tq_ORANGE": 0.0,
        "rang_Te_ORANGE": 1,
        "rang_Te_MTN": 1,
        "rang_Te_MOOV": 1,
        "rang_Tc_ORANGE": 1,
        "rang_Tc_MTN": 1,
        "rang_Tc_MOOV": 1,
        "rang_Tbd_ORANGE": 1,
        "rang_Tbd_MTN": 3,
        "rang_Tbd_MOOV": 2,
        "rang_Tq_ORANGE": 1,
        "rang_Tq_MTN": 3,
        "rang_Tq_MOOV": 1
      },
      "id": 31
    },
    {
      "type": "Feature",
      "geometry": {
        "coordinates": [
          -7.58178,
          4.88959
        ],
        "type": "Point"
      },
      "properties": {
        "ADM0_FR": "BAS-SASSANDRA",
        "ADM0_PCODE": "CI01",
        "ADM1_FR": "SAN-PEDRO",
        "ADM1_PCODE": "CI129",
        "ADM2_FR": "TABOU",
        "ADM2_PCODE": "CI2902",
        "ADM3_FR": "GRABO",
        "ADM3_PCODE": "CI290205",
        "ADM4_FR": "DJIMANÉ",
        "ADM4_PCODE": "C2210",
        "centerLat": 4.87959,
        "centerLng": -7.58178,
        "pop": 103,
        "Te_MOOV": 1.1199999999999999,
        "Tbd_MOOV": 37.5,
        "Tc_MOOV": 0.0,
        "Tq_MOOV": 0.0,
        "Te_MTN": 1.1199999999999999,
        "Tbd_MTN": 88.64,
        "Tc_MTN": 0.0,
        "Tq_MTN": 1.23,
        "Te_ORANGE": 0.0,
        "Tbd_ORANGE": 98.88,
        "Tc_ORANGE": 0.0,
        "Tq_ORANGE": 0.0,
        "rang_Te_ORANGE": 1,
        "rang_Te_MTN": 2,
        "rang_Te_MOOV": 2,
        "rang_Tc_ORANGE": 1,
        "rang_Tc_MTN": 1,
        "rang_Tc_MOOV": 1,
        "rang_Tbd_ORANGE": 1,
        "rang_Tbd_MTN": 2,
        "rang_Tbd_MOOV": 3,
        "rang_Tq_ORANGE": 1,
        "rang_Tq_MTN": 3,
        "rang_Tq_MOOV": 1
      },
      "id": 32
    },
    {
      "type": "Feature",
      "geometry": {
        "coordinates": [
          -7.37694,
          7.39819
        ],
        "type": "Point"
      },
      "properties": {
        "ADM0_FR": "MONTAGNES",
        "ADM0_PCODE": "CI09",
        "ADM1_FR": "GUEMON",
        "ADM1_PCODE": "CI116",
        "ADM2_FR": "FACOBLY",
        "ADM2_PCODE": "CI1603",
        "ADM3_FR": "FACOBLY",
        "ADM3_PCODE": "CI160301",
        "ADM4_FR": "FACOBLY",
        "ADM4_PCODE": "C2527",
        "centerLat": 7.38819,
        "centerLng": -7.37694,
        "pop": 4536,
        "Te_MOOV": 0.0,
        "Tbd_MOOV": 23.36,
        "Tc_MOOV": 0.0,
        "Tq_MOOV": 0.0,
        "Te_MTN": 0.0,
        "Tbd_MTN": 90.57,
        "Tc_MTN": 0.0,
        "Tq_MTN": 0.0,
        "Te_ORANGE": 0.0,
        "Tbd_ORANGE": 100.0,
        "Tc_ORANGE": 0.0,
        "Tq_ORANGE": 0.0,
        "rang_Te_ORANGE": 1,
        "rang_Te_MTN": 1,
        "rang_Te_MOOV": 1,
        "rang_Tc_ORANGE": 1,
        "rang_Tc_MTN": 1,
        "rang_Tc_MOOV": 1,
        "rang_Tbd_ORANGE": 1,
        "rang_Tbd_MTN": 2,
        "rang_Tbd_MOOV": 3,
        "rang_Tq_ORANGE": 1,
        "rang_Tq_MTN": 1,
        "rang_Tq_MOOV": 1
      },
      "id": 33
    },
    {
      "type": "Feature",
      "geometry": {
        "coordinates": [
          -5.19762,
          9.60226
        ],
        "type": "Point"
      },
      "properties": {
        "ADM0_FR": "SAVANES",
        "ADM0_PCODE": "CI11",
        "ADM1_FR": "TCHOLOGO",
        "ADM1_PCODE": "CI131",
        "ADM2_FR": "FERKESSEDOUGOU",
        "ADM2_PCODE": "CI3101",
        "ADM3_FR": "FERKESSEDOUGOU",
        "ADM3_PCODE": "CI310101",
        "ADM4_FR": "FERKESSÉDOUGOU",
        "ADM4_PCODE": "C2603",
        "centerLat": 9.59226,
        "centerLng": -5.19762,
        "pop": 55910,
        "Te_MOOV": 16.150000000000002,
        "Tbd_MOOV": 1.48,
        "Tc_MOOV": 2.96,
        "Tq_MOOV": 6.2,
        "Te_MTN": 2.9899999999999998,
        "Tbd_MTN": 79.63,
        "Tc_MTN": 1.23,
        "Tq_MTN": 0.0,
        "Te_ORANGE": 0.0,
        "Tbd_ORANGE": 84.0,
        "Tc_ORANGE": 0.5700000000000001,
        "Tq_ORANGE": 0.58,
        "rang_Te_ORANGE": 1,
        "rang_Te_MTN": 2,
        "rang_Te_MOOV": 3,
        "rang_Tc_ORANGE": 1,
        "rang_Tc_MTN": 2,
        "rang_Tc_MOOV": 3,
        "rang_Tbd_ORANGE": 1,
        "rang_Tbd_MTN": 2,
        "rang_Tbd_MOOV": 3,
        "rang_Tq_ORANGE": 2,
        "rang_Tq_MTN": 1,
        "rang_Tq_MOOV": 3
      },
      "id": 34
    },
    {
      "type": "Feature",
      "geometry": {
        "coordinates": [
          -5.06354,
          7.9925299999999995
        ],
        "type": "Point"
      },
      "properties": {
        "ADM0_FR": "VALLEE DU BANDAMA",
        "ADM0_PCODE": "CI12",
        "ADM1_FR": "HAMBOL",
        "ADM1_PCODE": "CI117",
        "ADM2_FR": "KATIOLA",
        "ADM2_PCODE": "CI1702",
        "ADM3_FR": "KATIOLA",
        "ADM3_PCODE": "CI170201",
        "ADM4_FR": "FORO-FORO",
        "ADM4_PCODE": "C2667",
        "centerLat": 7.98253,
        "centerLng": -5.06354,
        "pop": 1091,
        "Te_MOOV": 0.74,
        "Tbd_MOOV": 29.099999999999998,
        "Tc_MOOV": 0.0,
        "Tq_MOOV": 0.75,
        "Te_MTN": 0.0,
        "Tbd_MTN": 96.15,
        "Tc_MTN": 0.0,
        "Tq_MTN": 0.0,
        "Te_ORANGE": 27.560000000000002,
        "Tbd_ORANGE": 65.22,
        "Tc_ORANGE": 0.0,
        "Tq_ORANGE": 0.0,
        "rang_Te_ORANGE": 3,
        "rang_Te_MTN": 1,
        "rang_Te_MOOV": 2,
        "rang_Tc_ORANGE": 1,
        "rang_Tc_MTN": 1,
        "rang_Tc_MOOV": 1,
        "rang_Tbd_ORANGE": 2,
        "rang_Tbd_MTN": 1,
        "rang_Tbd_MOOV": 3,
        "rang_Tq_ORANGE": 1,
        "rang_Tq_MTN": 1,
        "rang_Tq_MOOV": 3
      },
      "id": 35
    },
    {
      "type": "Feature",
      "geometry": {
        "coordinates": [
          -5.58651,
          5.11559
        ],
        "type": "Point"
      },
      "properties": {
        "ADM0_FR": "BAS-SASSANDRA",
        "ADM0_PCODE": "CI01",
        "ADM1_FR": "GBOKLE",
        "ADM1_PCODE": "CI112",
        "ADM2_FR": "FRESCO",
        "ADM2_PCODE": "CI1201",
        "ADM3_FR": "FRESCO",
        "ADM3_PCODE": "CI120102",
        "ADM4_FR": "FRESCO",
        "ADM4_PCODE": "C2691",
        "centerLat": 5.10559,
        "centerLng": -5.58651,
        "pop": 8533,
        "Te_MOOV": 0.0,
        "Tbd_MOOV": 62.6,
        "Tc_MOOV": 0.0,
        "Tq_MOOV": 0.0,
        "Te_MTN": 1.54,
        "Tbd_MTN": 80.47,
        "Tc_MTN": 0.7799999999999999,
        "Tq_MTN": 0.0,
        "Te_ORANGE": 0.76,
        "Tbd_ORANGE": 95.38,
        "Tc_ORANGE": 0.0,
        "Tq_ORANGE": 0.0,
        "rang_Te_ORANGE": 2,
        "rang_Te_MTN": 3,
        "rang_Te_MOOV": 1,
        "rang_Tc_ORANGE": 1,
        "rang_Tc_MTN": 3,
        "rang_Tc_MOOV": 1,
        "rang_Tbd_ORANGE": 1,
        "rang_Tbd_MTN": 2,
        "rang_Tbd_MOOV": 3,
        "rang_Tq_ORANGE": 1,
        "rang_Tq_MTN": 1,
        "rang_Tq_MOOV": 1
      },
      "id": 36
    },
    {
      "type": "Feature",
      "geometry": {
        "coordinates": [
          -5.94436,
          6.13836
        ],
        "type": "Point"
      },
      "properties": {
        "ADM0_FR": "GOH-DJIBOUA",
        "ADM0_PCODE": "CI06",
        "ADM1_FR": "GOH",
        "ADM1_PCODE": "CI113",
        "ADM2_FR": "GAGNOA",
        "ADM2_PCODE": "CI1301",
        "ADM3_FR": "GAGNOA",
        "ADM3_PCODE": "CI130106",
        "ADM4_FR": "GAGNOA",
        "ADM4_PCODE": "C2707",
        "centerLat": 6.12836,
        "centerLng": -5.94436,
        "pop": 160465,
        "Te_MOOV": 0.5700000000000001,
        "Tbd_MOOV": 3.4099999999999997,
        "Tc_MOOV": 1.1400000000000001,
        "Tq_MOOV": 5.2,
        "Te_MTN": 0.0,
        "Tbd_MTN": 72.41,
        "Tc_MTN": 1.15,
        "Tq_MTN": 2.3800000000000003,
        "Te_ORANGE": 0.0,
        "Tbd_ORANGE": 96.59,
        "Tc_ORANGE": 0.0,
        "Tq_ORANGE": 0.0,
        "rang_Te_ORANGE": 1,
        "rang_Te_MTN": 1,
        "rang_Te_MOOV": 3,
        "rang_Tc_ORANGE": 1,
        "rang_Tc_MTN": 3,
        "rang_Tc_MOOV": 2,
        "rang_Tbd_ORANGE": 1,
        "rang_Tbd_MTN": 2,
        "rang_Tbd_MOOV": 3,
        "rang_Tq_ORANGE": 1,
        "rang_Tq_MTN": 2,
        "rang_Tq_MOOV": 3
      },
      "id": 37
    },
    {
      "type": "Feature",
      "geometry": {
        "coordinates": [
          -4.442165,
          5.734871
        ],
        "type": "Point"
      },
      "properties": {
        "ADM0_FR": "LAGUNES",
        "ADM0_PCODE": "CI08",
        "ADM1_FR": "AGNEBY-TIASSA",
        "ADM1_PCODE": "CI103",
        "ADM2_FR": "SIKENSI",
        "ADM2_PCODE": "CI0302",
        "ADM3_FR": "GOMON",
        "ADM3_PCODE": "CI030202",
        "ADM4_FR": "GOMON I",
        "ADM4_PCODE": "C3231",
        "centerLat": 5.724871,
        "centerLng": -4.442165,
        "pop": 9843,
        "Te_MOOV": 0.0,
        "Tbd_MOOV": 89.52,
        "Tc_MOOV": 0.0,
        "Tq_MOOV": 0.0,
        "Te_MTN": 0.0,
        "Tbd_MTN": 92.52,
        "Tc_MTN": 0.0,
        "Tq_MTN": 0.0,
        "Te_ORANGE": 2.78,
        "Tbd_ORANGE": 93.33,
        "Tc_ORANGE": 0.0,
        "Tq_ORANGE": 0.0,
        "rang_Te_ORANGE": 3,
        "rang_Te_MTN": 1,
        "rang_Te_MOOV": 1,
        "rang_Tc_ORANGE": 1,
        "rang_Tc_MTN": 1,
        "rang_Tc_MOOV": 1,
        "rang_Tbd_ORANGE": 1,
        "rang_Tbd_MTN": 2,
        "rang_Tbd_MOOV": 3,
        "rang_Tq_ORANGE": 1,
        "rang_Tq_MTN": 1,
        "rang_Tq_MOOV": 1
      },
      "id": 38
    },
    {
      "type": "Feature",
      "geometry": {
        "coordinates": [
          -5.00208,
          5.259189999999999
        ],
        "type": "Point"
      },
      "properties": {
        "ADM0_FR": "LAGUNES",
        "ADM0_PCODE": "CI08",
        "ADM1_FR": "GRANDS-PONTS",
        "ADM1_PCODE": "CI115",
        "ADM2_FR": "GRAND-LAHOU",
        "ADM2_PCODE": "CI1502",
        "ADM3_FR": "GRAND-LAHOU",
        "ADM3_PCODE": "CI150204",
        "ADM4_FR": "GRAND-LAHOU",
        "ADM4_PCODE": "C3376",
        "centerLat": 5.24919,
        "centerLng": -5.00208,
        "pop": 28470,
        "Te_MOOV": 0.5599999999999999,
        "Tbd_MOOV": 61.8,
        "Tc_MOOV": 1.1199999999999999,
        "Tq_MOOV": 2.8400000000000003,
        "Te_MTN": 0.5599999999999999,
        "Tbd_MTN": 84.27,
        "Tc_MTN": 1.1199999999999999,
        "Tq_MTN": 0.0,
        "Te_ORANGE": 0.0,
        "Tbd_ORANGE": 97.21,
        "Tc_ORANGE": 0.0,
        "Tq_ORANGE": 0.0,
        "rang_Te_ORANGE": 1,
        "rang_Te_MTN": 2,
        "rang_Te_MOOV": 2,
        "rang_Tc_ORANGE": 1,
        "rang_Tc_MTN": 2,
        "rang_Tc_MOOV": 2,
        "rang_Tbd_ORANGE": 1,
        "rang_Tbd_MTN": 2,
        "rang_Tbd_MOOV": 3,
        "rang_Tq_ORANGE": 1,
        "rang_Tq_MTN": 1,
        "rang_Tq_MOOV": 3
      },
      "id": 39
    },
    {
      "type": "Feature",
      "geometry": {
        "coordinates": [
          -7.48625,
          6.55472
        ],
        "type": "Point"
      },
      "properties": {
        "ADM0_FR": "MONTAGNES",
        "ADM0_PCODE": "CI09",
        "ADM1_FR": "CAVALLY",
        "ADM1_PCODE": "CI109",
        "ADM2_FR": "GUIGLO",
        "ADM2_PCODE": "CI0902",
        "ADM3_FR": "GUIGLO",
        "ADM3_PCODE": "CI090201",
        "ADM4_FR": "GUIGLO",
        "ADM4_PCODE": "C3495",
        "centerLat": 6.54472,
        "centerLng": -7.48625,
        "pop": 52544,
        "Te_MOOV": 2.56,
        "Tbd_MOOV": 0.0,
        "Tc_MOOV": 1.32,
        "Tq_MOOV": 44.06,
        "Te_MTN": 0.0,
        "Tbd_MTN": 82.39,
        "Tc_MTN": 0.0,
        "Tq_MTN": 0.63,
        "Te_ORANGE": 0.0,
        "Tbd_ORANGE": 89.87,
        "Tc_ORANGE": 0.0,
        "Tq_ORANGE": 0.0,
        "rang_Te_ORANGE": 1,
        "rang_Te_MTN": 1,
        "rang_Te_MOOV": 3,
        "rang_Tc_ORANGE": 1,
        "rang_Tc_MTN": 1,
        "rang_Tc_MOOV": 3,
        "rang_Tbd_ORANGE": 1,
        "rang_Tbd_MTN": 2,
        "rang_Tbd_MOOV": 3,
        "rang_Tq_ORANGE": 1,
        "rang_Tq_MTN": 2,
        "rang_Tq_MOOV": 3
      },
      "id": 40
    },
    {
      "type": "Feature",
      "geometry": {
        "coordinates": [
          -5.24131,
          5.52964
        ],
        "type": "Point"
      },
      "properties": {
        "ADM0_FR": "GOH-DJIBOUA",
        "ADM0_PCODE": "CI06",
        "ADM1_FR": "LOH-DJIBOUA",
        "ADM1_PCODE": "CI122",
        "ADM2_FR": "GUITRY",
        "ADM2_PCODE": "CI2202",
        "ADM3_FR": "GUITRY",
        "ADM3_PCODE": "CI220201",
        "ADM4_FR": "GUITRY",
        "ADM4_PCODE": "C3525",
        "centerLat": 5.51964,
        "centerLng": -5.24131,
        "pop": 11445,
        "Te_MOOV": 0.0,
        "Tbd_MOOV": 68.87,
        "Tc_MOOV": 0.0,
        "Tq_MOOV": 0.66,
        "Te_MTN": 1.32,
        "Tbd_MTN": 57.05,
        "Tc_MTN": 0.0,
        "Tq_MTN": 1.41,
        "Te_ORANGE": 0.0,
        "Tbd_ORANGE": 96.03,
        "Tc_ORANGE": 0.0,
        "Tq_ORANGE": 0.0,
        "rang_Te_ORANGE": 1,
        "rang_Te_MTN": 3,
        "rang_Te_MOOV": 1,
        "rang_Tc_ORANGE": 1,
        "rang_Tc_MTN": 1,
        "rang_Tc_MOOV": 1,
        "rang_Tbd_ORANGE": 1,
        "rang_Tbd_MTN": 3,
        "rang_Tbd_MOOV": 2,
        "rang_Tq_ORANGE": 1,
        "rang_Tq_MTN": 3,
        "rang_Tq_MOOV": 2
      },
      "id": 41
    },
    {
      "type": "Feature",
      "geometry": {
        "coordinates": [
          -4.41967,
          5.21547
        ],
        "type": "Point"
      },
      "properties": {
        "ADM0_FR": "LAGUNES",
        "ADM0_PCODE": "CI08",
        "ADM1_FR": "GRANDS-PONTS",
        "ADM1_PCODE": "CI115",
        "ADM2_FR": "JACQUEVILLE",
        "ADM2_PCODE": "CI1503",
        "ADM3_FR": "JACQUEVILLE",
        "ADM3_PCODE": "CI150301",
        "ADM4_FR": "JACQUEVILLE",
        "ADM4_PCODE": "C3604",
        "centerLat": 5.20547,
        "centerLng": -4.41967,
        "pop": 11096,
        "Te_MOOV": 0.0,
        "Tbd_MOOV": 66.31,
        "Tc_MOOV": 0.0,
        "Tq_MOOV": 0.0,
        "Te_MTN": 1.09,
        "Tbd_MTN": 75.27000000000001,
        "Tc_MTN": 2.1999999999999997,
        "Tq_MTN": 0.61,
        "Te_ORANGE": 0.0,
        "Tbd_ORANGE": 96.24000000000001,
        "Tc_ORANGE": 0.0,
        "Tq_ORANGE": 0.5499999999999999,
        "rang_Te_ORANGE": 1,
        "rang_Te_MTN": 3,
        "rang_Te_MOOV": 1,
        "rang_Tc_ORANGE": 1,
        "rang_Tc_MTN": 3,
        "rang_Tc_MOOV": 1,
        "rang_Tbd_ORANGE": 1,
        "rang_Tbd_MTN": 2,
        "rang_Tbd_MOOV": 3,
        "rang_Tq_ORANGE": 2,
        "rang_Tq_MTN": 3,
        "rang_Tq_MOOV": 1
      },
      "id": 42
    },
    {
      "type": "Feature",
      "geometry": {
        "coordinates": [
          -7.51257,
          9.826039999999999
        ],
        "type": "Point"
      },
      "properties": {
        "ADM0_FR": "DENGUELE",
        "ADM0_PCODE": "CI03",
        "ADM1_FR": "FOLON",
        "ADM1_PCODE": "CI110",
        "ADM2_FR": "KANIASSO",
        "ADM2_PCODE": "CI1001",
        "ADM3_FR": "KANIASSO",
        "ADM3_PCODE": "CI100102",
        "ADM4_FR": "KANIASSO",
        "ADM4_PCODE": "C3788",
        "centerLat": 9.81604,
        "centerLng": -7.51257,
        "pop": 2545,
        "Te_MOOV": 10.74,
        "Tbd_MOOV": 29.630000000000003,
        "Tc_MOOV": 2.78,
        "Tq_MOOV": 9.28,
        "Te_MTN": 0.8099999999999999,
        "Tbd_MTN": 68.85,
        "Tc_MTN": 0.0,
        "Tq_MTN": 0.8200000000000001,
        "Te_ORANGE": 0.0,
        "Tbd_ORANGE": 92.67999999999999,
        "Tc_ORANGE": 0.0,
        "Tq_ORANGE": 0.0,
        "rang_Te_ORANGE": 1,
        "rang_Te_MTN": 2,
        "rang_Te_MOOV": 3,
        "rang_Tc_ORANGE": 1,
        "rang_Tc_MTN": 1,
        "rang_Tc_MOOV": 3,
        "rang_Tbd_ORANGE": 1,
        "rang_Tbd_MTN": 2,
        "rang_Tbd_MOOV": 3,
        "rang_Tq_ORANGE": 1,
        "rang_Tq_MTN": 2,
        "rang_Tq_MOOV": 3
      },
      "id": 43
    },
    {
      "type": "Feature",
      "geometry": {
        "coordinates": [
          -6.60449,
          8.48952
        ],
        "type": "Point"
      },
      "properties": {
        "ADM0_FR": "WOROBA",
        "ADM0_PCODE": "CI13",
        "ADM1_FR": "WORODOUGOU",
        "ADM1_PCODE": "CI133",
        "ADM2_FR": "KANI",
        "ADM2_PCODE": "CI3301",
        "ADM3_FR": "KANI",
        "ADM3_PCODE": "CI330101",
        "ADM4_FR": "KANI",
        "ADM4_PCODE": "C3786",
        "centerLat": 8.47952,
        "centerLng": -6.60449,
        "pop": 8908,
        "Te_MOOV": 0.0,
        "Tbd_MOOV": 19.05,
        "Tc_MOOV": 0.0,
        "Tq_MOOV": 4.760000000000001,
        "Te_MTN": 0.0,
        "Tbd_MTN": 76.42,
        "Tc_MTN": 0.0,
        "Tq_MTN": 0.0,
        "Te_ORANGE": 0.0,
        "Tbd_ORANGE": 93.33,
        "Tc_ORANGE": 0.0,
        "Tq_ORANGE": 0.0,
        "rang_Te_ORANGE": 1,
        "rang_Te_MTN": 1,
        "rang_Te_MOOV": 1,
        "rang_Tc_ORANGE": 1,
        "rang_Tc_MTN": 1,
        "rang_Tc_MOOV": 1,
        "rang_Tbd_ORANGE": 1,
        "rang_Tbd_MTN": 2,
        "rang_Tbd_MOOV": 3,
        "rang_Tq_ORANGE": 1,
        "rang_Tq_MTN": 1,
        "rang_Tq_MOOV": 3
      },
      "id": 44
    },
    {
      "type": "Feature",
      "geometry": {
        "coordinates": [
          -5.10206,
          8.14861
        ],
        "type": "Point"
      },
      "properties": {
        "ADM0_FR": "VALLEE DU BANDAMA",
        "ADM0_PCODE": "CI12",
        "ADM1_FR": "HAMBOL",
        "ADM1_PCODE": "CI117",
        "ADM2_FR": "KATIOLA",
        "ADM2_PCODE": "CI1702",
        "ADM3_FR": "KATIOLA",
        "ADM3_PCODE": "CI170201",
        "ADM4_FR": "KATIOLA",
        "ADM4_PCODE": "C3915",
        "centerLat": 8.13861,
        "centerLng": -5.10206,
        "pop": 40319,
        "Te_MOOV": 0.0,
        "Tbd_MOOV": 11.32,
        "Tc_MOOV": 0.63,
        "Tq_MOOV": 7.049999999999999,
        "Te_MTN": 1.24,
        "Tbd_MTN": 80.5,
        "Tc_MTN": 0.63,
        "Tq_MTN": 1.27,
        "Te_ORANGE": 0.0,
        "Tbd_ORANGE": 96.27,
        "Tc_ORANGE": 0.0,
        "Tq_ORANGE": 0.0,
        "rang_Te_ORANGE": 1,
        "rang_Te_MTN": 3,
        "rang_Te_MOOV": 1,
        "rang_Tc_ORANGE": 1,
        "rang_Tc_MTN": 2,
        "rang_Tc_MOOV": 2,
        "rang_Tbd_ORANGE": 1,
        "rang_Tbd_MTN": 2,
        "rang_Tbd_MOOV": 3,
        "rang_Tq_ORANGE": 1,
        "rang_Tq_MTN": 2,
        "rang_Tq_MOOV": 3
      },
      "id": 45
    },
    {
      "type": "Feature",
      "geometry": {
        "coordinates": [
          -6.07949,
          7.825889999999999
        ],
        "type": "Point"
      },
      "properties": {
        "ADM0_FR": "WOROBA",
        "ADM0_PCODE": "CI13",
        "ADM1_FR": "BERE",
        "ADM1_PCODE": "CI107",
        "ADM2_FR": "KOUNAHIRI",
        "ADM2_PCODE": "CI0702",
        "ADM3_FR": "KONGASSO",
        "ADM3_PCODE": "CI070202",
        "ADM4_FR": "KONGASSO",
        "ADM4_PCODE": "C4327",
        "centerLat": 7.81589,
        "centerLng": -6.07949,
        "pop": 4714,
        "Te_MOOV": 0.0,
        "Tbd_MOOV": 8.41,
        "Tc_MOOV": 0.0,
        "Tq_MOOV": 5.609999999999999,
        "Te_MTN": 0.0,
        "Tbd_MTN": 97.2,
        "Tc_MTN": 0.0,
        "Tq_MTN": 0.0,
        "Te_ORANGE": 0.0,
        "Tbd_ORANGE": 100.0,
        "Tc_ORANGE": 0.0,
        "Tq_ORANGE": 0.9299999999999999,
        "rang_Te_ORANGE": 1,
        "rang_Te_MTN": 1,
        "rang_Te_MOOV": 1,
        "rang_Tc_ORANGE": 1,
        "rang_Tc_MTN": 1,
        "rang_Tc_MOOV": 1,
        "rang_Tbd_ORANGE": 1,
        "rang_Tbd_MTN": 2,
        "rang_Tbd_MOOV": 3,
        "rang_Tq_ORANGE": 2,
        "rang_Tq_MTN": 1,
        "rang_Tq_MOOV": 3
      },
      "id": 46
    },
    {
      "type": "Feature",
      "geometry": {
        "coordinates": [
          -5.6375,
          9.46799
        ],
        "type": "Point"
      },
      "properties": {
        "ADM0_FR": "SAVANES",
        "ADM0_PCODE": "CI11",
        "ADM1_FR": "PORO",
        "ADM1_PCODE": "CI128",
        "ADM2_FR": "KORHOGO",
        "ADM2_PCODE": "CI2802",
        "ADM3_FR": "KORHOGO",
        "ADM3_PCODE": "CI280201",
        "ADM4_FR": "KORHOGO",
        "ADM4_PCODE": "C4410",
        "centerLat": 9.45799,
        "centerLng": -5.6375,
        "pop": 243048,
        "Te_MOOV": 0.0,
        "Tbd_MOOV": 6.38,
        "Tc_MOOV": 1.4200000000000002,
        "Tq_MOOV": 3.26,
        "Te_MTN": 0.0,
        "Tbd_MTN": 84.75,
        "Tc_MTN": 0.7100000000000001,
        "Tq_MTN": 0.0,
        "Te_ORANGE": 0.0,
        "Tbd_ORANGE": 94.33,
        "Tc_ORANGE": 1.4200000000000002,
        "Tq_ORANGE": 0.0,
        "rang_Te_ORANGE": 1,
        "rang_Te_MTN": 1,
        "rang_Te_MOOV": 1,
        "rang_Tc_ORANGE": 2,
        "rang_Tc_MTN": 1,
        "rang_Tc_MOOV": 2,
        "rang_Tbd_ORANGE": 1,
        "rang_Tbd_MTN": 2,
        "rang_Tbd_MOOV": 3,
        "rang_Tq_ORANGE": 1,
        "rang_Tq_MTN": 1,
        "rang_Tq_MOOV": 3
      },
      "id": 47
    },
    {
      "type": "Feature",
      "geometry": {
        "coordinates": [
          -7.61,
          9.629999999999999
        ],
        "type": "Point"
      },
      "properties": {
        "ADM0_FR": "DENGUELE",
        "ADM0_PCODE": "CI03",
        "ADM1_FR": "KABADOUGOU",
        "ADM1_PCODE": "CI121",
        "ADM2_FR": "SAMATIGUILA",
        "ADM2_PCODE": "CI2104",
        "ADM3_FR": "KIMBIRILA-SUD",
        "ADM3_PCODE": "CI210402",
        "ADM4_FR": "KOTOUBA",
        "ADM4_PCODE": "C4479",
        "centerLat": 9.62,
        "centerLng": -7.61,
        "pop": 554,
        "Te_MOOV": 75.0,
        "Tbd_MOOV": 26.919999999999998,
        "Tc_MOOV": 7.6899999999999995,
        "Tq_MOOV": 12.5,
        "Te_MTN": 0.0,
        "Tbd_MTN": 92.45,
        "Tc_MTN": 0.0,
        "Tq_MTN": 1.92,
        "Te_ORANGE": 0.0,
        "Tbd_ORANGE": 86.79,
        "Tc_ORANGE": 0.0,
        "Tq_ORANGE": 0.0,
        "rang_Te_ORANGE": 1,
        "rang_Te_MTN": 1,
        "rang_Te_MOOV": 3,
        "rang_Tc_ORANGE": 1,
        "rang_Tc_MTN": 1,
        "rang_Tc_MOOV": 3,
        "rang_Tbd_ORANGE": 2,
        "rang_Tbd_MTN": 1,
        "rang_Tbd_MOOV": 3,
        "rang_Tq_ORANGE": 1,
        "rang_Tq_MTN": 2,
        "rang_Tq_MOOV": 3
      },
      "id": 48
    },
    {
      "type": "Feature",
      "geometry": {
        "coordinates": [
          -5.70343,
          6.2189499999999995
        ],
        "type": "Point"
      },
      "properties": {
        "ADM0_FR": "GOH-DJIBOUA",
        "ADM0_PCODE": "CI06",
        "ADM1_FR": "GOH",
        "ADM1_PCODE": "CI113",
        "ADM2_FR": "OUME",
        "ADM2_PCODE": "CI1302",
        "ADM3_FR": "DIEGONEFLA",
        "ADM3_PCODE": "CI130202",
        "ADM4_FR": "LAHOUDA",
        "ADM4_PCODE": "C4967",
        "centerLat": 6.20895,
        "centerLng": -5.70343,
        "pop": 5454,
        "Te_MOOV": 0.0,
        "Tbd_MOOV": 18.099999999999998,
        "Tc_MOOV": 0.0,
        "Tq_MOOV": 0.0,
        "Te_MTN": 0.0,
        "Tbd_MTN": 97.14,
        "Tc_MTN": 0.95,
        "Tq_MTN": 0.0,
        "Te_ORANGE": 0.0,
        "Tbd_ORANGE": 99.05000000000001,
        "Tc_ORANGE": 0.0,
        "Tq_ORANGE": 0.0,
        "rang_Te_ORANGE": 1,
        "rang_Te_MTN": 1,
        "rang_Te_MOOV": 1,
        "rang_Tc_ORANGE": 1,
        "rang_Tc_MTN": 3,
        "rang_Tc_MOOV": 1,
        "rang_Tbd_ORANGE": 1,
        "rang_Tbd_MTN": 2,
        "rang_Tbd_MOOV": 3,
        "rang_Tq_ORANGE": 1,
        "rang_Tq_MTN": 1,
        "rang_Tq_MOOV": 1
      },
      "id": 49
    },
    {
      "type": "Feature",
      "geometry": {
        "coordinates": [
          -5.68383,
          5.85907
        ],
        "type": "Point"
      },
      "properties": {
        "ADM0_FR": "GOH-DJIBOUA",
        "ADM0_PCODE": "CI06",
        "ADM1_FR": "LOH-DJIBOUA",
        "ADM1_PCODE": "CI122",
        "ADM2_FR": "LAKOTA",
        "ADM2_PCODE": "CI2203",
        "ADM3_FR": "LAKOTA",
        "ADM3_PCODE": "CI220301",
        "ADM4_FR": "LAKOTA",
        "ADM4_PCODE": "C4974",
        "centerLat": 5.84907,
        "centerLng": -5.68383,
        "pop": 24976,
        "Te_MOOV": 0.5599999999999999,
        "Tbd_MOOV": 62.36000000000001,
        "Tc_MOOV": 1.1199999999999999,
        "Tq_MOOV": 0.0,
        "Te_MTN": 0.0,
        "Tbd_MTN": 64.29,
        "Tc_MTN": 0.0,
        "Tq_MTN": 0.0,
        "Te_ORANGE": 0.5499999999999999,
        "Tbd_ORANGE": 95.03,
        "Tc_ORANGE": 0.0,
        "Tq_ORANGE": 0.0,
        "rang_Te_ORANGE": 2,
        "rang_Te_MTN": 1,
        "rang_Te_MOOV": 3,
        "rang_Tc_ORANGE": 1,
        "rang_Tc_MTN": 1,
        "rang_Tc_MOOV": 3,
        "rang_Tbd_ORANGE": 1,
        "rang_Tbd_MTN": 2,
        "rang_Tbd_MOOV": 3,
        "rang_Tq_ORANGE": 1,
        "rang_Tq_MTN": 1,
        "rang_Tq_MOOV": 1
      },
      "id": 50
    },
    {
      "type": "Feature",
      "geometry": {
        "coordinates": [
          -3.03,
          5.43
        ],
        "type": "Point"
      },
      "properties": {
        "ADM0_FR": "COMOE",
        "ADM0_PCODE": "CI02",
        "ADM1_FR": "SUD-COMOE",
        "ADM1_PCODE": "CI130",
        "ADM2_FR": "ABOISSO",
        "ADM2_PCODE": "CI3001",
        "ADM3_FR": "MAFERE",
        "ADM3_PCODE": "CI300107",
        "ADM4_FR": "MAFÉRÉ",
        "ADM4_PCODE": "C5260",
        "centerLat": 5.42,
        "centerLng": -3.03,
        "pop": 13121,
        "Te_MOOV": 0.0,
        "Tbd_MOOV": 87.74,
        "Tc_MOOV": 0.0,
        "Tq_MOOV": 74.53,
        "Te_MTN": 0.95,
        "Tbd_MTN": 75.96000000000001,
        "Tc_MTN": 1.92,
        "Tq_MTN": 10.89,
        "Te_ORANGE": 4.760000000000001,
        "Tbd_ORANGE": 81.0,
        "Tc_ORANGE": 2.0,
        "Tq_ORANGE": 0.0,
        "rang_Te_ORANGE": 3,
        "rang_Te_MTN": 2,
        "rang_Te_MOOV": 1,
        "rang_Tc_ORANGE": 3,
        "rang_Tc_MTN": 2,
        "rang_Tc_MOOV": 1,
        "rang_Tbd_ORANGE": 2,
        "rang_Tbd_MTN": 3,
        "rang_Tbd_MOOV": 1,
        "rang_Tq_ORANGE": 1,
        "rang_Tq_MTN": 2,
        "rang_Tq_MOOV": 3
      },
      "id": 51
    },
    {
      "type": "Feature",
      "geometry": {
        "coordinates": [
          -7.55442,
          7.41545
        ],
        "type": "Point"
      },
      "properties": {
        "ADM0_FR": "MONTAGNES",
        "ADM0_PCODE": "CI09",
        "ADM1_FR": "TONKPI",
        "ADM1_PCODE": "CI132",
        "ADM2_FR": "MAN",
        "ADM2_PCODE": "CI3203",
        "ADM3_FR": "MAN",
        "ADM3_PCODE": "CI320301",
        "ADM4_FR": "MAN",
        "ADM4_PCODE": "C5323",
        "centerLat": 7.40545,
        "centerLng": -7.55442,
        "pop": 149041,
        "Te_MOOV": 0.7000000000000001,
        "Tbd_MOOV": 12.72,
        "Tc_MOOV": 4.24,
        "Tq_MOOV": 6.419999999999999,
        "Te_MTN": 0.35000000000000003,
        "Tbd_MTN": 86.71,
        "Tc_MTN": 0.0,
        "Tq_MTN": 2.19,
        "Te_ORANGE": 1.7500000000000002,
        "Tbd_ORANGE": 93.24,
        "Tc_ORANGE": 0.0,
        "Tq_ORANGE": 0.36,
        "rang_Te_ORANGE": 3,
        "rang_Te_MTN": 1,
        "rang_Te_MOOV": 2,
        "rang_Tc_ORANGE": 1,
        "rang_Tc_MTN": 1,
        "rang_Tc_MOOV": 3,
        "rang_Tbd_ORANGE": 1,
        "rang_Tbd_MTN": 2,
        "rang_Tbd_MOOV": 3,
        "rang_Tq_ORANGE": 1,
        "rang_Tq_MTN": 2,
        "rang_Tq_MOOV": 3
      },
      "id": 52
    },
    {
      "type": "Feature",
      "geometry": {
        "coordinates": [
          -4.34,
          7.47
        ],
        "type": "Point"
      },
      "properties": {
        "ADM0_FR": "LACS",
        "ADM0_PCODE": "CI07",
        "ADM1_FR": "IFFOU",
        "ADM1_PCODE": "CI119",
        "ADM2_FR": "M'BAHIAKRO",
        "ADM2_PCODE": "CI1902",
        "ADM3_FR": "M'BAHIAKRO",
        "ADM3_PCODE": "CI190201",
        "ADM4_FR": "M'BAHIAKRO",
        "ADM4_PCODE": "C5412",
        "centerLat": 7.46,
        "centerLng": -4.34,
        "pop": 14894,
        "Te_MOOV": 0.0,
        "Tbd_MOOV": 92.35,
        "Tc_MOOV": 0.0,
        "Tq_MOOV": 0.66,
        "Te_MTN": 0.0,
        "Tbd_MTN": 80.33,
        "Tc_MTN": 0.0,
        "Tq_MTN": 0.0,
        "Te_ORANGE": 0.0,
        "Tbd_ORANGE": 97.81,
        "Tc_ORANGE": 0.0,
        "Tq_ORANGE": 0.0,
        "rang_Te_ORANGE": 1,
        "rang_Te_MTN": 1,
        "rang_Te_MOOV": 1,
        "rang_Tc_ORANGE": 1,
        "rang_Tc_MTN": 1,
        "rang_Tc_MOOV": 1,
        "rang_Tbd_ORANGE": 1,
        "rang_Tbd_MTN": 3,
        "rang_Tbd_MOOV": 2,
        "rang_Tq_ORANGE": 1,
        "rang_Tq_MTN": 1,
        "rang_Tq_MOOV": 3
      },
      "id": 53
    },
    {
      "type": "Feature",
      "geometry": {
        "coordinates": [
          -4.9718,
          6.3315399999999995
        ],
        "type": "Point"
      },
      "properties": {
        "ADM0_FR": "LACS",
        "ADM0_PCODE": "CI07",
        "ADM1_FR": "BELIER",
        "ADM1_PCODE": "CI106",
        "ADM2_FR": "TOUMODI",
        "ADM2_PCODE": "CI0604",
        "ADM3_FR": "KPOUEBO",
        "ADM3_PCODE": "CI060404",
        "ADM4_FR": "MORONOU",
        "ADM4_PCODE": "C5589",
        "centerLat": 6.32154,
        "centerLng": -4.9718,
        "pop": 4642,
        "Te_MOOV": 0.0,
        "Tbd_MOOV": 30.630000000000003,
        "Tc_MOOV": 0.8999999999999999,
        "Tq_MOOV": 0.0,
        "Te_MTN": 0.0,
        "Tbd_MTN": 95.5,
        "Tc_MTN": 0.0,
        "Tq_MTN": 0.0,
        "Te_ORANGE": 13.639999999999999,
        "Tbd_ORANGE": 76.84,
        "Tc_ORANGE": 0.0,
        "Tq_ORANGE": 0.0,
        "rang_Te_ORANGE": 3,
        "rang_Te_MTN": 1,
        "rang_Te_MOOV": 1,
        "rang_Tc_ORANGE": 1,
        "rang_Tc_MTN": 1,
        "rang_Tc_MOOV": 3,
        "rang_Tbd_ORANGE": 2,
        "rang_Tbd_MTN": 1,
        "rang_Tbd_MOOV": 3,
        "rang_Tq_ORANGE": 1,
        "rang_Tq_MTN": 1,
        "rang_Tq_MOOV": 1
      },
      "id": 54
    },
    {
      "type": "Feature",
      "geometry": {
        "coordinates": [
          -4.76,
          5.88
        ],
        "type": "Point"
      },
      "properties": {
        "ADM0_FR": "LAGUNES",
        "ADM0_PCODE": "CI08",
        "ADM1_FR": "AGNEBY-TIASSA",
        "ADM1_PCODE": "CI103",
        "ADM2_FR": "TIASSALE",
        "ADM2_PCODE": "CI0304",
        "ADM3_FR": "N'DOUCI",
        "ADM3_PCODE": "CI030404",
        "ADM4_FR": "N'DOUCI",
        "ADM4_PCODE": "C5846",
        "centerLat": 5.87,
        "centerLng": -4.76,
        "pop": 27112,
        "Te_MOOV": 0.0,
        "Tbd_MOOV": 12.5,
        "Tc_MOOV": 0.89,
        "Tq_MOOV": 69.37,
        "Te_MTN": 0.0,
        "Tbd_MTN": 62.5,
        "Tc_MTN": 0.0,
        "Tq_MTN": 2.7,
        "Te_ORANGE": 0.0,
        "Tbd_ORANGE": 98.21,
        "Tc_ORANGE": 0.0,
        "Tq_ORANGE": 0.0,
        "rang_Te_ORANGE": 1,
        "rang_Te_MTN": 1,
        "rang_Te_MOOV": 1,
        "rang_Tc_ORANGE": 1,
        "rang_Tc_MTN": 1,
        "rang_Tc_MOOV": 3,
        "rang_Tbd_ORANGE": 1,
        "rang_Tbd_MTN": 2,
        "rang_Tbd_MOOV": 3,
        "rang_Tq_ORANGE": 1,
        "rang_Tq_MTN": 2,
        "rang_Tq_MOOV": 3
      },
      "id": 55
    },
    {
      "type": "Feature",
      "geometry": {
        "coordinates": [
          -7.56213,
          9.516869999999999
        ],
        "type": "Point"
      },
      "properties": {
        "ADM0_FR": "DENGUELE",
        "ADM0_PCODE": "CI03",
        "ADM1_FR": "KABADOUGOU",
        "ADM1_PCODE": "CI121",
        "ADM2_FR": "ODIENNE",
        "ADM2_PCODE": "CI2103",
        "ADM3_FR": "ODIENNE",
        "ADM3_PCODE": "CI210301",
        "ADM4_FR": "ODIENNE",
        "ADM4_PCODE": "C6210",
        "centerLat": 9.50687,
        "centerLng": -7.56213,
        "pop": 42173,
        "Te_MOOV": 0.0,
        "Tbd_MOOV": 17.01,
        "Tc_MOOV": 0.0,
        "Tq_MOOV": 2.07,
        "Te_MTN": 0.0,
        "Tbd_MTN": 65.31,
        "Tc_MTN": 0.0,
        "Tq_MTN": 0.0,
        "Te_ORANGE": 0.0,
        "Tbd_ORANGE": 97.96000000000001,
        "Tc_ORANGE": 0.0,
        "Tq_ORANGE": 0.0,
        "rang_Te_ORANGE": 1,
        "rang_Te_MTN": 1,
        "rang_Te_MOOV": 1,
        "rang_Tc_ORANGE": 1,
        "rang_Tc_MTN": 1,
        "rang_Tc_MOOV": 1,
        "rang_Tbd_ORANGE": 1,
        "rang_Tbd_MTN": 2,
        "rang_Tbd_MOOV": 3,
        "rang_Tq_ORANGE": 1,
        "rang_Tq_MTN": 1,
        "rang_Tq_MOOV": 3
      },
      "id": 56
    },
    {
      "type": "Feature",
      "geometry": {
        "coordinates": [
          -5.41528,
          6.3934999999999995
        ],
        "type": "Point"
      },
      "properties": {
        "ADM0_FR": "GOH-DJIBOUA",
        "ADM0_PCODE": "CI06",
        "ADM1_FR": "GOH",
        "ADM1_PCODE": "CI113",
        "ADM2_FR": "OUME",
        "ADM2_PCODE": "CI1302",
        "ADM3_FR": "OUME",
        "ADM3_PCODE": "CI130201",
        "ADM4_FR": "OUMÉ",
        "ADM4_PCODE": "C6363",
        "centerLat": 6.3835,
        "centerLng": -5.41528,
        "pop": 45210,
        "Te_MOOV": 1.6,
        "Tbd_MOOV": 4.07,
        "Tc_MOOV": 0.8099999999999999,
        "Tq_MOOV": 8.33,
        "Te_MTN": 0.0,
        "Tbd_MTN": 82.69,
        "Tc_MTN": 0.0,
        "Tq_MTN": 0.0,
        "Te_ORANGE": 0.64,
        "Tbd_ORANGE": 92.25999999999999,
        "Tc_ORANGE": 0.0,
        "Tq_ORANGE": 1.95,
        "rang_Te_ORANGE": 2,
        "rang_Te_MTN": 1,
        "rang_Te_MOOV": 3,
        "rang_Tc_ORANGE": 1,
        "rang_Tc_MTN": 1,
        "rang_Tc_MOOV": 3,
        "rang_Tbd_ORANGE": 1,
        "rang_Tbd_MTN": 2,
        "rang_Tbd_MOOV": 3,
        "rang_Tq_ORANGE": 2,
        "rang_Tq_MTN": 1,
        "rang_Tq_MOOV": 3
      },
      "id": 57
    },
    {
      "type": "Feature",
      "geometry": {
        "coordinates": [
          -6.59,
          5.58
        ],
        "type": "Point"
      },
      "properties": {
        "ADM0_FR": "BAS-SASSANDRA",
        "ADM0_PCODE": "CI01",
        "ADM1_FR": "NAWA",
        "ADM1_PCODE": "CI126",
        "ADM2_FR": "MEAGUI",
        "ADM2_PCODE": "CI2603",
        "ADM3_FR": "OUPOYO",
        "ADM3_PCODE": "CI260302",
        "ADM4_FR": "OUPOYO",
        "ADM4_PCODE": "C6379",
        "centerLat": 5.57,
        "centerLng": -6.59,
        "pop": 18386,
        "Te_MOOV": 0.9400000000000001,
        "Tbd_MOOV": 18.099999999999998,
        "Tc_MOOV": 0.95,
        "Tq_MOOV": 1.92,
        "Te_MTN": 1.82,
        "Tbd_MTN": 78.7,
        "Tc_MTN": 4.63,
        "Tq_MTN": 3.0,
        "Te_ORANGE": 0.9400000000000001,
        "Tbd_ORANGE": 91.43,
        "Tc_ORANGE": 0.0,
        "Tq_ORANGE": 0.0,
        "rang_Te_ORANGE": 1,
        "rang_Te_MTN": 3,
        "rang_Te_MOOV": 1,
        "rang_Tc_ORANGE": 1,
        "rang_Tc_MTN": 3,
        "rang_Tc_MOOV": 2,
        "rang_Tbd_ORANGE": 1,
        "rang_Tbd_MTN": 2,
        "rang_Tbd_MOOV": 3,
        "rang_Tq_ORANGE": 1,
        "rang_Tq_MTN": 3,
        "rang_Tq_MOOV": 2
      },
      "id": 58
    },
    {
      "type": "Feature",
      "geometry": {
        "coordinates": [
          -4.79408,
          7.6456599999999995
        ],
        "type": "Point"
      },
      "properties": {
        "ADM0_FR": "VALLEE DU BANDAMA",
        "ADM0_PCODE": "CI12",
        "ADM1_FR": "GBEKE",
        "ADM1_PCODE": "CI111",
        "ADM2_FR": "BOUAKE",
        "ADM2_PCODE": "CI1103",
        "ADM3_FR": "BROBO",
        "ADM3_PCODE": "CI110303",
        "ADM4_FR": "PRIKRO",
        "ADM4_PCODE": "C6643",
        "centerLat": 7.63566,
        "centerLng": -4.79408,
        "pop": 257,
        "Te_MOOV": 0.0,
        "Tbd_MOOV": 60.629999999999995,
        "Tc_MOOV": 1.25,
        "Tq_MOOV": 0.0,
        "Te_MTN": 0.0,
        "Tbd_MTN": 95.63000000000001,
        "Tc_MTN": 0.63,
        "Tq_MTN": 0.0,
        "Te_ORANGE": 0.63,
        "Tbd_ORANGE": 97.48,
        "Tc_ORANGE": 0.0,
        "Tq_ORANGE": 0.0,
        "rang_Te_ORANGE": 3,
        "rang_Te_MTN": 1,
        "rang_Te_MOOV": 1,
        "rang_Tc_ORANGE": 1,
        "rang_Tc_MTN": 2,
        "rang_Tc_MOOV": 3,
        "rang_Tbd_ORANGE": 1,
        "rang_Tbd_MTN": 2,
        "rang_Tbd_MOOV": 3,
        "rang_Tq_ORANGE": 1,
        "rang_Tq_MTN": 1,
        "rang_Tq_MOOV": 1
      },
      "id": 59
    },
    {
      "type": "Feature",
      "geometry": {
        "coordinates": [
          -5.29194,
          7.4658
        ],
        "type": "Point"
      },
      "properties": {
        "ADM0_FR": "VALLEE DU BANDAMA",
        "ADM0_PCODE": "CI12",
        "ADM1_FR": "GBEKE",
        "ADM1_PCODE": "CI111",
        "ADM2_FR": "SAKASSOU",
        "ADM2_PCODE": "CI1104",
        "ADM3_FR": "SAKASSOU",
        "ADM3_PCODE": "CI110401",
        "ADM4_FR": "SAKASSOU",
        "ADM4_PCODE": "C6712",
        "centerLat": 7.4558,
        "centerLng": -5.29194,
        "pop": 13186,
        "Te_MOOV": 0.65,
        "Tbd_MOOV": 39.87,
        "Tc_MOOV": 0.0,
        "Tq_MOOV": 5.3,
        "Te_MTN": 3.92,
        "Tbd_MTN": 80.95,
        "Tc_MTN": 2.04,
        "Tq_MTN": 0.0,
        "Te_ORANGE": 0.0,
        "Tbd_ORANGE": 88.96,
        "Tc_ORANGE": 0.0,
        "Tq_ORANGE": 0.0,
        "rang_Te_ORANGE": 1,
        "rang_Te_MTN": 3,
        "rang_Te_MOOV": 2,
        "rang_Tc_ORANGE": 1,
        "rang_Tc_MTN": 3,
        "rang_Tc_MOOV": 1,
        "rang_Tbd_ORANGE": 1,
        "rang_Tbd_MTN": 2,
        "rang_Tbd_MOOV": 3,
        "rang_Tq_ORANGE": 1,
        "rang_Tq_MTN": 1,
        "rang_Tq_MOOV": 3
      },
      "id": 60
    },
    {
      "type": "Feature",
      "geometry": {
        "coordinates": [
          -6.61973,
          4.7480899999999995
        ],
        "type": "Point"
      },
      "properties": {
        "ADM0_FR": "BAS-SASSANDRA",
        "ADM0_PCODE": "CI01",
        "ADM1_FR": "SAN-PEDRO",
        "ADM1_PCODE": "CI129",
        "ADM2_FR": "SAN-PEDRO",
        "ADM2_PCODE": "CI2901",
        "ADM3_FR": "SAN-PEDRO",
        "ADM3_PCODE": "CI290101",
        "ADM4_FR": "SAN-PEDRO",
        "ADM4_PCODE": "C6807",
        "centerLat": 4.73809,
        "centerLng": -6.61973,
        "pop": 164944,
        "Te_MOOV": 0.0,
        "Tbd_MOOV": 58.96,
        "Tc_MOOV": 0.0,
        "Tq_MOOV": 0.0,
        "Te_MTN": 0.0,
        "Tbd_MTN": 77.9,
        "Tc_MTN": 0.0,
        "Tq_MTN": 0.7799999999999999,
        "Te_ORANGE": 0.38,
        "Tbd_ORANGE": 97.71,
        "Tc_ORANGE": 0.38,
        "Tq_ORANGE": 0.38999999999999996,
        "rang_Te_ORANGE": 3,
        "rang_Te_MTN": 1,
        "rang_Te_MOOV": 1,
        "rang_Tc_ORANGE": 3,
        "rang_Tc_MTN": 1,
        "rang_Tc_MOOV": 1,
        "rang_Tbd_ORANGE": 1,
        "rang_Tbd_MTN": 2,
        "rang_Tbd_MOOV": 3,
        "rang_Tq_ORANGE": 2,
        "rang_Tq_MTN": 3,
        "rang_Tq_MOOV": 1
      },
      "id": 61
    },
    {
      "type": "Feature",
      "geometry": {
        "coordinates": [
          -6.67313,
          7.97253
        ],
        "type": "Point"
      },
      "properties": {
        "ADM0_FR": "WOROBA",
        "ADM0_PCODE": "CI13",
        "ADM1_FR": "WORODOUGOU",
        "ADM1_PCODE": "CI133",
        "ADM2_FR": "SEGUELA",
        "ADM2_PCODE": "CI3302",
        "ADM3_FR": "SEGUELA",
        "ADM3_PCODE": "CI330201",
        "ADM4_FR": "SÉGUÉLA",
        "ADM4_PCODE": "C6882",
        "centerLat": 7.96253,
        "centerLng": -6.67313,
        "pop": 46189,
        "Te_MOOV": 0.0,
        "Tbd_MOOV": 47.19,
        "Tc_MOOV": 0.0,
        "Tq_MOOV": 12.989999999999998,
        "Te_MTN": 0.0,
        "Tbd_MTN": 65.73,
        "Tc_MTN": 0.0,
        "Tq_MTN": 2.91,
        "Te_ORANGE": 1.1199999999999999,
        "Tbd_ORANGE": 93.17999999999999,
        "Tc_ORANGE": 0.0,
        "Tq_ORANGE": 0.0,
        "rang_Te_ORANGE": 3,
        "rang_Te_MTN": 1,
        "rang_Te_MOOV": 1,
        "rang_Tc_ORANGE": 1,
        "rang_Tc_MTN": 1,
        "rang_Tc_MOOV": 1,
        "rang_Tbd_ORANGE": 1,
        "rang_Tbd_MTN": 2,
        "rang_Tbd_MOOV": 3,
        "rang_Tq_ORANGE": 1,
        "rang_Tq_MTN": 2,
        "rang_Tq_MOOV": 3
      },
      "id": 62
    },
    {
      "type": "Feature",
      "geometry": {
        "coordinates": [
          -6.92876,
          7.99425
        ],
        "type": "Point"
      },
      "properties": {
        "ADM0_FR": "WOROBA",
        "ADM0_PCODE": "CI13",
        "ADM1_FR": "WORODOUGOU",
        "ADM1_PCODE": "CI133",
        "ADM2_FR": "SEGUELA",
        "ADM2_PCODE": "CI3302",
        "ADM3_FR": "SIFIE",
        "ADM3_PCODE": "CI330206",
        "ADM4_FR": "SIFIÉ",
        "ADM4_PCODE": "C7012",
        "centerLat": 7.98425,
        "centerLng": -6.92876,
        "pop": 3142,
        "Te_MOOV": 0.0,
        "Tbd_MOOV": 23.849999999999998,
        "Tc_MOOV": 0.0,
        "Tq_MOOV": 2.8000000000000003,
        "Te_MTN": 1.83,
        "Tbd_MTN": 69.44,
        "Tc_MTN": 0.0,
        "Tq_MTN": 0.0,
        "Te_ORANGE": 0.0,
        "Tbd_ORANGE": 97.25,
        "Tc_ORANGE": 0.0,
        "Tq_ORANGE": 1.83,
        "rang_Te_ORANGE": 1,
        "rang_Te_MTN": 3,
        "rang_Te_MOOV": 1,
        "rang_Tc_ORANGE": 1,
        "rang_Tc_MTN": 1,
        "rang_Tc_MOOV": 1,
        "rang_Tbd_ORANGE": 1,
        "rang_Tbd_MTN": 2,
        "rang_Tbd_MOOV": 3,
        "rang_Tq_ORANGE": 2,
        "rang_Tq_MTN": 1,
        "rang_Tq_MOOV": 3
      },
      "id": 63
    },
    {
      "type": "Feature",
      "geometry": {
        "coordinates": [
          -6.59,
          5.79
        ],
        "type": "Point"
      },
      "properties": {
        "ADM0_FR": "COMOE",
        "ADM0_PCODE": "CI02",
        "ADM1_FR": "SUD-COMOE",
        "ADM1_PCODE": "CI130",
        "ADM2_FR": "ABOISSO",
        "ADM2_PCODE": "CI3001",
        "ADM3_FR": "BIANOUAN",
        "ADM3_PCODE": "CI300105",
        "ADM4_FR": "SOUBRÉ",
        "ADM4_PCODE": "C7241",
        "centerLat": 5.78,
        "centerLng": -6.59,
        "pop": 1421,
        "Te_MOOV": 0.42,
        "Tbd_MOOV": 5.0200000000000005,
        "Tc_MOOV": 0.84,
        "Tq_MOOV": 8.44,
        "Te_MTN": 0.83,
        "Tbd_MTN": 82.35,
        "Tc_MTN": 0.0,
        "Tq_MTN": 0.8500000000000001,
        "Te_ORANGE": 0.42,
        "Tbd_ORANGE": 92.83,
        "Tc_ORANGE": 0.0,
        "Tq_ORANGE": 0.0,
        "rang_Te_ORANGE": 1,
        "rang_Te_MTN": 3,
        "rang_Te_MOOV": 1,
        "rang_Tc_ORANGE": 1,
        "rang_Tc_MTN": 1,
        "rang_Tc_MOOV": 3,
        "rang_Tbd_ORANGE": 1,
        "rang_Tbd_MTN": 2,
        "rang_Tbd_MOOV": 3,
        "rang_Tq_ORANGE": 1,
        "rang_Tq_MTN": 2,
        "rang_Tq_MOOV": 3
      },
      "id": 64
    },
    {
      "type": "Feature",
      "geometry": {
        "coordinates": [
          -5.16212,
          9.08022
        ],
        "type": "Point"
      },
      "properties": {
        "ADM0_FR": "VALLEE DU BANDAMA",
        "ADM0_PCODE": "CI12",
        "ADM1_FR": "HAMBOL",
        "ADM1_PCODE": "CI117",
        "ADM2_FR": "NIAKARAMADOUGOU",
        "ADM2_PCODE": "CI1703",
        "ADM3_FR": "TAFIRE",
        "ADM3_PCODE": "CI170305",
        "ADM4_FR": "TAFIRE",
        "ADM4_PCODE": "C7314",
        "centerLat": 9.07022,
        "centerLng": -5.16212,
        "pop": 17191,
        "Te_MOOV": 0.0,
        "Tbd_MOOV": 25.71,
        "Tc_MOOV": 0.95,
        "Tq_MOOV": 0.0,
        "Te_MTN": 0.0,
        "Tbd_MTN": 90.48,
        "Tc_MTN": 0.95,
        "Tq_MTN": 0.0,
        "Te_ORANGE": 1.9,
        "Tbd_ORANGE": 94.17,
        "Tc_ORANGE": 0.0,
        "Tq_ORANGE": 0.0,
        "rang_Te_ORANGE": 3,
        "rang_Te_MTN": 1,
        "rang_Te_MOOV": 1,
        "rang_Tc_ORANGE": 1,
        "rang_Tc_MTN": 2,
        "rang_Tc_MOOV": 2,
        "rang_Tbd_ORANGE": 1,
        "rang_Tbd_MTN": 2,
        "rang_Tbd_MOOV": 3,
        "rang_Tq_ORANGE": 1,
        "rang_Tq_MTN": 1,
        "rang_Tq_MOOV": 1
      },
      "id": 65
    },
    {
      "type": "Feature",
      "geometry": {
        "coordinates": [
          -4.66225,
          7.72436
        ],
        "type": "Point"
      },
      "properties": {
        "ADM0_FR": "LACS",
        "ADM0_PCODE": "CI07",
        "ADM1_FR": "BELIER",
        "ADM1_PCODE": "CI106",
        "ADM2_FR": "TIEBISSOU",
        "ADM2_PCODE": "CI0603",
        "ADM3_FR": "TIEBISSOU",
        "ADM3_PCODE": "CI060301",
        "ADM4_FR": "TIÉBISSOU",
        "ADM4_PCODE": "C7574",
        "centerLat": 7.71436,
        "centerLng": -4.66225,
        "pop": 18832,
        "Te_MOOV": 0.0,
        "Tbd_MOOV": 25.569999999999997,
        "Tc_MOOV": 1.1400000000000001,
        "Tq_MOOV": 0.0,
        "Te_MTN": 0.5700000000000001,
        "Tbd_MTN": 92.0,
        "Tc_MTN": 0.5700000000000001,
        "Tq_MTN": 0.0,
        "Te_ORANGE": 0.0,
        "Tbd_ORANGE": 98.3,
        "Tc_ORANGE": 0.0,
        "Tq_ORANGE": 0.0,
        "rang_Te_ORANGE": 1,
        "rang_Te_MTN": 3,
        "rang_Te_MOOV": 1,
        "rang_Tc_ORANGE": 1,
        "rang_Tc_MTN": 2,
        "rang_Tc_MOOV": 3,
        "rang_Tbd_ORANGE": 1,
        "rang_Tbd_MTN": 2,
        "rang_Tbd_MOOV": 3,
        "rang_Tq_ORANGE": 1,
        "rang_Tq_MTN": 1,
        "rang_Tq_MOOV": 1
      },
      "id": 66
    },
    {
      "type": "Feature",
      "geometry": {
        "coordinates": [
          -7.31834,
          9.55501
        ],
        "type": "Point"
      },
      "properties": {
        "ADM0_FR": "DENGUELE",
        "ADM0_PCODE": "CI03",
        "ADM1_FR": "KABADOUGOU",
        "ADM1_PCODE": "CI121",
        "ADM2_FR": "ODIENNE",
        "ADM2_PCODE": "CI2103",
        "ADM3_FR": "TIEME",
        "ADM3_PCODE": "CI210305",
        "ADM4_FR": "TIEME",
        "ADM4_PCODE": "C7613",
        "centerLat": 9.54501,
        "centerLng": -7.31834,
        "pop": 6267,
        "Te_MOOV": 0.0,
        "Tbd_MOOV": 30.48,
        "Tc_MOOV": 0.0,
        "Tq_MOOV": 0.95,
        "Te_MTN": 0.95,
        "Tbd_MTN": 71.15,
        "Tc_MTN": 0.0,
        "Tq_MTN": 2.88,
        "Te_ORANGE": 13.33,
        "Tbd_ORANGE": 87.91,
        "Tc_ORANGE": 0.0,
        "Tq_ORANGE": 0.0,
        "rang_Te_ORANGE": 3,
        "rang_Te_MTN": 2,
        "rang_Te_MOOV": 1,
        "rang_Tc_ORANGE": 1,
        "rang_Tc_MTN": 1,
        "rang_Tc_MOOV": 1,
        "rang_Tbd_ORANGE": 1,
        "rang_Tbd_MTN": 2,
        "rang_Tbd_MOOV": 3,
        "rang_Tq_ORANGE": 1,
        "rang_Tq_MTN": 3,
        "rang_Tq_MOOV": 2
      },
      "id": 67
    },
    {
      "type": "Feature",
      "geometry": {
        "coordinates": [
          -7.68063,
          8.29504
        ],
        "type": "Point"
      },
      "properties": {
        "ADM0_FR": "WOROBA",
        "ADM0_PCODE": "CI13",
        "ADM1_FR": "BAFING",
        "ADM1_PCODE": "CI104",
        "ADM2_FR": "TOUBA",
        "ADM2_PCODE": "CI0403",
        "ADM3_FR": "TOUBA",
        "ADM3_PCODE": "CI040301",
        "ADM4_FR": "TOUBA",
        "ADM4_PCODE": "C7832",
        "centerLat": 8.28504,
        "centerLng": -7.68063,
        "pop": 22361,
        "Te_MOOV": 3.2300000000000004,
        "Tbd_MOOV": 19.33,
        "Tc_MOOV": 0.67,
        "Tq_MOOV": 23.61,
        "Te_MTN": 0.0,
        "Tbd_MTN": 57.42,
        "Tc_MTN": 0.0,
        "Tq_MTN": 3.36,
        "Te_ORANGE": 0.0,
        "Tbd_ORANGE": 96.13000000000001,
        "Tc_ORANGE": 0.0,
        "Tq_ORANGE": 0.65,
        "rang_Te_ORANGE": 1,
        "rang_Te_MTN": 1,
        "rang_Te_MOOV": 3,
        "rang_Tc_ORANGE": 1,
        "rang_Tc_MTN": 1,
        "rang_Tc_MOOV": 3,
        "rang_Tbd_ORANGE": 1,
        "rang_Tbd_MTN": 2,
        "rang_Tbd_MOOV": 3,
        "rang_Tq_ORANGE": 1,
        "rang_Tq_MTN": 2,
        "rang_Tq_MOOV": 3
      },
      "id": 68
    },
    {
      "type": "Feature",
      "geometry": {
        "coordinates": [
          -5.01819,
          6.57024
        ],
        "type": "Point"
      },
      "properties": {
        "ADM0_FR": "LACS",
        "ADM0_PCODE": "CI07",
        "ADM1_FR": "BELIER",
        "ADM1_PCODE": "CI106",
        "ADM2_FR": "TOUMODI",
        "ADM2_PCODE": "CI0604",
        "ADM3_FR": "TOUMODI",
        "ADM3_PCODE": "CI060401",
        "ADM4_FR": "TOUMODI",
        "ADM4_PCODE": "C7862",
        "centerLat": 6.56024,
        "centerLng": -5.01819,
        "pop": 43189,
        "Te_MOOV": 0.0,
        "Tbd_MOOV": 17.419999999999998,
        "Tc_MOOV": 0.0,
        "Tq_MOOV": 1.3,
        "Te_MTN": 0.0,
        "Tbd_MTN": 87.1,
        "Tc_MTN": 0.0,
        "Tq_MTN": 0.0,
        "Te_ORANGE": 0.65,
        "Tbd_ORANGE": 85.71,
        "Tc_ORANGE": 0.65,
        "Tq_ORANGE": 0.65,
        "rang_Te_ORANGE": 3,
        "rang_Te_MTN": 1,
        "rang_Te_MOOV": 1,
        "rang_Tc_ORANGE": 3,
        "rang_Tc_MTN": 1,
        "rang_Tc_MOOV": 1,
        "rang_Tbd_ORANGE": 2,
        "rang_Tbd_MTN": 1,
        "rang_Tbd_MOOV": 3,
        "rang_Tq_ORANGE": 2,
        "rang_Tq_MTN": 1,
        "rang_Tq_MOOV": 3
      },
      "id": 69
    },
    {
      "type": "Feature",
      "geometry": {
        "coordinates": [
          -3.01429,
          7.55954
        ],
        "type": "Point"
      },
      "properties": {
        "ADM0_FR": "ZANZAN",
        "ADM0_PCODE": "CI14",
        "ADM1_FR": "GONTOUGO",
        "ADM1_PCODE": "CI114",
        "ADM2_FR": "TRANSUA",
        "ADM2_PCODE": "CI1405",
        "ADM3_FR": "TRANSUA",
        "ADM3_PCODE": "CI140501",
        "ADM4_FR": "TRANSUA",
        "ADM4_PCODE": "C7911",
        "centerLat": 7.54954,
        "centerLng": -3.01429,
        "pop": 4114,
        "Te_MOOV": 0.0,
        "Tbd_MOOV": 50.99,
        "Tc_MOOV": 0.66,
        "Tq_MOOV": 78.52,
        "Te_MTN": 0.0,
        "Tbd_MTN": 88.74,
        "Tc_MTN": 0.0,
        "Tq_MTN": 0.0,
        "Te_ORANGE": 2.0,
        "Tbd_ORANGE": 92.52,
        "Tc_ORANGE": 0.0,
        "Tq_ORANGE": 0.0,
        "rang_Te_ORANGE": 3,
        "rang_Te_MTN": 1,
        "rang_Te_MOOV": 1,
        "rang_Tc_ORANGE": 1,
        "rang_Tc_MTN": 1,
        "rang_Tc_MOOV": 3,
        "rang_Tbd_ORANGE": 1,
        "rang_Tbd_MTN": 2,
        "rang_Tbd_MOOV": 3,
        "rang_Tq_ORANGE": 1,
        "rang_Tq_MTN": 1,
        "rang_Tq_MOOV": 3
      },
      "id": 70
    },
    {
      "type": "Feature",
      "geometry": {
        "coordinates": [
          -5.27786,
          6.82819
        ],
        "type": "Point"
      },
      "properties": {
        "ADM0_FR": "DISTRICT AUTONOME DE YAMOUSSOUKRO",
        "ADM0_PCODE": "CI05",
        "ADM1_FR": "DISTRICT AUTONOME DE YAMOUSSOUKRO",
        "ADM1_PCODE": "CI102",
        "ADM2_FR": "YAMOUSSOUKRO",
        "ADM2_PCODE": "CI0202",
        "ADM3_FR": "YAMOUSSOUKRO",
        "ADM3_PCODE": "CI020201",
        "ADM4_FR": "YAMOUSSOUKRO",
        "ADM4_PCODE": "C8092",
        "centerLat": 6.81819,
        "centerLng": -5.27786,
        "pop": 212670,
        "Te_MOOV": 1.0699999999999998,
        "Tbd_MOOV": 23.380000000000003,
        "Tc_MOOV": 1.08,
        "Tq_MOOV": 2.55,
        "Te_MTN": 0.0,
        "Tbd_MTN": 86.92999999999999,
        "Tc_MTN": 1.06,
        "Tq_MTN": 1.4500000000000002,
        "Te_ORANGE": 0.0,
        "Tbd_ORANGE": 96.44,
        "Tc_ORANGE": 0.7100000000000001,
        "Tq_ORANGE": 0.0,
        "rang_Te_ORANGE": 1,
        "rang_Te_MTN": 1,
        "rang_Te_MOOV": 3,
        "rang_Tc_ORANGE": 1,
        "rang_Tc_MTN": 2,
        "rang_Tc_MOOV": 3,
        "rang_Tbd_ORANGE": 1,
        "rang_Tbd_MTN": 2,
        "rang_Tbd_MOOV": 3,
        "rang_Tq_ORANGE": 1,
        "rang_Tq_MTN": 2,
        "rang_Tq_MOOV": 3
      },
      "id": 71
    }
  ]
}